Date/Time (LST),Month,Day,Time (LST),Temp (°C),Dew Point Temp (°C),Rel Hum (%),Wind Dir (10s deg),Wind Spd (km/h),Visibility (km),Stn Press (kPa),Hmdx,Wind Chill,Weather,Meter Reading (KWHr)
01-01-2023 01:00,1,1,01:00,3,3,100,26,10,0.4,99.16,,,Fog,6.548
01-01-2023 02:00,1,1,02:00,3,3,100,30,21,6.4,99.22,,,Fog,5.806
01-01-2023 03:00,1,1,03:00,2.6,2.6,100,28,24,8.1,99.27,,,Fog,6.827
01-01-2023 04:00,1,1,04:00,2.4,2.4,100,28,23,11.3,99.33,,,Cloudy,6.657
01-01-2023 05:00,1,1,05:00,2.1,2.1,100,28,24,11.3,99.39,,,NA,6.598
01-01-2023 06:00,1,1,06:00,2,2,100,28,18,11.3,99.49,,,NA,6.606
01-01-2023 07:00,1,1,07:00,2,1.9,99,28,20,11.3,99.6,,,Cloudy,6.527
01-01-2023 08:00,1,1,08:00,1.9,1.7,99,28,21,8.1,99.7,,,Fog,6.552
01-01-2023 09:00,1,1,09:00,1.6,1.2,98,26,18,16.1,99.78,,,Rain,6.586
01-01-2023 10:00,1,1,10:00,1.8,1.4,97,29,17,12.9,99.84,,,Cloudy,6.662
01-01-2023 11:00,1,1,11:00,2,1.4,96,30,15,24.1,99.85,,,NA,6.392
01-01-2023 12:00,1,1,12:00,2.4,1.2,92,29,20,24.1,99.82,,,NA,6.574
01-01-2023 13:00,1,1,13:00,2.5,0.8,89,26,17,24.1,99.83,,,Cloudy,6.5
01-01-2023 14:00,1,1,14:00,2.3,0.7,89,26,14,24.1,99.85,,,NA,6.448
01-01-2023 15:00,1,1,15:00,1.7,0,89,29,12,24.1,99.87,,,NA,6.586
01-01-2023 16:00,1,1,16:00,1.9,-0.8,82,28,12,24.1,99.95,,,Cloudy,6.707
01-01-2023 17:00,1,1,17:00,1.2,-0.7,87,27,8,24.1,100.01,,,NA,6.669
01-01-2023 18:00,1,1,18:00,1.1,-0.8,87,29,8,24.1,100.01,,,NA,6.469
01-01-2023 19:00,1,1,19:00,0.7,-0.8,90,22,5,24.1,100.08,,,Cloudy,6.647
01-01-2023 20:00,1,1,20:00,0.5,-0.6,92,22,7,24.1,100.13,,,NA,6.736
01-01-2023 21:00,1,1,21:00,0.6,-0.5,92,21,7,24.1,100.13,,,NA,6.315
01-01-2023 22:00,1,1,22:00,0.6,-0.3,93,21,5,24.1,100.12,,,Cloudy,6.585
01-01-2023 23:00,1,1,23:00,0.3,-0.4,95,17,6,24.1,100.1,,,NA,6.325
02-01-2023 00:00,1,2,00:00,0.2,-0.4,96,19,8,24.1,100.08,,,NA,6.542
02-01-2023 01:00,1,2,01:00,0.3,-0.6,94,20,7,24.1,100.1,,,Cloudy,6.585
02-01-2023 02:00,1,2,02:00,0.4,-0.4,94,18,5,24.1,100.14,,,NA,6.535
02-01-2023 03:00,1,2,03:00,0.6,-0.2,95,19,8,24.1,100.18,,,NA,6.515
02-01-2023 04:00,1,2,04:00,0.5,-0.1,95,18,5,24.1,100.15,,,Drizzle,6.728
02-01-2023 05:00,1,2,05:00,0.4,0.2,98,19,7,6.4,100.14,,,"Snow,Fog",6.537
02-01-2023 06:00,1,2,06:00,0.7,0.6,99,21,9,6.4,100.17,,,Fog,6.515
02-01-2023 07:00,1,2,07:00,1.4,1.2,98,23,11,4.8,100.2,,,Fog,6.563
02-01-2023 08:00,1,2,08:00,1.7,1.1,96,23,12,6.4,100.21,,,Fog,6.52
02-01-2023 09:00,1,2,09:00,2.1,1.5,96,21,14,8.1,100.26,,,Fog,6.398
02-01-2023 10:00,1,2,10:00,2.8,1.9,94,23,13,9.7,100.33,,,Fog,6.498
02-01-2023 11:00,1,2,11:00,3.5,1.9,89,25,11,16.1,100.33,,,NA,6.644
02-01-2023 12:00,1,2,12:00,3.8,0.6,79,26,16,24.1,100.32,,,NA,6.569
02-01-2023 13:00,1,2,13:00,4.1,-0.4,73,27,23,24.1,100.34,,,Mostly Cloudy,6.736
02-01-2023 14:00,1,2,14:00,4.6,-0.2,71,29,15,24.1,100.37,,,NA,6.571
02-01-2023 15:00,1,2,15:00,4.4,-0.5,71,28,15,24.1,100.41,,,NA,6.542
02-01-2023 16:00,1,2,16:00,2.7,-0.8,77,28,7,24.1,100.46,,,Mostly Cloudy,6.532
02-01-2023 17:00,1,2,17:00,3.2,-0.9,75,25,7,24.1,100.49,,,NA,6.733
02-01-2023 18:00,1,2,18:00,2.8,-0.7,78,25,8,24.1,100.54,,,NA,6.545
02-01-2023 19:00,1,2,19:00,2.7,-0.7,78,21,6,24.1,100.61,,,Cloudy,6.718
02-01-2023 20:00,1,2,20:00,2.3,-0.6,81,22,5,24.1,100.64,,,NA,6.433
02-01-2023 21:00,1,2,21:00,2.2,-0.5,83,18,9,24.1,100.63,,,NA,6.499
02-01-2023 22:00,1,2,22:00,2.1,-0.7,82,20,7,24.1,100.62,,,Cloudy,6.59
02-01-2023 23:00,1,2,23:00,2,-0.9,81,20,5,24.1,100.62,,,NA,6.659
03-01-2023 00:00,1,3,00:00,1.5,-0.9,84,19,7,24.1,100.63,,,NA,6.593
03-01-2023 01:00,1,3,01:00,1.3,-0.9,85,18,6,24.1,100.55,,,Mostly Cloudy,6.644
03-01-2023 02:00,1,3,02:00,1,-0.7,89,17,8,24.1,100.49,,,NA,6.681
03-01-2023 03:00,1,3,03:00,0.8,-0.8,88,17,6,24.1,100.51,,,NA,6.68
03-01-2023 04:00,1,3,04:00,-0.7,-1.3,96,18,5,24.1,100.48,,-2,Mostly Cloudy,6.462
03-01-2023 05:00,1,3,05:00,-0.6,-1.3,95,15,4,24.1,100.43,,-2,NA,6.355
03-01-2023 06:00,1,3,06:00,-0.5,-1.2,95,19,10,24.1,100.46,,-4,NA,6.353
03-01-2023 07:00,1,3,07:00,-0.9,-1.4,96,36,3,24.1,100.49,,-2,Mostly Cloudy,6.842
03-01-2023 08:00,1,3,08:00,-0.5,-1.1,96,10,9,24.1,100.31,,-4,NA,6.694
03-01-2023 09:00,1,3,09:00,-0.1,-0.9,95,7,10,24.1,100.28,,-3,NA,6.537
03-01-2023 10:00,1,3,10:00,0.3,-0.7,93,9,8,24.1,100.27,,,Cloudy,6.705
03-01-2023 11:00,1,3,11:00,1.2,-0.7,87,9,13,24.1,100.13,,,NA,6.864
03-01-2023 12:00,1,3,12:00,1.8,-0.7,84,10,10,24.1,100.06,,,NA,6.61
03-01-2023 13:00,1,3,13:00,2.3,-0.3,83,4,9,16.1,99.91,,,Cloudy,6.763
03-01-2023 14:00,1,3,14:00,2.8,-0.4,80,4,10,16.1,99.78,,,NA,6.636
03-01-2023 15:00,1,3,15:00,2.2,-0.3,83,2,13,16.1,99.72,,,NA,6.601
03-01-2023 16:00,1,3,16:00,1.9,-0.7,83,2,16,16.1,99.71,,,Cloudy,6.614
03-01-2023 17:00,1,3,17:00,1.8,-0.6,84,3,13,24.1,99.7,,,NA,6.794
03-01-2023 18:00,1,3,18:00,1.8,-0.7,84,3,9,24.1,99.71,,,NA,6.544
03-01-2023 19:00,1,3,19:00,2,-0.8,81,3,13,24.1,99.71,,,Cloudy,6.586
03-01-2023 20:00,1,3,20:00,1.9,-1.1,80,3,15,24.1,99.69,,,NA,6.67
03-01-2023 21:00,1,3,21:00,1.9,-1.2,80,3,13,24.1,99.71,,,NA,6.548
03-01-2023 22:00,1,3,22:00,1.8,-1.2,80,2,12,24.1,99.7,,,Cloudy,6.559
03-01-2023 23:00,1,3,23:00,2,-1.3,79,2,16,24.1,99.7,,,Rain,6.94
04-01-2023 00:00,1,4,00:00,1.6,-0.8,84,2,13,24.1,99.69,,,Rain,6.77
04-01-2023 01:00,1,4,01:00,1,-0.4,91,4,11,24.1,99.64,,,Rain,7.061
04-01-2023 02:00,1,4,02:00,0.6,-0.1,95,4,10,24.1,99.61,,,Rain,6.968
04-01-2023 03:00,1,4,03:00,0.8,0.1,95,3,9,24.1,99.71,,,NA,6.706
04-01-2023 04:00,1,4,04:00,0.8,0.1,95,4,11,24.1,99.74,,,Cloudy,7.17
04-01-2023 05:00,1,4,05:00,1,0.2,94,2,10,24.1,99.74,,,NA,6.909
04-01-2023 06:00,1,4,06:00,1.2,0.3,94,34,8,16.1,99.88,,,Rain,6.999
04-01-2023 07:00,1,4,07:00,0.8,0.5,97,5,7,16.1,99.85,,,Rain,7.045
04-01-2023 08:00,1,4,08:00,1,0.5,97,1,11,24.1,99.92,,,NA,6.755
04-01-2023 09:00,1,4,09:00,1.2,0.6,96,1,9,24.1,99.99,,,NA,6.963
04-01-2023 10:00,1,4,10:00,1.3,0.7,96,1,10,12.9,100.15,,,Drizzle,7.164
04-01-2023 11:00,1,4,11:00,1.5,0.9,96,4,12,12.9,100.12,,,Drizzle,6.81
04-01-2023 12:00,1,4,12:00,1.8,0.7,93,5,14,24.1,100.02,,,NA,6.965
04-01-2023 13:00,1,4,13:00,1.9,0.3,89,5,14,24.1,100.02,,,Cloudy,6.913
04-01-2023 14:00,1,4,14:00,1.9,0,87,4,18,24.1,100.01,,,NA,6.652
04-01-2023 15:00,1,4,15:00,1.8,-0.1,87,6,11,24.1,100.06,,,Rain,6.799
04-01-2023 16:00,1,4,16:00,1.2,0.5,95,5,16,9.7,100.05,,,"Rain,Fog",6.669
04-01-2023 17:00,1,4,17:00,0.7,-0.2,94,7,17,9.7,100.04,,,"Rain,Fog",6.595
04-01-2023 18:00,1,4,18:00,0.3,-0.6,93,6,20,16.1,100.04,,,Rain,6.673
04-01-2023 19:00,1,4,19:00,0.3,-0.6,93,7,18,16.1,99.98,,,Rain,6.565
04-01-2023 20:00,1,4,20:00,0.2,-0.8,93,7,33,16.1,99.88,,,Rain,6.753
04-01-2023 21:00,1,4,21:00,0.1,-1,92,6,31,16.1,99.88,,,Rain,6.796
04-01-2023 22:00,1,4,22:00,-0.4,-1.6,92,6,37,12.9,99.85,,-8,Freezing Rain,6.635
04-01-2023 23:00,1,4,23:00,-0.9,-2.1,92,6,46,16.1,99.65,,-9,Freezing Rain,6.502
05-01-2023 00:00,1,5,00:00,-1.3,-2.5,91,7,33,16.1,99.74,,-8,Freezing Rain,6.868
05-01-2023 01:00,1,5,01:00,-1.5,-2.4,93,6,36,16.1,99.6,,-9,Freezing Rain,6.629
05-01-2023 02:00,1,5,02:00,-1.2,-1.9,95,8,28,3.2,99.63,,-8,"Freezing Rain,Fog",6.606
05-01-2023 03:00,1,5,03:00,-2,-2.7,95,7,17,3.2,99.73,,-7,"Freezing Rain,Fog",6.7
05-01-2023 04:00,1,5,04:00,-2.6,-3.2,95,6,20,4.8,99.73,,-9,"Freezing Drizzle,Fog",6.729
05-01-2023 05:00,1,5,05:00,-3,-3.6,96,8,14,8.1,99.82,,-8,"Freezing Drizzle,Fog",6.505
05-01-2023 06:00,1,5,06:00,-3,-3.5,97,5,9,2.8,99.87,,-7,"Freezing Drizzle,Fog",6.867
05-01-2023 07:00,1,5,07:00,-3.2,-3.6,97,4,9,4.8,99.93,,-7,"Freezing Drizzle,Fog",7.041
05-01-2023 08:00,1,5,08:00,-3.2,-3.6,97,6,11,8.1,99.99,,-7,"Freezing Drizzle,Fog",7.089
05-01-2023 09:00,1,5,09:00,-3.2,-3.5,98,5,9,3.2,100.01,,-7,"Freezing Drizzle,Fog",7.713
05-01-2023 10:00,1,5,10:00,-2.8,-2.9,99,9,8,1.2,100.04,,-6,Snow,7.889
05-01-2023 11:00,1,5,11:00,-2.6,-2.8,99,7,5,3.2,100.05,,-5,Fog,7.195
05-01-2023 12:00,1,5,12:00,-2.3,-2.4,99,8,7,1.2,100.02,,-5,Fog,7.369
05-01-2023 13:00,1,5,13:00,-2,-2.1,99,8,8,1.2,99.97,,-5,Fog,7.182
05-01-2023 14:00,1,5,14:00,-2.1,-2.2,99,8,9,1,99.95,,-6,Fog,7.309
05-01-2023 15:00,1,5,15:00,-2.2,-2.3,99,8,12,1,99.97,,-6,Fog,7.459
05-01-2023 16:00,1,5,16:00,-2,-2.1,99,8,9,1,100.03,,-5,"Freezing Drizzle,Fog",7.232
05-01-2023 17:00,1,5,17:00,-1.8,-1.9,99,8,13,1.2,100.04,,-6,"Freezing Drizzle,Fog",7.577
05-01-2023 18:00,1,5,18:00,-2,-2.1,99,7,15,2.4,100.03,,-7,Fog,7.389
05-01-2023 19:00,1,5,19:00,-1.6,-1.7,100,8,11,1.6,100.07,,-5,"Freezing Drizzle,Fog",7.295
05-01-2023 20:00,1,5,20:00,-1.6,-1.6,99,9,13,2.8,100.07,,-6,Fog,7.363
05-01-2023 21:00,1,5,21:00,-1.6,-1.7,99,8,13,2.4,100.06,,-6,"Snow,Fog",7.459
05-01-2023 22:00,1,5,22:00,-1.6,-1.7,99,7,11,2.4,100.05,,-5,"Snow,Fog",7.279
05-01-2023 23:00,1,5,23:00,-1.7,-1.8,99,8,9,2.4,100.04,,-5,"Snow,Fog",7.117
06-01-2023 00:00,1,6,00:00,-1.9,-2,99,7,9,2,100.02,,-5,"Snow,Fog",7.578
06-01-2023 01:00,1,6,01:00,-2.1,-2.2,99,6,6,2,99.98,,-4,"Snow,Fog",7.345
06-01-2023 02:00,1,6,02:00,-2.1,-2.2,99,7,8,2,100,,-5,"Snow,Fog",7.258
06-01-2023 03:00,1,6,03:00,-2.2,-2.4,99,7,8,2,100,,-5,"Snow,Fog",7.222
06-01-2023 04:00,1,6,04:00,-2.5,-2.6,99,6,9,2,99.97,,-6,"Snow,Fog",7.281
06-01-2023 05:00,1,6,05:00,-2.4,-2.6,99,7,9,2,99.97,,-6,"Snow,Fog",7.126
06-01-2023 06:00,1,6,06:00,-2.4,-2.6,98,9,8,2,100.01,,-6,"Snow,Fog",7.484
06-01-2023 07:00,1,6,07:00,-2.2,-2.5,98,10,7,2.4,100.02,,-5,"Snow,Fog",7.341
06-01-2023 08:00,1,6,08:00,-2.4,-2.6,98,7,10,2.4,100.03,,-6,"Snow,Fog",7.739
06-01-2023 09:00,1,6,09:00,-2.2,-2.5,98,8,5,1.6,100.06,,-4,"Snow,Fog",7.705
06-01-2023 10:00,1,6,10:00,-1.8,-2.1,98,8,6,1.2,100.09,,-4,"Snow,Fog",7.899
06-01-2023 11:00,1,6,11:00,-1.7,-2.1,97,5,5,1.6,100.08,,-4,"Snow,Fog",7.186
06-01-2023 12:00,1,6,12:00,-1.1,-1.5,97,11,7,1.2,100.02,,-4,"Snow,Fog",7.48
06-01-2023 13:00,1,6,13:00,-0.5,-0.8,98,12,8,1.2,99.98,,-3,"Snow,Fog",7.301
06-01-2023 14:00,1,6,14:00,-0.3,-0.5,99,16,10,1,99.96,,-4,"Snow,Fog",7.196
06-01-2023 15:00,1,6,15:00,-0.1,-0.1,100,16,7,0.8,100.01,,-3,"Snow,Freezing Fog",7.183
06-01-2023 16:00,1,6,16:00,0,0,100,18,6,1.2,100.06,,-2,"Snow,Fog",7.092
06-01-2023 17:00,1,6,17:00,0.1,0.1,100,17,7,1.6,100.09,,,"Snow,Fog",7.369
06-01-2023 18:00,1,6,18:00,0.7,0.7,100,22,11,9.7,100.11,,,Fog,7.57
06-01-2023 19:00,1,6,19:00,1,0.2,94,28,21,6.4,100.18,,,"Rain,Fog",7.294
06-01-2023 20:00,1,6,20:00,-0.1,-0.8,95,27,14,2,100.26,,-4,Snow,7.302
06-01-2023 21:00,1,6,21:00,-0.4,-2.2,88,28,20,24.1,100.3,,-6,NA,7.497
06-01-2023 22:00,1,6,22:00,-0.9,-2.6,88,28,23,24.1,100.31,,-7,Mostly Cloudy,7.246
06-01-2023 23:00,1,6,23:00,-1.7,-3.6,87,29,18,24.1,100.33,,-7,NA,7.215
07-01-2023 00:00,1,7,00:00,-2.4,-4.8,84,29,20,24.1,100.38,,-8,NA,7.332
07-01-2023 01:00,1,7,01:00,-3,-5.4,84,31,27,24.1,100.4,,-10,Mostly Cloudy,7.421
07-01-2023 02:00,1,7,02:00,-4,-6.4,83,29,18,24.1,100.45,,-10,NA,7.392
07-01-2023 03:00,1,7,03:00,-4.5,-7,83,30,22,24.1,100.48,,-11,NA,7.371
07-01-2023 04:00,1,7,04:00,-5.6,-8.3,81,30,19,24.1,100.52,,-12,Mostly Cloudy,7.257
07-01-2023 05:00,1,7,05:00,-5.7,-8,84,31,27,16.1,100.61,,-14,Snow,7.347
07-01-2023 06:00,1,7,06:00,-6.1,-8,87,31,17,24.1,100.65,,-12,Snow,7.363
07-01-2023 07:00,1,7,07:00,-7,-9.6,82,31,21,24.1,100.72,,-14,Mostly Cloudy,7.255
07-01-2023 08:00,1,7,08:00,-7.3,-10,81,30,18,24.1,100.77,,-14,NA,7.246
07-01-2023 09:00,1,7,09:00,-7.2,-10.1,80,30,22,24.1,100.81,,-15,NA,7.127
07-01-2023 10:00,1,7,10:00,-6.8,-9.8,79,30,22,24.1,100.88,,-14,Mostly Cloudy,7.637
07-01-2023 11:00,1,7,11:00,-6.7,-9.3,82,32,16,16.1,100.93,,-13,Snow Showers,7.461
07-01-2023 12:00,1,7,12:00,-6.7,-9.6,80,32,24,24.1,100.9,,-14,Snow Showers,7.309
07-01-2023 13:00,1,7,13:00,-6.7,-9.3,81,32,18,6.4,100.91,,-13,Snow Showers,7.034
07-01-2023 14:00,1,7,14:00,-7,-10.1,79,33,20,9.7,100.95,,-14,Snow Showers,7.315
07-01-2023 15:00,1,7,15:00,-7,-9.9,80,33,18,8.1,101.04,,-14,Snow Showers,7.213
07-01-2023 16:00,1,7,16:00,-7.5,-11.3,75,35,20,16.1,101.14,,-15,Snow Showers,7.118
07-01-2023 17:00,1,7,17:00,-8,-12,73,32,26,19.3,101.25,,-16,Snow Showers,7.312
07-01-2023 18:00,1,7,18:00,-8.4,-12,75,31,27,16.1,101.34,,-17,Snow Showers,7.001
07-01-2023 19:00,1,7,19:00,-8.8,-12.5,75,31,20,16.1,101.41,,-16,Snow Showers,7.318
07-01-2023 20:00,1,7,20:00,-8.9,-12.4,76,34,19,16.1,101.46,,-16,Snow Showers,7.067
07-01-2023 21:00,1,7,21:00,-9,-12.8,74,33,17,16.1,101.49,,-16,Snow Showers,7.13
07-01-2023 22:00,1,7,22:00,-9.1,-12.5,76,32,13,24.1,101.5,,-15,Snow Showers,7.567
07-01-2023 23:00,1,7,23:00,-9.2,-12.8,75,32,13,24.1,101.49,,-15,Snow Showers,7.286
08-01-2023 00:00,1,8,00:00,-10.1,-12.8,81,30,13,24.1,101.48,,-16,NA,7.343
08-01-2023 01:00,1,8,01:00,-11.2,-13.2,85,32,9,24.1,101.43,,-16,Snow Showers,7.183
08-01-2023 02:00,1,8,02:00,-10.7,-13.5,80,27,6,24.1,101.42,,-14,Snow Showers,7.24
08-01-2023 03:00,1,8,03:00,-10.7,-13.2,82,24,9,24.1,101.47,,-16,Snow Showers,7.173
08-01-2023 04:00,1,8,04:00,-11.5,-14.3,80,27,12,24.1,101.46,,-18,Mainly Clear,7.4
08-01-2023 05:00,1,8,05:00,-12.4,-14.4,85,27,10,24.1,101.43,,-18,NA,7.414
08-01-2023 06:00,1,8,06:00,-12.4,-13.8,89,28,6,24.1,101.38,,-16,NA,7.343
08-01-2023 07:00,1,8,07:00,-10.9,-13.2,83,23,7,24.1,101.39,,-15,Snow Showers,7.329
08-01-2023 08:00,1,8,08:00,-10.6,-13.3,80,24,12,24.1,101.38,,-17,NA,7.122
08-01-2023 09:00,1,8,09:00,-10,-12.3,83,20,10,12.9,101.33,,-15,Snow,7.372
08-01-2023 10:00,1,8,10:00,-9.6,-12.1,82,22,11,16.1,101.31,,-15,Snow,7.134
08-01-2023 11:00,1,8,11:00,-9,-11.5,82,22,15,24.1,101.23,,-16,Snow,7.512
08-01-2023 12:00,1,8,12:00,-8.2,-10.9,81,21,13,24.1,101.16,,-14,Snow,7.112
08-01-2023 13:00,1,8,13:00,-6.7,-10.4,75,24,12,24.1,101.02,,-12,Mostly Cloudy,7.265
08-01-2023 14:00,1,8,14:00,-5.8,-10.2,71,25,11,24.1,100.9,,-11,NA,7.215
08-01-2023 15:00,1,8,15:00,-5.1,-9.7,70,25,9,24.1,100.84,,-9,NA,7.092
08-01-2023 16:00,1,8,16:00,-5.2,-9.7,71,23,11,24.1,100.77,,-10,Mostly Cloudy,6.939
08-01-2023 17:00,1,8,17:00,-5.7,-9.2,77,21,11,24.1,100.71,,-10,NA,7.316
08-01-2023 18:00,1,8,18:00,-5.8,-9.2,77,22,15,24.1,100.63,,-12,NA,7.207
08-01-2023 19:00,1,8,19:00,-6.3,-9.1,80,22,14,24.1,100.59,,-12,Mostly Cloudy,7.113
08-01-2023 20:00,1,8,20:00,-6.2,-8.8,82,23,14,24.1,100.55,,-12,NA,7.098
08-01-2023 21:00,1,8,21:00,-6,-8.6,82,26,18,24.1,100.49,,-12,NA,7.152
08-01-2023 22:00,1,8,22:00,-5.9,-8.3,83,25,13,24.1,100.44,,-11,Cloudy,7.567
08-01-2023 23:00,1,8,23:00,-5.5,-7.7,84,24,9,24.1,100.38,,-10,NA,7.325
09-01-2023 00:00,1,9,00:00,-4.8,-7.5,82,25,18,24.1,100.3,,-11,NA,7.194
09-01-2023 01:00,1,9,01:00,-5,-7.6,82,26,18,24.1,100.21,,-11,Cloudy,7.205
09-01-2023 02:00,1,9,02:00,-5,-7.3,84,25,10,24.1,100.16,,-9,NA,7.18
09-01-2023 03:00,1,9,03:00,-4.8,-7.2,84,22,14,24.1,100.19,,-10,NA,7.094
09-01-2023 04:00,1,9,04:00,-4.8,-7,84,22,12,24.1,100.11,,-10,Cloudy,7.308
09-01-2023 05:00,1,9,05:00,-4.9,-7,85,21,14,24.1,100,,-10,NA,7.089
09-01-2023 06:00,1,9,06:00,-4.7,-6.8,85,20,11,24.1,99.94,,-9,NA,9.632
09-01-2023 07:00,1,9,07:00,-4.4,-6.5,85,21,14,24.1,99.96,,-10,Cloudy,9.302
09-01-2023 08:00,1,9,08:00,-4,-6.1,85,20,14,24.1,99.93,,-9,NA,11.565
09-01-2023 09:00,1,9,09:00,-3.5,-5.7,85,21,16,24.1,99.91,,-9,NA,11.709
09-01-2023 10:00,1,9,10:00,-2.8,-5.2,84,21,16,24.1,99.88,,-8,Cloudy,11.954
09-01-2023 11:00,1,9,11:00,-2.2,-4.9,82,21,20,24.1,99.83,,-8,NA,12.02
09-01-2023 12:00,1,9,12:00,-1.9,-4.7,81,21,24,24.1,99.72,,-8,NA,11.758
09-01-2023 13:00,1,9,13:00,-1.7,-4.5,81,21,20,24.1,99.64,,-7,Cloudy,11.519
09-01-2023 14:00,1,9,14:00,-1.3,-4,82,22,22,16.1,99.55,,-7,NA,10.726
09-01-2023 15:00,1,9,15:00,-1.2,-3.7,83,21,24,16.1,99.52,,-7,NA,10.168
09-01-2023 16:00,1,9,16:00,-1.3,-3.2,87,21,23,12.9,99.55,,-7,Snow,10.13
09-01-2023 17:00,1,9,17:00,-1.3,-2.4,92,24,23,4.8,99.57,,-7,Snow,9.893
09-01-2023 18:00,1,9,18:00,-1,-2.1,93,24,21,16.1,99.6,,-7,Snow,9.982
09-01-2023 19:00,1,9,19:00,-0.8,-2,92,24,17,16.1,99.63,,-6,Snow,9.917
09-01-2023 20:00,1,9,20:00,-0.5,-1.8,91,24,15,12.9,99.63,,-5,Snow,9.818
09-01-2023 21:00,1,9,21:00,-0.4,-1.4,93,29,19,8.1,99.69,,-6,Snow Showers,8.137
09-01-2023 22:00,1,9,22:00,-2.1,-4.6,83,33,33,8.1,99.78,,-10,Snow,7.77
09-01-2023 23:00,1,9,23:00,-2.9,-5.9,80,31,25,11.3,99.88,,-10,Snow,7.896
10-01-2023 00:00,1,10,00:00,-3.6,-8.2,71,31,26,24.1,99.94,,-11,NA,8.227
10-01-2023 01:00,1,10,01:00,-5.1,-9.6,71,30,28,24.1,100.02,,-13,Mainly Clear,7.751
10-01-2023 02:00,1,10,02:00,-6.3,-9.3,79,32,21,24.1,100.09,,-13,NA,8.21
10-01-2023 03:00,1,10,03:00,-6.6,-9.9,78,33,23,16.1,100.23,,-14,Snow Showers,6.891
10-01-2023 04:00,1,10,04:00,-8,-10.7,81,33,14,16.1,100.27,,-14,Mainly Clear,5.546
10-01-2023 05:00,1,10,05:00,-8.2,-10.6,83,30,14,8.1,100.33,,-14,Snow Showers,7.075
10-01-2023 06:00,1,10,06:00,-9.3,-10.9,88,31,9,12.9,100.4,,-14,NA,9.756
10-01-2023 07:00,1,10,07:00,-9.1,-12.3,77,32,14,24.1,100.47,,-15,Cloudy,8.695
10-01-2023 08:00,1,10,08:00,-9.1,-12.7,75,32,17,24.1,100.51,,-16,NA,10.287
10-01-2023 09:00,1,10,09:00,-8.9,-12.3,76,33,13,24.1,100.59,,-15,NA,10.559
10-01-2023 10:00,1,10,10:00,-8.8,-12.3,76,30,14,16.1,100.62,,-15,Snow Showers,9.882
10-01-2023 11:00,1,10,11:00,-8.5,-12.1,75,33,9,24.1,100.62,,-13,Snow Showers,10.086
10-01-2023 12:00,1,10,12:00,-8.2,-12.2,73,32,15,24.1,100.6,,-15,Snow,10.15
10-01-2023 13:00,1,10,13:00,-8.1,-11.8,75,32,14,24.1,100.58,,-14,Snow,10.045
10-01-2023 14:00,1,10,14:00,-8,-12.2,72,34,9,24.1,100.59,,-13,NA,10.215
10-01-2023 15:00,1,10,15:00,-8,-12.1,73,32,12,24.1,100.64,,-13,NA,10.955
10-01-2023 16:00,1,10,16:00,-8.6,-12.4,74,30,10,24.1,100.7,,-14,Mainly Clear,10.721
10-01-2023 17:00,1,10,17:00,-9.6,-13.3,75,32,9,24.1,100.72,,-14,NA,10.78
10-01-2023 18:00,1,10,18:00,-9.5,-12.8,77,32,9,24.1,100.78,,-14,NA,10.709
10-01-2023 19:00,1,10,19:00,-10.4,-13.5,78,32,8,24.1,100.83,,-15,Clear,10.749
10-01-2023 20:00,1,10,20:00,-9.8,-13.6,74,35,12,24.1,100.86,,-16,NA,10.6
10-01-2023 21:00,1,10,21:00,-10.1,-13.6,76,36,14,24.1,100.91,,-17,NA,10.758
10-01-2023 22:00,1,10,22:00,-10.8,-13.9,78,1,14,24.1,100.96,,-17,Mainly Clear,10.534
10-01-2023 23:00,1,10,23:00,-11.4,-14.4,79,1,14,24.1,100.99,,-18,NA,8.056
11-01-2023 00:00,1,11,00:00,-12,-14.8,80,1,12,24.1,101,,-18,NA,7.107
11-01-2023 01:00,1,11,01:00,-12.9,-15.4,82,2,11,24.1,101,,-19,Clear,6.908
11-01-2023 02:00,1,11,02:00,-14,-16.1,84,3,9,24.1,101.05,,-20,NA,6.854
11-01-2023 03:00,1,11,03:00,-13.4,-15.4,85,3,10,24.1,101.12,,-19,NA,6.783
11-01-2023 04:00,1,11,04:00,-13.3,-15.4,84,2,13,24.1,101.15,,-20,Mostly Cloudy,6.916
11-01-2023 05:00,1,11,05:00,-14.7,-16.4,87,5,14,24.1,101.09,,-22,NA,6.846
11-01-2023 06:00,1,11,06:00,-15.1,-16.8,87,4,16,24.1,101.12,,-23,NA,10.746
11-01-2023 07:00,1,11,07:00,-15,-16.8,86,5,14,24.1,101.16,,-23,Mainly Clear,9.387
11-01-2023 08:00,1,11,08:00,-15,-16.9,86,5,16,24.1,101.14,,-23,NA,10.664
11-01-2023 09:00,1,11,09:00,-13.1,-15.8,80,6,17,24.1,101.2,,-21,NA,10.941
11-01-2023 10:00,1,11,10:00,-11.4,-14.4,79,6,14,24.1,101.21,,-18,Mostly Cloudy,11.036
11-01-2023 11:00,1,11,11:00,-10.1,-13,80,7,15,24.1,101.19,,-17,NA,10.92
11-01-2023 12:00,1,11,12:00,-8.7,-12.2,76,6,14,24.1,101.12,,-15,NA,10.815
11-01-2023 13:00,1,11,13:00,-8.8,-12.2,76,5,17,24.1,101.01,,-16,Mostly Cloudy,10.487
11-01-2023 14:00,1,11,14:00,-8.3,-11.7,77,6,16,24.1,100.91,,-15,NA,8.715
11-01-2023 15:00,1,11,15:00,-8.9,-12.2,77,6,18,24.1,100.91,,-16,NA,8.741
11-01-2023 16:00,1,11,16:00,-9.2,-12.5,77,6,7,24.1,101.04,,-13,Mostly Cloudy,8.711
11-01-2023 17:00,1,11,17:00,-9.4,-12.1,81,5,17,24.1,101,,-16,NA,8.965
11-01-2023 18:00,1,11,18:00,-9.6,-12.3,80,7,22,24.1,100.95,,-18,NA,8.862
11-01-2023 19:00,1,11,19:00,-9.6,-12.6,79,7,18,24.1,100.91,,-17,Cloudy,8.784
11-01-2023 20:00,1,11,20:00,-9.5,-12.4,79,7,15,24.1,100.91,,-16,NA,7.214
11-01-2023 21:00,1,11,21:00,-9.3,-12.1,80,7,19,24.1,100.85,,-17,NA,5.834
11-01-2023 22:00,1,11,22:00,-9.1,-11.8,81,7,19,24.1,100.81,,-17,Cloudy,5.978
11-01-2023 23:00,1,11,23:00,-9,-11.5,82,8,23,16.1,100.71,,-17,Snow,5.958
12-01-2023 00:00,1,12,00:00,-8.7,-11.1,83,8,18,16.1,100.67,,-16,Snow,5.738
12-01-2023 01:00,1,12,01:00,-8.4,-10.7,84,8,17,16.1,100.59,,-15,Snow,5.848
12-01-2023 02:00,1,12,02:00,-8.2,-10.3,85,7,20,12.9,100.58,,-16,Snow,6.031
12-01-2023 03:00,1,12,03:00,-7.9,-9.9,86,7,18,16.1,100.54,,-15,Snow,5.61
12-01-2023 04:00,1,12,04:00,-7.7,-9.3,88,7,19,6.4,100.49,,-15,Snow,5.865
12-01-2023 05:00,1,12,05:00,-7.7,-9,90,7,20,1.6,100.44,,-15,Snow,5.945
12-01-2023 06:00,1,12,06:00,-7.5,-8.8,91,8,19,2,100.4,,-15,Snow,9.349
12-01-2023 07:00,1,12,07:00,-7.2,-8.4,91,7,18,3.2,100.37,,-14,Snow,7.643
12-01-2023 08:00,1,12,08:00,-6.8,-8,91,7,17,4,100.34,,-13,Snow,8.223
12-01-2023 09:00,1,12,09:00,-6.2,-7.4,92,7,17,2.4,100.33,,-12,Snow,10.034
12-01-2023 10:00,1,12,10:00,-5.7,-6.9,92,7,18,4,100.33,,-12,Snow,9.765
12-01-2023 11:00,1,12,11:00,-5.5,-6.6,92,6,18,9.7,100.24,,-12,Snow,10.381
12-01-2023 12:00,1,12,12:00,-5.3,-6.3,92,5,21,4,100.11,,-12,Snow,9.908
12-01-2023 13:00,1,12,13:00,-4.9,-6,92,6,21,3.2,100,,-12,Ice Pellet Showers,9.645
12-01-2023 14:00,1,12,14:00,-4.5,-5.3,94,6,18,4.8,99.91,,-11,Snow,9.485
12-01-2023 15:00,1,12,15:00,-4,-4.5,96,6,16,1.6,99.9,,-10,Snow,9.179
12-01-2023 16:00,1,12,16:00,-3.4,-3.8,97,7,15,1.2,99.91,,-9,"Freezing Drizzle,Fog",9.177
12-01-2023 17:00,1,12,17:00,-3.2,-3.5,98,5,18,2.4,99.87,,-9,"Freezing Drizzle,Fog",9.48
12-01-2023 18:00,1,12,18:00,-2.8,-3.1,98,5,21,4,99.82,,-9,"Freezing Drizzle,Fog",9.044
12-01-2023 19:00,1,12,19:00,-2.6,-2.9,98,5,22,2,99.78,,-9,"Freezing Drizzle,Fog",9.034
12-01-2023 20:00,1,12,20:00,-2.2,-2.4,98,5,23,2,99.7,,-8,"Freezing Rain,Fog",7.752
12-01-2023 21:00,1,12,21:00,-1.9,-2.1,98,5,23,2.4,99.63,,-8,"Freezing Rain,Fog",6.657
12-01-2023 22:00,1,12,22:00,-1.7,-2,98,5,22,2,99.53,,-8,Snow,6.672
12-01-2023 23:00,1,12,23:00,-1.1,-1.5,97,3,28,2.4,99.44,,-8,Snow,6.591
13-01-2023 00:00,1,13,00:00,-1.2,-1.6,97,2,19,1.6,99.36,,-7,Snow,6.638
13-01-2023 01:00,1,13,01:00,-1.2,-1.6,97,2,20,1.2,99.28,,-7,Snow,6.402
13-01-2023 02:00,1,13,02:00,-1.2,-1.6,97,1,23,1.6,99.21,,-7,Snow,6.614
13-01-2023 03:00,1,13,03:00,-1.4,-1.9,96,1,22,6.4,99.15,,-7,Snow,6.429
13-01-2023 04:00,1,13,04:00,-1.5,-2,96,36,23,1.2,99.1,,-8,Snow,6.556
13-01-2023 05:00,1,13,05:00,-2.1,-2.8,96,35,24,1.2,99.09,,-8,Snow,6.621
13-01-2023 06:00,1,13,06:00,-2.6,-3.4,94,35,28,1.6,99.09,,-10,Snow,9.569
13-01-2023 07:00,1,13,07:00,-2.9,-3.8,94,35,28,1.6,99.13,,-10,Snow,8.356
13-01-2023 08:00,1,13,08:00,-3.2,-4.3,92,36,29,1.6,99.16,,-11,Snow,9.377
13-01-2023 09:00,1,13,09:00,-3.4,-4.5,92,35,32,1.6,99.19,,-11,"Snow,Blowing Snow",9.672
13-01-2023 10:00,1,13,10:00,-3.4,-4.7,91,35,28,1.2,99.28,,-11,Snow,9.852
13-01-2023 11:00,1,13,11:00,-3.5,-4.4,93,33,21,1,99.34,,-10,Snow,9.822
13-01-2023 12:00,1,13,12:00,-4.3,-5.3,93,32,26,1.2,99.37,,-12,Snow,9.864
13-01-2023 13:00,1,13,13:00,-4.6,-5.7,92,32,24,1.6,99.43,,-12,Snow,9.834
13-01-2023 14:00,1,13,14:00,-5,-6.1,92,33,28,1.2,99.49,,-13,Snow,9.132
13-01-2023 15:00,1,13,15:00,-5,-6.4,90,34,23,1.6,99.59,,-12,Snow,8.625
13-01-2023 16:00,1,13,16:00,-5.1,-6.6,89,33,22,2.4,99.71,,-12,Snow,8.369
13-01-2023 17:00,1,13,17:00,-5.5,-6.9,90,33,22,2.4,99.81,,-13,Snow,8.659
13-01-2023 18:00,1,13,18:00,-5.9,-7.2,90,32,22,4.8,99.9,,-13,Snow,8.406
13-01-2023 19:00,1,13,19:00,-6,-9,79,35,19,16.1,100.03,,-13,Snow,8.489
13-01-2023 20:00,1,13,20:00,-6.3,-9.5,78,35,22,16.1,100.07,,-14,NA,7.937
13-01-2023 21:00,1,13,21:00,-6.8,-10.4,76,34,24,24.1,100.19,,-14,Blowing Snow,6.853
13-01-2023 22:00,1,13,22:00,-7.3,-10.7,77,35,26,24.1,100.19,,-15,Mostly Cloudy,6.48
13-01-2023 23:00,1,13,23:00,-7.9,-11.2,77,34,26,24.1,100.18,,-16,NA,6.33
14-01-2023 00:00,1,14,00:00,-8.8,-11.3,82,32,19,24.1,100.24,,-16,NA,6.337
14-01-2023 01:00,1,14,01:00,-10.1,-12.3,84,33,17,24.1,100.24,,-17,Mostly Cloudy,6.309
14-01-2023 02:00,1,14,02:00,-10.6,-13.1,82,33,20,24.1,100.24,,-19,NA,6.333
14-01-2023 03:00,1,14,03:00,-11.5,-13.9,82,33,21,24.1,100.3,,-20,NA,6.364
14-01-2023 04:00,1,14,04:00,-11.9,-14.5,82,33,18,24.1,100.37,,-20,Clear,6.351
14-01-2023 05:00,1,14,05:00,-12.7,-15.2,82,33,19,24.1,100.4,,-21,NA,6.36
14-01-2023 06:00,1,14,06:00,-12.9,-15.5,81,33,18,24.1,100.44,,-21,NA,6.272
14-01-2023 07:00,1,14,07:00,-13.3,-15.9,81,32,23,24.1,100.48,,-23,Mainly Clear,6.332
14-01-2023 08:00,1,14,08:00,-13.4,-16.1,80,33,18,24.1,100.53,,-22,NA,6.297
14-01-2023 09:00,1,14,09:00,-13,-16.1,78,33,19,24.1,100.56,,-21,NA,6.474
14-01-2023 10:00,1,14,10:00,-12.2,-15.6,76,33,23,24.1,100.57,,-21,Clear,6.209
14-01-2023 11:00,1,14,11:00,-11.1,-14.5,77,32,14,24.1,100.57,,-18,NA,6.416
14-01-2023 12:00,1,14,12:00,-10.6,-14.5,73,28,16,24.1,100.58,,-18,NA,6.328
14-01-2023 13:00,1,14,13:00,-10.2,-14.2,72,27,15,24.1,100.56,,-17,Clear,6.392
14-01-2023 14:00,1,14,14:00,-9.3,-13.2,73,30,14,24.1,100.57,,-16,NA,6.402
14-01-2023 15:00,1,14,15:00,-8.2,-12.2,73,29,14,24.1,100.59,,-14,NA,6.465
14-01-2023 16:00,1,14,16:00,-9,-12.8,74,29,19,24.1,100.68,,-16,Clear,6.14
14-01-2023 17:00,1,14,17:00,-12.3,-15,81,24,13,24.1,100.78,,-19,NA,6.353
14-01-2023 18:00,1,14,18:00,-14,-15.8,87,27,12,24.1,100.85,,-21,NA,6.277
14-01-2023 19:00,1,14,19:00,-12.2,-14.8,81,29,14,24.1,100.87,,-19,Clear,6.38
14-01-2023 20:00,1,14,20:00,-13.1,-15.1,85,28,8,24.1,100.92,,-18,NA,6.334
14-01-2023 21:00,1,14,21:00,-14.4,-16.3,86,30,10,24.1,100.95,,-21,NA,6.371
14-01-2023 22:00,1,14,22:00,-14.7,-16.6,86,31,10,24.1,100.96,,-21,Clear,6.295
14-01-2023 23:00,1,14,23:00,-15.7,-17.3,88,30,9,24.1,100.98,,-22,NA,6.45
15-01-2023 00:00,1,15,00:00,-16.1,-18.1,85,29,10,24.1,100.95,,-23,NA,6.324
15-01-2023 01:00,1,15,01:00,-15.7,-17.4,87,30,15,24.1,100.96,,-24,Clear,6.416
15-01-2023 02:00,1,15,02:00,-15.8,-17.2,89,32,15,24.1,101,,-24,NA,6.395
15-01-2023 03:00,1,15,03:00,-15,-16.2,90,30,5,24.1,101.1,,-19,NA,6.311
15-01-2023 04:00,1,15,04:00,-15.6,-16.8,90,31,10,24.1,101.16,,-22,Clear,6.328
15-01-2023 05:00,1,15,05:00,-16.5,-18.1,87,33,13,24.1,101.18,,-24,NA,6.429
15-01-2023 06:00,1,15,06:00,-15.2,-16.9,87,33,11,24.1,101.25,,-22,NA,6.262
15-01-2023 07:00,1,15,07:00,-16.7,-18.3,87,30,9,24.1,101.35,,-23,Mostly Cloudy,6.41
15-01-2023 08:00,1,15,08:00,-15.4,-17.1,87,33,10,24.1,101.43,,-22,NA,6.372
15-01-2023 09:00,1,15,09:00,-13.8,-15.3,88,33,14,24.1,101.48,,-21,Snow,6.451
15-01-2023 10:00,1,15,10:00,-12.8,-14.4,88,33,12,24.1,101.51,,-19,Snow,6.246
15-01-2023 11:00,1,15,11:00,-11.5,-13.2,87,33,7,24.1,101.49,,-16,NA,6.37
15-01-2023 12:00,1,15,12:00,-10.4,-12.5,85,31,12,24.1,101.44,,-16,NA,6.327
15-01-2023 13:00,1,15,13:00,-9.6,-11.7,85,30,9,24.1,101.37,,-14,Mostly Cloudy,6.452
15-01-2023 14:00,1,15,14:00,-8.8,-11.2,83,29,7,24.1,101.36,,-13,NA,6.427
15-01-2023 15:00,1,15,15:00,-8.7,-11.3,82,25,7,24.1,101.34,,-13,NA,6.298
15-01-2023 16:00,1,15,16:00,-9.1,-11.5,83,25,10,24.1,101.34,,-14,Clear,6.224
15-01-2023 17:00,1,15,17:00,-9.9,-12,85,28,7,24.1,101.36,,-14,NA,6.409
15-01-2023 18:00,1,15,18:00,-10.2,-11.9,88,29,6,24.1,101.37,,-14,NA,6.402
15-01-2023 19:00,1,15,19:00,-12.3,-13.3,92,27,7,24.1,101.37,,-17,Clear,6.439
15-01-2023 20:00,1,15,20:00,-12.8,-14.2,89,30,9,24.1,101.35,,-18,NA,6.222
15-01-2023 21:00,1,15,21:00,-12.4,-13.6,91,30,10,24.1,101.32,,-18,NA,6.349
15-01-2023 22:00,1,15,22:00,-14.3,-15.8,89,31,13,24.1,101.28,,-21,Clear,6.397
15-01-2023 23:00,1,15,23:00,-12.9,-14.1,90,32,8,24.1,101.22,,-18,NA,6.311
16-01-2023 00:00,1,16,00:00,-12.2,-13.4,91,33,10,24.1,101.14,,-18,NA,6.358
16-01-2023 01:00,1,16,01:00,-14.7,-16.2,89,33,7,24.1,101.09,,-19,Clear,6.45
16-01-2023 02:00,1,16,02:00,-13.4,-14.7,90,33,8,24.1,101.13,,-18,NA,6.424
16-01-2023 03:00,1,16,03:00,-13.2,-14.6,90,35,7,24.1,101.09,,-18,NA,6.18
16-01-2023 04:00,1,16,04:00,-13.2,-14.6,90,36,4,24.1,101.04,,-16,Clear,6.347
16-01-2023 05:00,1,16,05:00,-14.4,-15.8,89,27,6,24.1,101.02,,-19,NA,6.582
16-01-2023 06:00,1,16,06:00,-16.5,-18.3,86,28,13,24.1,101.02,,-24,NA,8.954
16-01-2023 07:00,1,16,07:00,-15.5,-17.1,87,28,13,24.1,100.95,,-23,Clear,7.647
16-01-2023 08:00,1,16,08:00,-16.9,-18.7,86,32,12,24.1,100.92,,-24,NA,8.303
16-01-2023 09:00,1,16,09:00,-15,-16.7,87,36,1,24.1,100.84,,-16,NA,8.88
16-01-2023 10:00,1,16,10:00,-13.4,-14.9,89,27,12,24.1,100.78,,-20,Mainly Clear,8.861
16-01-2023 11:00,1,16,11:00,-11.3,-12.7,90,27,4,24.1,100.71,,-14,NA,10.114
16-01-2023 12:00,1,16,12:00,-9.1,-10.3,91,28,18,24.1,100.54,,-16,NA,9.949
16-01-2023 13:00,1,16,13:00,-7,-9.7,81,30,12,24.1,100.39,,-12,Mainly Clear,9.469
16-01-2023 14:00,1,16,14:00,-4.9,-9.6,70,28,13,24.1,100.26,,-10,NA,9.179
16-01-2023 15:00,1,16,15:00,-3.7,-8.9,67,29,17,24.1,100.23,,-9,NA,9.195
16-01-2023 16:00,1,16,16:00,-3.8,-8.8,68,29,9,24.1,100.16,,-8,Mainly Clear,8.934
16-01-2023 17:00,1,16,17:00,-5.6,-9.4,75,28,14,24.1,100.09,,-11,NA,9.21
16-01-2023 18:00,1,16,18:00,-5.5,-9.1,76,30,17,24.1,100.07,,-12,NA,9.144
16-01-2023 19:00,1,16,19:00,-6.3,-9.7,77,29,14,24.1,100.04,,-12,Clear,8.766
16-01-2023 20:00,1,16,20:00,-9.3,-11.7,83,31,16,24.1,99.98,,-16,NA,7.594
16-01-2023 21:00,1,16,21:00,-8.3,-11.2,79,30,11,24.1,99.87,,-14,NA,6.562
16-01-2023 22:00,1,16,22:00,-8.6,-10.1,89,33,6,24.1,99.78,,-12,Clear,6.435
16-01-2023 23:00,1,16,23:00,-11.2,-13.1,86,25,3,24.1,99.73,,-13,NA,6.767
17-01-2023 00:00,1,17,00:00,-12.6,-13.6,92,23,12,24.1,99.69,,-19,NA,6.558
17-01-2023 01:00,1,17,01:00,-11.2,-12.3,92,22,4,24.1,99.63,,-14,Clear,6.519
17-01-2023 02:00,1,17,02:00,-12.4,-13.3,93,36,1,24.1,99.58,,-13,NA,6.516
17-01-2023 03:00,1,17,03:00,-11.8,-12.9,92,3,5,24.1,99.49,,-15,NA,6.304
17-01-2023 04:00,1,17,04:00,-12.6,-13.5,93,23,8,24.1,99.43,,-18,Clear,6.55
17-01-2023 05:00,1,17,05:00,-13.7,-14.8,91,24,7,24.1,99.42,,-18,NA,6.574
17-01-2023 06:00,1,17,06:00,-13.7,-14.8,91,36,1,24.1,99.36,,-14,NA,9.842
17-01-2023 07:00,1,17,07:00,-13.4,-14.6,91,17,3,24.1,99.31,,-15,Mainly Clear,8.321
17-01-2023 08:00,1,17,08:00,-14.8,-16.4,88,36,3,24.1,99.27,,-17,NA,9.273
17-01-2023 09:00,1,17,09:00,-12.5,-13.8,89,20,6,24.1,99.28,,-16,NA,9.968
17-01-2023 10:00,1,17,10:00,-10.9,-12.3,89,36,1,24.1,99.24,,-12,Mainly Clear,9.451
17-01-2023 11:00,1,17,11:00,-7.2,-9.6,84,36,2,24.1,99.18,,-8,NA,10.007
17-01-2023 12:00,1,17,12:00,-5.5,-9.6,73,22,3,24.1,99.06,,-7,NA,9.66
17-01-2023 13:00,1,17,13:00,-5,-8.9,74,25,5,24.1,98.98,,-7,Mostly Cloudy,8.936
17-01-2023 14:00,1,17,14:00,-4.3,-8.6,72,36,2,24.1,98.96,,-5,NA,8.426
17-01-2023 15:00,1,17,15:00,-4.3,-7.2,81,10,9,12.9,98.93,,-8,Snow,8.289
17-01-2023 16:00,1,17,16:00,-3.7,-5.6,87,7,7,12.9,98.9,,-7,Snow,8.11
17-01-2023 17:00,1,17,17:00,-3.9,-5.3,89,8,8,12.9,98.85,,-7,Snow,8.574
17-01-2023 18:00,1,17,18:00,-3.9,-5.2,91,9,5,24.1,98.86,,-6,Snow,8.264
17-01-2023 19:00,1,17,19:00,-3.9,-4.9,93,12,4,12.9,98.85,,-6,Ice Pellets,8.265
17-01-2023 20:00,1,17,20:00,-3.7,-4.6,94,19,3,9.7,98.84,,-5,"Freezing Rain,Fog",7.561
17-01-2023 21:00,1,17,21:00,-3.7,-4.6,93,7,5,16.1,98.8,,-6,NA,6.501
17-01-2023 22:00,1,17,22:00,-3.5,-4.2,95,5,10,16.1,98.75,,-7,Cloudy,6.405
17-01-2023 23:00,1,17,23:00,-3.6,-4.4,94,36,2,16.1,98.79,,-4,NA,6.59
18-01-2023 00:00,1,18,00:00,-3.5,-4.1,96,4,9,8.1,98.73,,-7,"Freezing Drizzle,Fog",6.428
18-01-2023 01:00,1,18,01:00,-3.3,-3.7,97,5,8,4.8,98.72,,-7,"Freezing Drizzle,Fog",6.488
18-01-2023 02:00,1,18,02:00,-3.1,-3.4,98,5,8,4,98.76,,-6,"Freezing Drizzle,Fog",6.527
18-01-2023 03:00,1,18,03:00,-3.1,-3.3,98,36,3,2.4,98.8,,-4,Fog,6.449
18-01-2023 04:00,1,18,04:00,-2.8,-3,99,29,3,1,98.82,,-4,Fog,6.501
18-01-2023 05:00,1,18,05:00,-2.6,-2.8,99,27,7,0.6,98.89,,-5,Freezing Fog,6.441
18-01-2023 06:00,1,18,06:00,-2.3,-2.5,99,28,12,1.6,98.98,,-7,"Freezing Rain,Ice Pellets,Fog",8.984
18-01-2023 07:00,1,18,07:00,-2.4,-2.6,99,28,11,4.8,99.05,,-6,"Snow,Fog",8.699
18-01-2023 08:00,1,18,08:00,-2.3,-2.6,98,28,11,3.2,99.17,,-6,"Snow,Fog",9.786
18-01-2023 09:00,1,18,09:00,-2,-2.4,98,26,13,3.2,99.27,,-6,"Snow,Fog",9.922
18-01-2023 10:00,1,18,10:00,-1.7,-2.2,96,30,15,12.9,99.38,,-7,Snow,9.712
18-01-2023 11:00,1,18,11:00,-1.4,-2.2,95,29,16,16.1,99.43,,-6,NA,9.836
18-01-2023 12:00,1,18,12:00,-1.4,-2,96,29,17,16.1,99.46,,-7,NA,9.702
18-01-2023 13:00,1,18,13:00,-0.7,-1.9,92,29,19,24.1,99.53,,-6,Cloudy,9.613
18-01-2023 14:00,1,18,14:00,-0.2,-1.6,91,29,19,24.1,99.56,,-5,NA,8.834
18-01-2023 15:00,1,18,15:00,0.4,-1.2,89,30,17,24.1,99.64,,,NA,8.44
18-01-2023 16:00,1,18,16:00,0.6,-1.6,85,30,15,24.1,99.75,,,Clear,8.287
18-01-2023 17:00,1,18,17:00,-0.6,-2.1,90,27,9,24.1,99.89,,-4,NA,8.372
18-01-2023 18:00,1,18,18:00,-1,-2.3,91,27,15,24.1,100.01,,-6,NA,8.347
18-01-2023 19:00,1,18,19:00,-2.2,-3.5,90,25,12,24.1,100.12,,-6,Clear,8.429
18-01-2023 20:00,1,18,20:00,-1.2,-3.7,83,29,19,24.1,100.24,,-7,NA,7.878
18-01-2023 21:00,1,18,21:00,-3,-5.1,86,32,17,24.1,100.23,,-9,NA,6.491
18-01-2023 22:00,1,18,22:00,-2.3,-4.5,84,33,17,24.1,100.26,,-8,Clear,6.583
18-01-2023 23:00,1,18,23:00,-3.1,-5.2,85,30,9,24.1,100.34,,-7,NA,6.63
19-01-2023 00:00,1,19,00:00,-4.8,-6.3,90,31,12,24.1,100.37,,-10,NA,6.522
19-01-2023 01:00,1,19,01:00,-5.1,-6.3,91,31,15,24.1,100.45,,-11,Mostly Cloudy,6.555
19-01-2023 02:00,1,19,02:00,-3.6,-5,91,32,16,24.1,100.47,,-9,NA,6.573
19-01-2023 03:00,1,19,03:00,-2.9,-4.4,90,32,15,24.1,100.44,,-8,NA,6.326
19-01-2023 04:00,1,19,04:00,-1.9,-4,86,35,14,24.1,100.4,,-7,Mostly Cloudy,6.636
19-01-2023 05:00,1,19,05:00,-1.6,-4.2,82,36,13,24.1,100.41,,-6,NA,6.619
19-01-2023 06:00,1,19,06:00,-1.8,-4.4,83,1,10,24.1,100.4,,-5,NA,8.788
19-01-2023 07:00,1,19,07:00,-1.8,-5.1,79,1,16,24.1,100.45,,-7,Mostly Cloudy,8.384
19-01-2023 08:00,1,19,08:00,-2,-4.5,83,1,10,24.1,100.44,,-6,NA,9.187
19-01-2023 09:00,1,19,09:00,-1.7,-4.9,79,4,13,24.1,100.34,,-6,NA,9.735
19-01-2023 10:00,1,19,10:00,-1.6,-4.9,78,6,7,24.1,100.33,,-4,Cloudy,9.603
19-01-2023 11:00,1,19,11:00,-1.4,-4.7,79,5,17,24.1,100.22,,-7,NA,9.808
19-01-2023 12:00,1,19,12:00,-1.2,-4.8,76,6,21,24.1,100.05,,-7,NA,9.989
19-01-2023 13:00,1,19,13:00,-1,-4.5,77,6,16,24.1,99.93,,-6,Cloudy,9.822
19-01-2023 14:00,1,19,14:00,-0.9,-4.2,78,9,17,24.1,99.77,,-6,NA,9.344
19-01-2023 15:00,1,19,15:00,-1.2,-4.2,80,8,18,24.1,99.72,,-6,NA,9.649
19-01-2023 16:00,1,19,16:00,-1.5,-4.6,80,8,26,24.1,99.6,,-8,Mostly Cloudy,9.056
19-01-2023 17:00,1,19,17:00,-2.1,-5,80,7,30,16.1,99.48,,-9,NA,9.184
19-01-2023 18:00,1,19,18:00,-2.4,-5.6,79,7,32,16.1,99.42,,-10,NA,9.127
19-01-2023 19:00,1,19,19:00,-2.8,-6.1,78,8,27,24.1,99.3,,-10,Snow,9.174
19-01-2023 20:00,1,19,20:00,-3.9,-5.1,91,6,28,1.6,99.21,,-11,Snow,8.445
19-01-2023 21:00,1,19,21:00,-4.3,-5.4,92,7,31,1.2,99.16,,-12,"Snow,Blowing Snow",7.318
19-01-2023 22:00,1,19,22:00,-4.3,-5.2,93,6,27,1.2,99.11,,-12,"Snow,Blowing Snow",7.356
19-01-2023 23:00,1,19,23:00,-4,-5,92,6,32,1.2,98.99,,-12,"Snow,Blowing Snow",7.223
20-01-2023 00:00,1,20,00:00,-3.8,-5,91,6,30,6.4,98.84,,-11,"Snow,Blowing Snow",7.21
20-01-2023 01:00,1,20,01:00,-3.4,-4.8,91,6,29,16.1,98.79,,-11,Blowing Snow,7.353
20-01-2023 02:00,1,20,02:00,-3.5,-4.5,93,7,25,1.2,98.79,,-10,"Snow,Blowing Snow",7.282
20-01-2023 03:00,1,20,03:00,-3.4,-4.3,94,5,22,1.6,98.75,,-10,"Snow,Blowing Snow",7.292
20-01-2023 04:00,1,20,04:00,-3.2,-4.2,93,5,25,12.9,98.7,,-10,"Snow,Blowing Snow",7.286
20-01-2023 05:00,1,20,05:00,-3,-3.8,94,5,21,1.6,98.74,,-9,"Snow,Blowing Snow",7.263
20-01-2023 06:00,1,20,06:00,-2.8,-3.4,96,4,17,1.6,98.8,,-8,Snow,7.539
20-01-2023 07:00,1,20,07:00,-2.8,-3.3,96,1,16,3.2,98.84,,-8,Snow,8.907
20-01-2023 08:00,1,20,08:00,-2.6,-3.3,95,1,15,4,98.9,,-8,Snow,9.665
20-01-2023 09:00,1,20,09:00,-2.5,-3.3,94,1,17,4.8,98.96,,-8,Snow,9.571
20-01-2023 10:00,1,20,10:00,-2.3,-3.2,93,1,17,2.4,99.04,,-8,Snow,9.463
20-01-2023 11:00,1,20,11:00,-1.9,-3.3,91,1,13,4,99.11,,-6,Snow,9.836
20-01-2023 12:00,1,20,12:00,-1.6,-3.6,86,2,16,9.7,99.13,,-7,Snow,9.771
20-01-2023 13:00,1,20,13:00,-1.3,-3.8,84,36,15,9.7,99.18,,-6,Snow,9.766
20-01-2023 14:00,1,20,14:00,-1.3,-3.7,84,36,14,12.9,99.25,,-6,Snow,8.563
20-01-2023 15:00,1,20,15:00,-1.3,-3.5,85,34,10,16.1,99.37,,-5,Snow,8.306
20-01-2023 16:00,1,20,16:00,-1.4,-3.3,87,35,16,16.1,99.5,,-6,Snow,7.946
20-01-2023 17:00,1,20,17:00,-1.7,-2.9,92,34,13,16.1,99.65,,-6,Snow,8.464
20-01-2023 18:00,1,20,18:00,-1.8,-2.9,92,34,12,6.4,99.76,,-6,Snow,8.147
20-01-2023 19:00,1,20,19:00,-2.2,-3,94,34,12,8.1,99.89,,-6,Snow,8.296
20-01-2023 20:00,1,20,20:00,-2.1,-3.2,92,34,7,24.1,99.97,,-5,Snow,7.976
20-01-2023 21:00,1,20,21:00,-2.2,-3.6,90,32,5,24.1,100.03,,-4,Snow,6.937
20-01-2023 22:00,1,20,22:00,-2.4,-3.5,92,33,10,24.1,100.1,,-6,Mostly Cloudy,6.493
20-01-2023 23:00,1,20,23:00,-2.2,-3.9,88,35,10,24.1,100.17,,-6,NA,6.486
21-01-2023 00:00,1,21,00:00,-3,-4.3,90,32,8,24.1,100.22,,-6,NA,6.443
21-01-2023 01:00,1,21,01:00,-2.9,-4.2,91,30,7,24.1,100.26,,-6,Mostly Cloudy,6.617
21-01-2023 02:00,1,21,02:00,-2.7,-4.4,88,30,7,24.1,100.32,,-6,NA,6.451
21-01-2023 03:00,1,21,03:00,-3,-4.6,88,30,4,24.1,100.37,,-5,NA,6.398
21-01-2023 04:00,1,21,04:00,-3.1,-4.8,88,29,5,24.1,100.43,,-5,Cloudy,6.439
21-01-2023 05:00,1,21,05:00,-3.7,-5.3,89,28,4,24.1,100.48,,-5,NA,6.478
21-01-2023 06:00,1,21,06:00,-6,-7.2,91,27,8,24.1,100.53,,-10,NA,6.44
21-01-2023 07:00,1,21,07:00,-6.9,-7.8,93,29,18,24.1,100.66,,-14,Mainly Clear,6.482
21-01-2023 08:00,1,21,08:00,-7.4,-9,89,29,18,24.1,100.75,,-14,NA,6.48
21-01-2023 09:00,1,21,09:00,-7,-9.2,85,27,18,24.1,100.82,,-14,NA,6.589
21-01-2023 10:00,1,21,10:00,-6.9,-9.4,83,26,18,24.1,100.83,,-14,Mostly Cloudy,6.363
21-01-2023 11:00,1,21,11:00,-6,-9.5,76,25,13,24.1,100.85,,-11,NA,6.472
21-01-2023 12:00,1,21,12:00,-4.5,-8.7,73,27,16,24.1,100.78,,-10,NA,6.525
21-01-2023 13:00,1,21,13:00,-3.7,-8.2,71,27,14,24.1,100.73,,-9,Mainly Clear,6.428
21-01-2023 14:00,1,21,14:00,-3.2,-7.1,75,26,11,24.1,100.67,,-7,NA,6.517
21-01-2023 15:00,1,21,15:00,-2.9,-6.5,76,24,7,24.1,100.71,,-6,NA,6.401
21-01-2023 16:00,1,21,16:00,-2.6,-5.7,79,22,8,24.1,100.74,,-6,Mostly Cloudy,6.369
21-01-2023 17:00,1,21,17:00,-2.9,-5.5,82,25,13,24.1,100.75,,-8,NA,6.532
21-01-2023 18:00,1,21,18:00,-2.8,-5.3,83,24,13,24.1,100.76,,-7,NA,6.499
21-01-2023 19:00,1,21,19:00,-2.9,-5.1,85,26,12,24.1,100.77,,-7,Cloudy,6.444
21-01-2023 20:00,1,21,20:00,-3.2,-5.5,84,23,15,24.1,100.75,,-8,NA,6.366
21-01-2023 21:00,1,21,21:00,-3.5,-5.5,86,18,5,24.1,100.74,,-6,NA,6.482
21-01-2023 22:00,1,21,22:00,-3.6,-5.5,87,19,3,24.1,100.73,,-5,Cloudy,6.506
21-01-2023 23:00,1,21,23:00,-3,-5.4,84,20,10,24.1,100.69,,-7,NA,6.592
22-01-2023 00:00,1,22,00:00,-3.6,-5.4,88,17,4,24.1,100.66,,-5,NA,6.505
22-01-2023 01:00,1,22,01:00,-3.8,-5,91,18,9,24.1,100.65,,-8,Cloudy,6.441
22-01-2023 02:00,1,22,02:00,-3.7,-4.8,92,17,8,24.1,100.6,,-7,NA,6.523
22-01-2023 03:00,1,22,03:00,-3.5,-4.4,94,16,8,24.1,100.6,,-7,NA,6.409
22-01-2023 04:00,1,22,04:00,-3.6,-4.2,95,19,7,24.1,100.56,,-7,Cloudy,6.439
22-01-2023 05:00,1,22,05:00,-3.4,-3.9,96,18,8,12.9,100.5,,-7,Snow,6.595
22-01-2023 06:00,1,22,06:00,-3.5,-4,97,16,4,12.9,100.45,,-5,NA,6.395
22-01-2023 07:00,1,22,07:00,-3.5,-3.9,97,15,10,16.1,100.42,,-7,Cloudy,6.495
22-01-2023 08:00,1,22,08:00,-3.1,-3.6,96,17,9,6.4,100.43,,-7,Fog,6.438
22-01-2023 09:00,1,22,09:00,-2.4,-2.8,97,17,10,4.8,100.41,,-6,Snow,6.462
22-01-2023 10:00,1,22,10:00,-1.8,-2.2,97,17,12,3.2,100.37,,-6,"Snow,Fog",6.374
22-01-2023 11:00,1,22,11:00,-1.5,-2,96,16,10,4.8,100.27,,-5,"Snow,Fog",6.521
22-01-2023 12:00,1,22,12:00,-1.2,-1.7,96,16,11,2.4,100.2,,-5,"Freezing Drizzle,Fog",6.426
22-01-2023 13:00,1,22,13:00,-0.8,-1.4,96,19,13,3.2,100.13,,-5,"Freezing Drizzle,Fog",6.489
22-01-2023 14:00,1,22,14:00,-0.8,-1.6,95,17,7,6.4,100.07,,-3,Fog,6.409
22-01-2023 15:00,1,22,15:00,-0.8,-2,91,16,7,16.1,100.04,,-3,NA,6.404
22-01-2023 16:00,1,22,16:00,-1,-2.1,92,13,7,16.1,99.99,,-4,Cloudy,6.399
22-01-2023 17:00,1,22,17:00,-1.2,-2.1,93,9,7,16.1,99.91,,-4,NA,6.527
22-01-2023 18:00,1,22,18:00,-1.4,-1.9,96,14,8,3.2,99.95,,-4,Snow,6.519
22-01-2023 19:00,1,22,19:00,-1.5,-1.8,98,13,9,2.4,99.95,,-5,Snow,6.372
22-01-2023 20:00,1,22,20:00,-1.6,-1.8,98,12,6,2.4,99.95,,-4,Snow,6.413
22-01-2023 21:00,1,22,21:00,-1.7,-2,98,7,9,4.8,99.84,,-5,Snow,6.54
22-01-2023 22:00,1,22,22:00,-2.3,-2.5,98,6,5,6.4,99.87,,-4,Snow,6.519
22-01-2023 23:00,1,22,23:00,-2.1,-2.3,99,7,8,3.2,99.79,,-5,Snow,6.482
23-01-2023 00:00,1,23,00:00,,,,,,,,,,,6.453
23-01-2023 01:00,1,23,01:00,-2.4,-2.6,99,3,13,1.2,99.64,,-7,"Snow,Fog",6.547
23-01-2023 02:00,1,23,02:00,-2.8,-3,99,5,19,1.6,99.61,,-9,Fog,6.485
23-01-2023 03:00,1,23,03:00,-2.7,-2.9,98,4,17,6.4,99.62,,-8,Fog,6.359
23-01-2023 04:00,1,23,04:00,-2.6,-2.9,98,3,17,8.1,99.58,,-8,Fog,6.393
23-01-2023 05:00,1,23,05:00,-2.6,-2.9,98,3,10,12.9,99.58,,-6,NA,6.43
23-01-2023 06:00,1,23,06:00,-2.6,-3.1,97,36,13,12.9,99.51,,-7,NA,8.909
23-01-2023 07:00,1,23,07:00,-2.5,-3.5,93,35,15,16.1,99.51,,-7,Cloudy,7.894
23-01-2023 08:00,1,23,08:00,-2.6,-4,90,36,17,24.1,99.51,,-8,NA,9.502
23-01-2023 09:00,1,23,09:00,-2.4,-4.2,87,36,13,24.1,99.56,,-7,NA,9.484
23-01-2023 10:00,1,23,10:00,-1.7,-4.2,83,35,17,24.1,99.54,,-7,Mostly Cloudy,10.21
23-01-2023 11:00,1,23,11:00,-1.6,-4.3,82,35,17,24.1,99.49,,-7,NA,9.967
23-01-2023 12:00,1,23,12:00,-1.1,-3.9,81,33,14,24.1,99.42,,-6,NA,9.827
23-01-2023 13:00,1,23,13:00,-0.5,-3.9,78,32,15,24.1,99.38,,-5,Mostly Cloudy,9.787
23-01-2023 14:00,1,23,14:00,-0.6,-4.4,75,31,18,24.1,99.36,,-6,NA,9.489
23-01-2023 15:00,1,23,15:00,-0.9,-4.9,74,32,19,24.1,99.42,,-6,NA,9.252
23-01-2023 16:00,1,23,16:00,-1.4,-5.2,75,31,14,24.1,99.49,,-6,Cloudy,8.941
23-01-2023 17:00,1,23,17:00,-1.2,-5.3,73,30,19,24.1,99.55,,-7,Snow,9.285
23-01-2023 18:00,1,23,18:00,-1.3,-5,76,27,11,24.1,99.57,,-5,NA,8.924
23-01-2023 19:00,1,23,19:00,-1.5,-4.7,79,25,12,24.1,99.58,,-6,Cloudy,8.257
23-01-2023 20:00,1,23,20:00,-1.4,-4.7,78,24,12,24.1,99.57,,-5,NA,8.452
23-01-2023 21:00,1,23,21:00,-1.5,-4.5,80,23,14,24.1,99.55,,-6,NA,7.724
23-01-2023 22:00,1,23,22:00,-1.4,-4.8,77,26,17,24.1,99.55,,-7,Cloudy,7.977
23-01-2023 23:00,1,23,23:00,-1.6,-4.6,80,22,13,24.1,99.55,,-6,NA,7.866
24-01-2023 00:00,1,24,00:00,-1.6,-4,84,21,14,24.1,99.53,,-6,NA,7.908
24-01-2023 01:00,1,24,01:00,-1.4,-3.6,85,21,17,24.1,99.51,,-7,Cloudy,7.846
24-01-2023 02:00,1,24,02:00,-1,-3.5,83,22,20,24.1,99.52,,-7,NA,7.932
24-01-2023 03:00,1,24,03:00,-0.7,-3.5,81,23,18,24.1,99.53,,-6,NA,7.794
24-01-2023 04:00,1,24,04:00,-0.6,-3.5,81,22,17,24.1,99.52,,-6,Cloudy,8.063
24-01-2023 05:00,1,24,05:00,-0.6,-3.5,81,22,21,16.1,99.48,,-6,NA,7.925
24-01-2023 06:00,1,24,06:00,-1.3,-2.2,94,22,25,2.4,99.54,,-8,Snow,9.142
24-01-2023 07:00,1,24,07:00,-1.2,-2.6,90,23,26,9.7,99.58,,-8,Snow,8.428
24-01-2023 08:00,1,24,08:00,-0.7,-3.1,84,22,27,16.1,99.66,,-7,Snow,9.457
24-01-2023 09:00,1,24,09:00,-0.6,-3,84,24,26,24.1,99.77,,-7,NA,9.554
24-01-2023 10:00,1,24,10:00,-0.5,-2.5,86,24,19,16.1,99.89,,-6,Snow,9.599
24-01-2023 11:00,1,24,11:00,-0.4,-1.5,92,25,22,6.4,99.98,,-6,"Snow,Fog",8.467
24-01-2023 12:00,1,24,12:00,0.5,-1.8,85,26,23,24.1,99.96,,,NA,7.312
24-01-2023 13:00,1,24,13:00,1.1,-3.3,72,28,30,24.1,100.01,,,Mostly Cloudy,7.749
24-01-2023 14:00,1,24,14:00,1.3,-3.7,70,29,28,24.1,100.09,,,NA,9.871
24-01-2023 15:00,1,24,15:00,1.1,-3.8,70,28,22,24.1,100.19,,,NA,10.26
24-01-2023 16:00,1,24,16:00,-1.1,-3.4,84,34,17,9.7,100.37,,-6,Snow,9.466
24-01-2023 17:00,1,24,17:00,-1,-6,69,34,22,16.1,100.49,,-7,Snow,9.783
24-01-2023 18:00,1,24,18:00,-2,-8.2,63,33,23,24.1,100.63,,-8,NA,9.577
24-01-2023 19:00,1,24,19:00,-2.7,-8.3,66,33,17,24.1,100.77,,-8,Mostly Cloudy,9.807
24-01-2023 20:00,1,24,20:00,-3.5,-8.6,68,34,18,24.1,100.82,,-9,NA,9.191
24-01-2023 21:00,1,24,21:00,-4.4,-10.1,65,34,16,24.1,101.01,,-10,NA,7.927
24-01-2023 22:00,1,24,22:00,-5.6,-10.7,67,35,16,24.1,100.97,,-12,Mainly Clear,7.876
24-01-2023 23:00,1,24,23:00,-6.5,-11.1,70,35,13,24.1,101.05,,-12,NA,7.8
25-01-2023 00:00,1,25,00:00,-8,-11.9,73,2,13,24.1,101.04,,-14,NA,7.805
25-01-2023 01:00,1,25,01:00,-8.3,-12.3,73,1,15,24.1,101.08,,-15,Mostly Cloudy,8.002
25-01-2023 02:00,1,25,02:00,-10.4,-13.5,78,10,5,24.1,101.14,,-13,NA,7.856
25-01-2023 03:00,1,25,03:00,-10.2,-12.8,82,5,8,24.1,101.16,,-15,NA,7.707
25-01-2023 04:00,1,25,04:00,-10.6,-13.5,80,6,10,24.1,101.16,,-16,Mostly Cloudy,7.936
25-01-2023 05:00,1,25,05:00,-10.5,-13.1,82,5,13,24.1,101.16,,-17,NA,7.722
25-01-2023 06:00,1,25,06:00,-10.2,-13.3,78,6,14,24.1,101.18,,-17,NA,10.352
25-01-2023 07:00,1,25,07:00,-10.5,-13.3,80,6,15,24.1,101.17,,-17,Cloudy,10.397
25-01-2023 08:00,1,25,08:00,-10.7,-13.3,81,5,17,24.1,101.14,,-18,NA,11.231
25-01-2023 09:00,1,25,09:00,-10.3,-13.1,80,6,18,24.1,101.11,,-18,Snow,11.377
25-01-2023 10:00,1,25,10:00,-10,-13.5,76,6,19,24.1,101.08,,-18,Cloudy,11.183
25-01-2023 11:00,1,25,11:00,-10.1,-13.8,74,6,17,24.1,100.97,,-17,NA,11.4
25-01-2023 12:00,1,25,12:00,-10.5,-14.6,72,5,18,24.1,100.93,,-18,NA,10.969
25-01-2023 13:00,1,25,13:00,-10.8,-13.7,80,6,18,3.2,100.84,,-18,Snow,10.91
25-01-2023 14:00,1,25,14:00,-10.4,-12.8,83,6,20,3.2,100.67,,-18,Snow,11.351
25-01-2023 15:00,1,25,15:00,-10.6,-12.8,84,6,23,6.4,100.48,,-19,Snow,10.82
25-01-2023 16:00,1,25,16:00,-10.5,-12.4,86,6,29,3.2,100.3,,-20,Snow,9.749
25-01-2023 17:00,1,25,17:00,-10.3,-12.2,86,6,25,3.2,100.16,,-19,"Snow,Blowing Snow",9.727
25-01-2023 18:00,1,25,18:00,-10.2,-11.8,88,6,30,2.4,100.04,,-20,"Snow,Blowing Snow",9.648
25-01-2023 19:00,1,25,19:00,-10.2,-11.8,89,6,37,0.6,99.86,,-21,"Moderate Snow,Blowing Snow",9.633
25-01-2023 20:00,1,25,20:00,-9.8,-11.3,89,6,32,1,99.69,,-20,"Snow,Blowing Snow",9.171
25-01-2023 21:00,1,25,21:00,-9.2,-10.5,90,7,32,1,99.49,,-19,"Snow,Blowing Snow",7.757
25-01-2023 22:00,1,25,22:00,-8.8,-10.1,90,6,31,2,99.25,,-18,"Snow,Blowing Snow",7.714
25-01-2023 23:00,1,25,23:00,-8.4,-9.8,90,6,26,1.6,99.07,,-17,"Snow,Blowing Snow",7.666
26-01-2023 00:00,1,26,00:00,-7.9,-9.1,91,6,24,1.2,98.88,,-16,"Snow,Blowing Snow",7.671
26-01-2023 01:00,1,26,01:00,-7.3,-8.6,91,6,29,1.6,98.7,,-16,"Snow,Blowing Snow",7.772
26-01-2023 02:00,1,26,02:00,-6.9,-8.2,91,6,27,2.4,98.55,,-15,"Snow,Blowing Snow",7.587
26-01-2023 03:00,1,26,03:00,-6.4,-7.7,91,6,24,3.6,98.43,,-14,"Snow,Blowing Snow",7.412
26-01-2023 04:00,1,26,04:00,-5.8,-6.9,92,6,23,2,98.3,,-13,"Snow,Blowing Snow",7.141
26-01-2023 05:00,1,26,05:00,-5.5,-6.5,93,3,19,2.4,98.25,,-12,Snow,6.646
26-01-2023 06:00,1,26,06:00,-5.3,-6.2,94,3,18,2,98.22,,-12,Snow,8.953
26-01-2023 07:00,1,26,07:00,-5.4,-6.3,93,1,13,2.4,98.19,,-11,Snow,9.162
26-01-2023 08:00,1,26,08:00,-6.3,-7.4,92,33,22,2.4,98.23,,-14,"Snow,Blowing Snow",10.164
26-01-2023 09:00,1,26,09:00,-6.9,-8.4,89,33,24,1.6,98.3,,-15,"Snow,Blowing Snow",10.136
26-01-2023 10:00,1,26,10:00,-7.2,-9.2,86,33,23,6.4,98.34,,-15,Snow,9.945
26-01-2023 11:00,1,26,11:00,-6.7,-8.9,84,31,20,9.7,98.4,,-14,Snow,10.133
26-01-2023 12:00,1,26,12:00,-6.8,-8.8,86,29,23,9.7,98.46,,-14,Snow,11.756
26-01-2023 13:00,1,26,13:00,-6.3,-8.8,83,29,27,9.7,98.53,,-14,"Snow,Blowing Snow",11.48
26-01-2023 14:00,1,26,14:00,-5.9,-8.2,84,28,20,9.7,98.67,,-13,"Snow,Blowing Snow",11.616
26-01-2023 15:00,1,26,15:00,-5.2,-8.5,78,28,17,24.1,98.81,,-11,NA,11.332
26-01-2023 16:00,1,26,16:00,-5,-9.1,73,28,19,24.1,98.93,,-11,Mostly Cloudy,11.541
26-01-2023 17:00,1,26,17:00,-4.6,-8.6,74,27,22,24.1,99.05,,-11,NA,11.504
26-01-2023 18:00,1,26,18:00,-5.2,-9.4,73,28,18,24.1,99.2,,-11,NA,11.143
26-01-2023 19:00,1,26,19:00,-5.5,-9.1,76,26,15,24.1,99.33,,-11,Mostly Cloudy,11.482
26-01-2023 20:00,1,26,20:00,-5.5,-9,76,28,22,24.1,99.43,,-13,NA,10.965
26-01-2023 21:00,1,26,21:00,-7.3,-10.5,78,26,11,24.1,99.54,,-12,NA,9.862
26-01-2023 22:00,1,26,22:00,-8,-10.3,83,24,11,24.1,99.59,,-13,Mainly Clear,9.09
26-01-2023 23:00,1,26,23:00,-8.1,-10.1,86,28,12,24.1,99.67,,-14,NA,9.078
27-01-2023 00:00,1,27,00:00,-7.1,-9.4,84,28,14,24.1,99.71,,-13,NA,9.241
27-01-2023 01:00,1,27,01:00,-7.7,-10.2,82,29,10,24.1,99.77,,-13,Mostly Cloudy,9.358
27-01-2023 02:00,1,27,02:00,-8.8,-10.9,85,30,11,24.1,99.86,,-14,NA,9.12
27-01-2023 03:00,1,27,03:00,-9.4,-10.6,91,25,3,24.1,99.92,,-11,NA,9.18
27-01-2023 04:00,1,27,04:00,-10.1,-11.3,91,24,8,16.1,99.96,,-15,Snow,9.265
27-01-2023 05:00,1,27,05:00,-10.3,-11.4,92,32,5,12.9,100.01,,-13,Snow,9.254
27-01-2023 06:00,1,27,06:00,-10.2,-11.6,90,32,4,24.1,100.08,,-13,Snow,9.46
27-01-2023 07:00,1,27,07:00,-10.9,-12.1,91,7,7,12.9,100.11,,-15,Snow,10.765
27-01-2023 08:00,1,27,08:00,-10.9,-12.6,88,6,9,4.8,100.16,,-16,Snow,11.677
27-01-2023 09:00,1,27,09:00,-10.3,-12.1,87,8,9,4,100.24,,-15,Snow,11.905
27-01-2023 10:00,1,27,10:00,-9.7,-11.7,85,7,10,4.8,100.28,,-15,Snow,11.268
27-01-2023 11:00,1,27,11:00,-8.8,-11,84,7,12,4,100.28,,-14,Snow,11.652
27-01-2023 12:00,1,27,12:00,-8.3,-10.5,84,9,10,12.9,100.21,,-13,Snow,11.494
27-01-2023 13:00,1,27,13:00,-7.4,-9.6,84,9,12,16.1,100.11,,-13,Snow,11.603
27-01-2023 14:00,1,27,14:00,-6.5,-8.9,83,10,10,24.1,100.12,,-11,NA,11.544
27-01-2023 15:00,1,27,15:00,-6,-8.2,84,10,10,24.1,100.12,,-10,Snow,10.905
27-01-2023 16:00,1,27,16:00,-5.8,-7.9,86,9,12,24.1,100.11,,-11,Cloudy,10.818
27-01-2023 17:00,1,27,17:00,-6.2,-7.8,88,10,9,24.1,100.12,,-10,NA,10.988
27-01-2023 18:00,1,27,18:00,-6,-7.4,90,10,9,12.9,100.1,,-10,Snow,10.775
27-01-2023 19:00,1,27,19:00,-5.6,-6.9,91,12,14,16.1,100.08,,-11,Snow,10.498
27-01-2023 20:00,1,27,20:00,-4.2,-5.5,91,16,12,16.1,100.06,,-9,Snow,10.423
27-01-2023 21:00,1,27,21:00,-3.5,-4.8,90,15,14,24.1,100.03,,-9,NA,10.075
27-01-2023 22:00,1,27,22:00,-3.6,-5.3,88,14,13,24.1,99.95,,-8,Mostly Cloudy,8.868
27-01-2023 23:00,1,27,23:00,-4,-5.5,89,15,16,24.1,99.85,,-10,NA,8.747
28-01-2023 00:00,1,28,00:00,-3.3,-5.6,84,16,18,24.1,99.77,,-9,NA,8.911
28-01-2023 01:00,1,28,01:00,-1.9,-6.4,72,18,26,24.1,99.68,,-8,Snow,8.955
28-01-2023 02:00,1,28,02:00,-2,-5.7,76,18,27,24.1,99.64,,-9,Snow,9.011
28-01-2023 03:00,1,28,03:00,-2.3,-4.2,87,18,26,4.8,99.6,,-9,Snow,8.667
28-01-2023 04:00,1,28,04:00,-2.3,-3.5,91,18,22,4.8,99.57,,-8,Snow,8.633
28-01-2023 05:00,1,28,05:00,-1.8,-2.9,92,19,25,1.2,99.54,,-8,Snow,8.971
28-01-2023 06:00,1,28,06:00,-1,-2,93,19,21,16.1,99.57,,-7,Snow,8.858
28-01-2023 07:00,1,28,07:00,-0.6,-1.4,95,21,16,1.6,99.64,,-5,Snow,9.009
28-01-2023 08:00,1,28,08:00,-0.2,-1.2,93,21,17,24.1,99.76,,-5,NA,8.904
28-01-2023 09:00,1,28,09:00,-0.4,-3.2,81,27,27,24.1,100,,-7,Snow Showers,9.088
28-01-2023 10:00,1,28,10:00,0.1,-6,64,29,27,24.1,100.17,,,Mostly Cloudy,8.628
28-01-2023 11:00,1,28,11:00,-0.1,-6.6,62,25,37,24.1,100.26,,-7,NA,9.102
28-01-2023 12:00,1,28,12:00,-1.1,-4.9,75,26,32,24.1,100.35,,-8,NA,9.102
28-01-2023 13:00,1,28,13:00,-0.4,-6.8,62,25,34,24.1,100.39,,-7,Blowing Snow,9.285
28-01-2023 14:00,1,28,14:00,-0.4,-6.9,61,26,30,24.1,100.48,,-7,NA,9.154
28-01-2023 15:00,1,28,15:00,-0.1,-7.5,58,26,22,24.1,100.59,,-6,NA,8.739
28-01-2023 16:00,1,28,16:00,-0.9,-7.8,60,26,25,24.1,100.74,,-7,Mostly Cloudy,9.082
28-01-2023 17:00,1,28,17:00,-1.4,-8.8,57,27,18,24.1,100.85,,-7,NA,9.041
28-01-2023 18:00,1,28,18:00,-1.6,-8.5,60,28,20,24.1,100.96,,-7,NA,9.153
28-01-2023 19:00,1,28,19:00,-1.9,-8.7,60,28,21,24.1,101.05,,-8,Mostly Cloudy,8.967
28-01-2023 20:00,1,28,20:00,-2.3,-8.8,61,29,17,24.1,101.09,,-8,NA,8.836
28-01-2023 21:00,1,28,21:00,-2.8,-8.8,64,29,5,24.1,101.14,,-5,NA,8.771
28-01-2023 22:00,1,28,22:00,-3.2,-8.7,66,29,7,24.1,101.18,,-6,Cloudy,8.969
28-01-2023 23:00,1,28,23:00,-3.5,-9,66,30,5,22.5,101.18,,-6,NA,9.001
29-01-2023 00:00,1,29,00:00,-4.2,-9.4,67,29,5,24.1,101.16,,-6,NA,9.166
29-01-2023 01:00,1,29,01:00,-4.8,-9.8,68,36,3,24.1,101.15,,-6,Cloudy,8.815
29-01-2023 02:00,1,29,02:00,-5.1,-9.5,71,7,10,24.1,101.14,,-9,NA,8.963
29-01-2023 03:00,1,29,03:00,-5.4,-9.4,74,6,13,24.1,101.12,,-11,NA,8.835
29-01-2023 04:00,1,29,04:00,-5.3,-9.1,75,8,16,16.1,101.1,,-11,Snow,9.246
29-01-2023 05:00,1,29,05:00,-5.7,-8.5,81,6,13,11.3,101.03,,-11,Snow,9.388
29-01-2023 06:00,1,29,06:00,-5.9,-8,86,6,17,4.8,100.93,,-12,Snow,9.34
29-01-2023 07:00,1,29,07:00,-6.3,-7.8,89,6,16,3.2,100.85,,-12,Snow,9.025
29-01-2023 08:00,1,29,08:00,-6.5,-7.7,91,6,23,1.6,100.72,,-14,Snow,9.004
29-01-2023 09:00,1,29,09:00,-7.6,-9.2,88,6,27,1.2,100.64,,-16,"Snow,Blowing Snow",9.037
29-01-2023 10:00,1,29,10:00,-8.7,-10.3,88,5,28,1.2,100.61,,-18,"Snow,Blowing Snow",9.21
29-01-2023 11:00,1,29,11:00,-8.9,-10.7,86,5,29,0.8,100.52,,-18,"Moderate Snow,Blowing Snow",9.255
29-01-2023 12:00,1,29,12:00,-8.6,-10.3,87,6,27,0.8,100.42,,-17,"Moderate Snow,Blowing Snow",9.814
29-01-2023 13:00,1,29,13:00,-8,-9.6,89,4,18,0.8,100.35,,-15,"Moderate Snow,Blowing Snow",8.504
29-01-2023 14:00,1,29,14:00,-7.2,-8.7,89,6,14,0.8,100.27,,-13,Moderate Snow,8.44
29-01-2023 15:00,1,29,15:00,-6.8,-8.1,91,4,10,1.2,100.3,,-11,Snow,8.493
29-01-2023 16:00,1,29,16:00,-6.5,-8.1,89,4,13,3.2,100.36,,-12,Snow,8.661
29-01-2023 17:00,1,29,17:00,-6.7,-7.8,92,6,5,6.4,100.42,,-9,Snow,8.881
29-01-2023 18:00,1,29,18:00,-6.7,-7.7,93,36,2,11.3,100.46,,-8,Snow,8.447
29-01-2023 19:00,1,29,19:00,-5.9,-7.3,90,32,13,12.9,100.57,,-11,Snow,8.446
29-01-2023 20:00,1,29,20:00,-8.7,-10,91,32,9,24.1,100.55,,-13,NA,8.372
29-01-2023 21:00,1,29,21:00,-10.7,-12,90,33,9,24.1,100.68,,-16,NA,8.622
29-01-2023 22:00,1,29,22:00,-10.4,-11.6,91,33,14,24.1,100.77,,-17,Mainly Clear,8.723
29-01-2023 23:00,1,29,23:00,-12.3,-13.4,92,32,11,24.1,100.9,,-18,NA,8.667
30-01-2023 00:00,1,30,00:00,-11.3,-12.5,91,21,7,24.1,100.98,,-16,NA,8.549
30-01-2023 01:00,1,30,01:00,-11.4,-12.8,90,30,10,24.1,100.94,,-17,Mainly Clear,8.389
30-01-2023 02:00,1,30,02:00,-13.3,-14.6,90,31,9,24.1,101,,-19,NA,8.796
30-01-2023 03:00,1,30,03:00,-13.4,-14.5,92,30,7,24.1,101.04,,-18,NA,8.85
30-01-2023 04:00,1,30,04:00,-13.9,-15.1,91,24,6,24.1,100.97,,-18,Mainly Clear,8.791
30-01-2023 05:00,1,30,05:00,-14.9,-16.4,88,27,10,24.1,101.06,,-21,NA,8.678
30-01-2023 06:00,1,30,06:00,-14.4,-15.9,88,26,7,24.1,101.09,,-19,NA,10.741
30-01-2023 07:00,1,30,07:00,-13.7,-15.2,89,26,8,24.1,101.1,,-19,Snow,10.576
30-01-2023 08:00,1,30,08:00,-13,-14.4,89,26,5,24.1,101.11,,-16,NA,11.794
30-01-2023 09:00,1,30,09:00,-12.3,-13.8,89,32,10,24.1,101.1,,-18,NA,11.8
30-01-2023 10:00,1,30,10:00,-11.3,-12.7,89,35,8,6.4,101.06,,-16,Snow,11.872
30-01-2023 11:00,1,30,11:00,-10.7,-12.4,87,9,4,6.4,101,,-13,Snow,12.086
30-01-2023 12:00,1,30,12:00,-9.9,-12.6,81,12,5,4.8,100.93,,-13,Snow,12.064
30-01-2023 13:00,1,30,13:00,-9.6,-12.5,79,9,4,4,100.8,,-12,Snow,11.725
30-01-2023 14:00,1,30,14:00,-9.3,-11.8,82,10,9,4.8,100.72,,-14,Snow,11.525
30-01-2023 15:00,1,30,15:00,-9.3,-11.3,86,11,7,3.2,100.71,,-13,Snow,10.596
30-01-2023 16:00,1,30,16:00,-9.4,-11,88,14,12,1.2,100.71,,-15,Snow,10.293
30-01-2023 17:00,1,30,17:00,-9.7,-11.2,88,14,10,3.2,100.69,,-15,Snow,10.39
30-01-2023 18:00,1,30,18:00,-9.6,-11,89,12,9,2.4,100.64,,-14,Snow,10.305
30-01-2023 19:00,1,30,19:00,-9.7,-11.1,90,13,8,11.3,100.63,,-14,Snow,10.245
30-01-2023 20:00,1,30,20:00,-9.7,-10.9,91,13,3,12.9,100.63,,-11,Snow,9.923
30-01-2023 21:00,1,30,21:00,-9.9,-11,91,9,5,16.1,100.59,,-13,NA,8.443
30-01-2023 22:00,1,30,22:00,-9.1,-10.3,91,33,7,3.2,100.61,,-13,Snow,8.447
30-01-2023 23:00,1,30,23:00,-9.4,-10.5,91,23,7,24.1,100.61,,-13,Snow,8.309
31-01-2023 00:00,1,31,00:00,-9,-10.2,91,26,10,24.1,100.6,,-14,NA,8.395
31-01-2023 01:00,1,31,01:00,-8.6,-10.8,84,29,12,24.1,100.62,,-14,Mostly Cloudy,8.354
31-01-2023 02:00,1,31,02:00,-9.6,-11.8,84,30,22,24.1,100.72,,-18,NA,8.441
31-01-2023 03:00,1,31,03:00,-10.3,-15.7,65,33,26,24.1,100.85,,-19,NA,8.328
31-01-2023 04:00,1,31,04:00,-11.1,-16,67,31,25,24.1,100.93,,-20,Mostly Cloudy,8.2
31-01-2023 05:00,1,31,05:00,-13,-17.7,68,33,19,24.1,101.04,,-21,NA,8.421
31-01-2023 06:00,1,31,06:00,-16.1,-19.7,74,32,13,24.1,101.11,,-24,NA,10.715
31-01-2023 07:00,1,31,07:00,-15.8,-19.5,74,32,11,24.1,101.17,,-23,Clear,10.386
31-01-2023 08:00,1,31,08:00,-16.5,-18.3,86,24,9,24.1,101.25,,-23,NA,11.683
31-01-2023 09:00,1,31,09:00,-18.6,-20.2,87,25,5,24.1,101.33,,-23,NA,11.755
31-01-2023 10:00,1,31,10:00,-14,-17.2,77,29,4,24.1,101.39,,-17,Clear,11.562
31-01-2023 11:00,1,31,11:00,-12.6,-18.8,60,25,7,24.1,101.4,,-17,NA,11.593
31-01-2023 12:00,1,31,12:00,-11.4,-19.1,54,21,8,24.1,101.33,,-16,NA,11.644
31-01-2023 13:00,1,31,13:00,-10.8,-20.6,45,24,11,24.1,101.26,,-17,Clear,11.384
31-01-2023 14:00,1,31,14:00,-9.7,-20.5,42,22,11,24.1,101.19,,-15,NA,11.16
31-01-2023 15:00,1,31,15:00,-9.3,-20.2,41,21,9,24.1,101.17,,-14,NA,10.686
31-01-2023 16:00,1,31,16:00,-9.3,-19.7,43,22,9,24.1,101.15,,-14,Clear,10.545
31-01-2023 17:00,1,31,17:00,-10.4,-20.2,45,20,5,24.1,101.12,,-13,NA,10.566
31-01-2023 18:00,1,31,18:00,-11.8,-19.5,53,16,9,24.1,101.11,,-17,NA,10.717
31-01-2023 19:00,1,31,19:00,-14.9,-21.2,60,15,10,24.1,101.15,,-21,Mainly Clear,10.445
31-01-2023 20:00,1,31,20:00,-19.7,-24.3,68,16,7,24.1,101.15,,-25,NA,10.15
31-01-2023 21:00,1,31,21:00,-16.3,-22.2,61,15,8,24.1,101.1,,-22,NA,10.215
31-01-2023 22:00,1,31,22:00,-13.9,-20.2,59,15,9,24.1,101.1,,-20,Clear,8.967
31-01-2023 23:00,1,31,23:00,-14.2,-20.2,61,18,9,24.1,101.08,,-20,NA,8.548
01-02-2023 00:00,2,1,00:00,-20.1,-23.3,77,36,1,24.1,101.06,,-21,NA,8.692
01-02-2023 01:00,2,1,01:00,-19.7,-21.6,85,16,5,24.1,101.04,,-24,Clear,8.595
01-02-2023 02:00,2,1,02:00,-21,-23.3,82,14,3,24.1,101.01,,-24,NA,8.67
01-02-2023 03:00,2,1,03:00,-20.1,-22.4,82,36,2,24.1,100.99,,-22,NA,7.65
01-02-2023 04:00,2,1,04:00,-21.4,-23.8,82,11,4,24.1,100.93,,-25,Mostly Cloudy,7.45
01-02-2023 05:00,2,1,05:00,-19.5,-21.8,82,4,8,24.1,100.94,,-26,NA,7.617
01-02-2023 06:00,2,1,06:00,-19.2,-21.4,83,5,7,12.9,100.93,,-25,Snow,7.614
01-02-2023 07:00,2,1,07:00,-18.7,-20.8,83,10,7,12.9,100.92,,-24,Snow,7.591
01-02-2023 08:00,2,1,08:00,-18.5,-20.7,83,8,7,12.9,100.91,,-24,Snow,13.912
01-02-2023 09:00,2,1,09:00,-17.3,-19.6,83,2,7,12.9,100.91,,-23,Snow,12.37
01-02-2023 10:00,2,1,10:00,-16.4,-19.4,78,13,3,16.1,100.89,,-19,Mostly Cloudy,12.388
01-02-2023 11:00,2,1,11:00,-12,-15.6,75,21,10,16.1,100.86,,-18,NA,12.227
01-02-2023 12:00,2,1,12:00,-9.5,-14.5,67,21,14,16.1,100.8,,-16,NA,12.118
01-02-2023 13:00,2,1,13:00,-7.7,-13.4,64,23,17,24.1,100.72,,-14,Mostly Cloudy,12.158
01-02-2023 14:00,2,1,14:00,-6.6,-13.2,60,22,22,24.1,100.64,,-14,NA,12.306
01-02-2023 15:00,2,1,15:00,-6.2,-13,59,22,21,24.1,100.62,,-13,NA,11.954
01-02-2023 16:00,2,1,16:00,-5.9,-12.4,60,23,23,24.1,100.65,,-13,Mostly Cloudy,12.075
01-02-2023 17:00,2,1,17:00,-6.4,-12.5,63,22,13,24.1,100.66,,-12,NA,12.13
01-02-2023 18:00,2,1,18:00,-7.2,-12.4,67,21,14,24.1,100.68,,-13,NA,12.091
01-02-2023 19:00,2,1,19:00,-6.8,-12.2,66,21,17,24.1,100.67,,-13,Mostly Cloudy,12.067
01-02-2023 20:00,2,1,20:00,-7.7,-12.6,68,21,17,24.1,100.65,,-14,NA,11.696
01-02-2023 21:00,2,1,21:00,-7.3,-12.1,69,21,22,24.1,100.64,,-15,NA,11.467
01-02-2023 22:00,2,1,22:00,-7,-11.6,70,22,21,24.1,100.63,,-14,Mostly Cloudy,9.875
01-02-2023 23:00,2,1,23:00,-6.7,-11.4,70,22,27,24.1,100.62,,-15,NA,8.625
02-02-2023 00:00,2,2,00:00,-6.8,-11.5,69,22,20,24.1,100.54,,-14,NA,8.252
02-02-2023 01:00,2,2,01:00,-6.6,-11.4,69,21,14,24.1,100.48,,-12,Cloudy,8.129
02-02-2023 02:00,2,2,02:00,-6.4,-11.2,69,21,10,24.1,100.42,,-11,NA,8.144
02-02-2023 03:00,2,2,03:00,-6,-10.6,70,25,11,6.4,100.38,,-11,Snow,8.077
02-02-2023 04:00,2,2,04:00,-5.9,-10.1,73,24,16,24.1,100.38,,-12,Mostly Cloudy,8.094
02-02-2023 05:00,2,2,05:00,-6.4,-10.3,74,23,13,24.1,100.33,,-12,NA,8.067
02-02-2023 06:00,2,2,06:00,-6.3,-10.1,75,21,12,24.1,100.29,,-11,NA,10.221
02-02-2023 07:00,2,2,07:00,-6.4,-10.1,75,20,12,24.1,100.23,,-12,Cloudy,10.375
02-02-2023 08:00,2,2,08:00,-6.3,-9.8,76,18,9,16.1,100.2,,-11,NA,11.393
02-02-2023 09:00,2,2,09:00,-5.6,-9.1,77,19,18,16.1,100.1,,-12,Snow,11.274
02-02-2023 10:00,2,2,10:00,-4.5,-9,71,19,25,16.1,99.92,,-12,Cloudy,11.283
02-02-2023 11:00,2,2,11:00,-3.1,-7.1,74,20,22,24.1,99.79,,-9,NA,11.7
02-02-2023 12:00,2,2,12:00,-2.1,-7.6,66,21,29,24.1,99.57,,-9,Snow,11.298
02-02-2023 13:00,2,2,13:00,-1.7,-7.4,65,21,28,24.1,99.35,,-8,Blowing Snow,11.198
02-02-2023 14:00,2,2,14:00,-1.4,-6.3,69,21,37,24.1,99.13,,-9,Blowing Snow,10.763
02-02-2023 15:00,2,2,15:00,-1.2,-5.9,70,19,30,24.1,98.99,,-8,Blowing Snow,10.567
02-02-2023 16:00,2,2,16:00,-1.3,-5.6,73,21,34,9.7,98.89,,-9,"Snow,Blowing Snow",10.843
02-02-2023 17:00,2,2,17:00,-1.1,-5.5,72,21,35,16.1,98.87,,-8,Blowing Snow,10.485
02-02-2023 18:00,2,2,18:00,-1.2,-4.6,78,22,29,12.9,98.84,,-8,"Snow,Blowing Snow",9.792
02-02-2023 19:00,2,2,19:00,-1.5,-3.9,84,23,31,16.1,98.77,,-9,"Snow,Blowing Snow",9.785
02-02-2023 20:00,2,2,20:00,-3.7,-4.6,94,27,31,1.2,98.84,,-11,"Snow,Blowing Snow",9.614
02-02-2023 21:00,2,2,21:00,-8.3,-11.8,77,30,41,3.2,99.13,,-19,"Snow,Blowing Snow",9.605
02-02-2023 22:00,2,2,22:00,-10.5,-14.9,71,30,37,16.1,99.35,,-21,"Snow,Blowing Snow",8.407
02-02-2023 23:00,2,2,23:00,-14.7,-19.2,68,31,34,12.9,99.57,,-26,Blowing Snow,7.787
03-02-2023 00:00,2,3,00:00,-16.1,-21.1,66,31,34,16.1,99.72,,-28,Blowing Snow,8.058
03-02-2023 01:00,2,3,01:00,-17.2,-22.5,64,30,34,24.1,99.84,,-30,Blowing Snow,8.028
03-02-2023 02:00,2,3,02:00,-18.5,-24.1,62,32,33,24.1,100.02,,-31,Blowing Snow,8.238
03-02-2023 03:00,2,3,03:00,-20.6,-27,57,31,39,24.1,100.17,,-35,Blowing Snow,7.997
03-02-2023 04:00,2,3,04:00,-22,-29.1,53,30,31,24.1,100.29,,-35,Blowing Snow,7.904
03-02-2023 05:00,2,3,05:00,-23.3,-29.2,59,33,23,24.1,100.44,,-35,NA,7.996
03-02-2023 06:00,2,3,06:00,-24.9,-31.6,55,32,41,24.1,100.54,,-41,Blowing Snow,10.206
03-02-2023 07:00,2,3,07:00,-26,-32.6,55,31,31,24.1,100.62,,-41,Blowing Snow,10.014
03-02-2023 08:00,2,3,08:00,-27,-35,48,34,34,24.1,100.79,,-42,NA,11.154
03-02-2023 09:00,2,3,09:00,-27,-34.3,51,32,27,24.1,100.87,,-41,Blowing Snow,11.411
03-02-2023 10:00,2,3,10:00,-27.1,-34,53,32,35,24.1,100.92,,-43,Blowing Snow,11.262
03-02-2023 11:00,2,3,11:00,-27.1,-32.9,59,28,31,24.1,100.95,,-42,Blowing Snow,11.448
03-02-2023 12:00,2,3,12:00,-26.9,-34.8,48,31,31,24.1,100.95,,-42,Blowing Snow,11.301
03-02-2023 13:00,2,3,13:00,-26.6,-34.4,49,28,34,24.1,100.96,,-42,Blowing Snow,11.485
03-02-2023 14:00,2,3,14:00,-26.5,-34,50,29,30,24.1,101.01,,-41,Blowing Snow,11.368
03-02-2023 15:00,2,3,15:00,-26.2,-33.8,50,29,32,24.1,101.09,,-41,Blowing Snow,10.88
03-02-2023 16:00,2,3,16:00,-26.3,-34.1,49,28,37,24.1,101.19,,-42,Mostly Cloudy,10.898
03-02-2023 17:00,2,3,17:00,-26.5,-34,50,29,39,16.1,101.3,,-43,Blowing Snow,9.718
03-02-2023 18:00,2,3,18:00,-26.3,-33,54,29,29,24.1,101.41,,-41,Blowing Snow,10.834
03-02-2023 19:00,2,3,19:00,-26.6,-33.3,54,29,40,24.1,101.51,,-43,Blowing Snow,10.759
03-02-2023 20:00,2,3,20:00,-26.9,-33.3,56,31,37,24.1,101.61,,-43,NA,10.572
03-02-2023 21:00,2,3,21:00,-27.3,-34.4,52,30,27,24.1,101.68,,-41,Blowing Snow,9.582
03-02-2023 22:00,2,3,22:00,-27.5,-33.6,57,31,34,24.1,101.72,,-43,Blowing Snow,8.928
03-02-2023 23:00,2,3,23:00,-27.7,-34.1,55,30,32,24.1,101.76,,-43,Blowing Snow,9.026
04-02-2023 00:00,2,4,00:00,-27.9,-35.1,52,29,22,24.1,101.84,,-41,Blowing Snow,8.717
04-02-2023 01:00,2,4,01:00,-28.6,-35,55,27,21,24.1,101.92,,-42,Clear,8.814
04-02-2023 02:00,2,4,02:00,-29.3,-35.1,58,27,16,24.1,101.98,,-41,NA,8.863
04-02-2023 03:00,2,4,03:00,-30.6,-35.6,62,24,9,24.1,102,,-39,NA,8.833
04-02-2023 04:00,2,4,04:00,-31.3,-35.6,67,23,13,24.1,102.04,,-42,Clear,8.909
04-02-2023 05:00,2,4,05:00,-31,-35.1,68,22,6,24.1,102.06,,-38,NA,8.738
04-02-2023 06:00,2,4,06:00,-32.2,-36.1,69,23,4,24.1,102.08,,-37,NA,8.793
04-02-2023 07:00,2,4,07:00,-31.8,-35.5,71,23,8,24.1,102.09,,-40,Clear,8.848
04-02-2023 08:00,2,4,08:00,-31.9,-35.6,71,16,5,24.1,102.08,,-38,NA,8.883
04-02-2023 09:00,2,4,09:00,-30,-34.6,65,16,9,24.1,102.07,,-39,NA,8.744
04-02-2023 10:00,2,4,10:00,-27.4,-33.5,57,19,9,24.1,102.02,,-36,Mostly Cloudy,8.693
04-02-2023 11:00,2,4,11:00,-24.8,-32.3,51,20,13,24.1,101.98,,-34,NA,8.831
04-02-2023 12:00,2,4,12:00,-23.4,-32.5,44,18,18,24.1,101.88,,-34,NA,8.161
04-02-2023 13:00,2,4,13:00,-22.5,-31.5,45,19,16,24.1,101.72,,-32,Cloudy,8.046
04-02-2023 14:00,2,4,14:00,-21.9,-28.4,56,15,12,16.1,101.56,,-30,Snow,7.902
04-02-2023 15:00,2,4,15:00,-20.9,-27.2,58,17,15,24.1,101.45,,-30,NA,7.897
04-02-2023 16:00,2,4,16:00,-20.4,-26.1,61,12,14,4.8,101.31,,-29,Snow,8.011
04-02-2023 17:00,2,4,17:00,-20.7,-25.5,66,10,13,4.8,101.2,,-29,Snow,8.004
04-02-2023 18:00,2,4,18:00,-20.7,-25.7,65,9,12,24.1,101.11,,-29,NA,7.891
04-02-2023 19:00,2,4,19:00,-20.9,-26.1,64,9,14,24.1,101.05,,-30,Cloudy,7.894
04-02-2023 20:00,2,4,20:00,-20.6,-26.2,61,8,16,24.1,100.93,,-30,NA,8.01
04-02-2023 21:00,2,4,21:00,-21,-25.8,66,6,17,24.1,100.86,,-31,NA,7.985
04-02-2023 22:00,2,4,22:00,-21.1,-25.9,66,6,21,24.1,100.76,,-32,Cloudy,8.039
04-02-2023 23:00,2,4,23:00,-20.8,-25.6,66,7,18,24.1,100.65,,-31,NA,7.772
05-02-2023 00:00,2,5,00:00,-20.6,-25.2,67,5,19,24.1,100.54,,-31,NA,7.867
05-02-2023 01:00,2,5,01:00,-20.1,-24.6,68,7,13,24.1,100.4,,-29,Cloudy,7.897
05-02-2023 02:00,2,5,02:00,-19.5,-23.9,68,6,14,24.1,100.34,,-28,NA,7.895
05-02-2023 03:00,2,5,03:00,-18.8,-22.8,72,6,14,24.1,100.27,,-27,NA,7.917
05-02-2023 04:00,2,5,04:00,-18.1,-21.8,73,7,10,24.1,100.19,,-25,Cloudy,7.813
05-02-2023 05:00,2,5,05:00,-17.6,-21.2,73,6,13,24.1,100.16,,-25,NA,7.835
05-02-2023 06:00,2,5,06:00,-17.1,-20.7,74,6,10,24.1,100.1,,-24,NA,7.976
05-02-2023 07:00,2,5,07:00,-16.8,-19.8,78,7,9,1.6,100.06,,-23,Snow,7.968
05-02-2023 08:00,2,5,08:00,-16.4,-18.6,84,5,13,1.6,100.03,,-24,Snow,7.803
05-02-2023 09:00,2,5,09:00,-15.4,-17.8,82,7,11,24.1,99.94,,-22,NA,7.822
05-02-2023 10:00,2,5,10:00,-13.9,-16.8,79,7,7,24.1,99.91,,-19,Cloudy,7.818
05-02-2023 11:00,2,5,11:00,-12.6,-15.9,77,8,9,24.1,99.84,,-18,NA,7.884
05-02-2023 12:00,2,5,12:00,-11.3,-14.8,75,6,9,24.1,99.73,,-16,NA,7.894
05-02-2023 13:00,2,5,13:00,-9.8,-13.7,73,7,9,24.1,99.62,,-15,Cloudy,7.812
05-02-2023 14:00,2,5,14:00,-8.9,-13.1,72,6,10,19.3,99.53,,-14,NA,7.87
05-02-2023 15:00,2,5,15:00,-8.3,-12.6,72,5,15,19.3,99.51,,-15,NA,7.845
05-02-2023 16:00,2,5,16:00,-8,-11.8,74,3,14,19.3,99.54,,-14,Cloudy,7.724
05-02-2023 17:00,2,5,17:00,-7.5,-10.8,77,4,12,19.3,99.59,,-13,NA,7.8
05-02-2023 18:00,2,5,18:00,-7.5,-9.5,86,6,13,2.4,99.67,,-13,Snow,7.81
05-02-2023 19:00,2,5,19:00,-7.2,-8.4,91,6,10,1.6,99.73,,-12,Snow,7.868
05-02-2023 20:00,2,5,20:00,-7.1,-8.3,91,6,11,6.4,99.71,,-12,Snow,7.867
05-02-2023 21:00,2,5,21:00,-7,-8.2,91,8,6,16.1,99.73,,-10,NA,7.797
05-02-2023 22:00,2,5,22:00,-6.8,-8.1,90,5,5,24.1,99.75,,-9,Cloudy,7.805
05-02-2023 23:00,2,5,23:00,-6.7,-8,91,1,5,24.1,99.77,,-9,NA,8.007
06-02-2023 00:00,2,6,00:00,-6.6,-7.9,91,5,6,16.1,99.82,,-10,NA,7.782
06-02-2023 01:00,2,6,01:00,-6.1,-7.4,91,35,12,12.9,99.9,,-11,Snow,7.756
06-02-2023 02:00,2,6,02:00,-5.8,-6.9,92,31,16,9.7,100.02,,-12,Snow,7.824
06-02-2023 03:00,2,6,03:00,-5.6,-6.7,92,28,12,9.7,100.1,,-11,Snow,7.841
06-02-2023 04:00,2,6,04:00,-6.6,-7.6,93,30,14,12.9,100.19,,-12,Mostly Cloudy,7.91
06-02-2023 05:00,2,6,05:00,-5.8,-8.2,83,34,27,24.1,100.35,,-14,NA,7.728
06-02-2023 06:00,2,6,06:00,-7.9,-10.3,83,32,22,24.1,100.53,,-16,NA,8.603
06-02-2023 07:00,2,6,07:00,-8.6,-10.8,84,32,27,24.1,100.68,,-17,Mainly Clear,10.396
06-02-2023 08:00,2,6,08:00,-8.9,-11.6,81,33,24,24.1,100.84,,-17,NA,11.05
06-02-2023 09:00,2,6,09:00,-9,-12.4,77,33,30,24.1,100.94,,-18,NA,11.27
06-02-2023 10:00,2,6,10:00,-8.5,-12.9,70,33,19,24.1,101.05,,-16,Clear,11.294
06-02-2023 11:00,2,6,11:00,-7.8,-13.1,66,33,16,24.1,101.14,,-14,NA,11.086
06-02-2023 12:00,2,6,12:00,-7.4,-13.1,64,31,12,24.1,101.18,,-13,NA,11.279
06-02-2023 13:00,2,6,13:00,-6.4,-13.2,59,33,10,24.1,101.16,,-11,Clear,10.963
06-02-2023 14:00,2,6,14:00,-5.7,-12.4,59,30,12,24.1,101.16,,-11,NA,11.262
06-02-2023 15:00,2,6,15:00,-4.9,-13.4,52,34,11,24.1,101.17,,-9,NA,11.049
06-02-2023 16:00,2,6,16:00,-5,-12.9,54,32,9,24.1,101.2,,-9,Clear,10.949
06-02-2023 17:00,2,6,17:00,-5.5,-13.1,55,31,6,24.1,101.24,,-8,NA,10.364
06-02-2023 18:00,2,6,18:00,-7.3,-13.8,60,26,8,24.1,101.29,,-11,NA,10.139
06-02-2023 19:00,2,6,19:00,-9.1,-14.4,66,24,7,24.1,101.3,,-13,Clear,10.126
06-02-2023 20:00,2,6,20:00,-11.1,-15.2,72,26,9,24.1,101.38,,-16,NA,9.919
06-02-2023 21:00,2,6,21:00,-11.4,-15.3,73,29,5,24.1,101.37,,-15,NA,8.957
06-02-2023 22:00,2,6,22:00,-11.4,-14.8,76,29,6,24.1,101.36,,-15,Clear,7.866
06-02-2023 23:00,2,6,23:00,-14,-15.9,86,36,3,24.1,101.34,,-16,NA,7.917
07-02-2023 00:00,2,7,00:00,-13.3,-16.2,79,6,8,24.1,101.34,,-18,NA,7.874
07-02-2023 01:00,2,7,01:00,-13.2,-15.3,84,9,9,24.1,101.36,,-19,Clear,7.911
07-02-2023 02:00,2,7,02:00,-13.2,-15.4,84,11,13,24.1,101.31,,-20,NA,7.99
07-02-2023 03:00,2,7,03:00,-12.1,-14.9,80,11,19,24.1,101.22,,-20,NA,7.935
07-02-2023 04:00,2,7,04:00,-13.2,-15.4,84,8,15,24.1,101.24,,-21,Mainly Clear,7.922
07-02-2023 05:00,2,7,05:00,-14.1,-16.2,84,10,16,24.1,101.12,,-22,NA,7.844
07-02-2023 06:00,2,7,06:00,-13.2,-15.5,83,10,21,24.1,101,,-22,NA,8.908
07-02-2023 07:00,2,7,07:00,-14,-16,85,10,12,24.1,100.98,,-21,Clear,10.985
07-02-2023 08:00,2,7,08:00,-13.5,-15.4,86,9,17,24.1,100.92,,-22,NA,11.229
07-02-2023 09:00,2,7,09:00,-11.9,-14.4,82,9,23,24.1,100.8,,-21,NA,11.374
07-02-2023 10:00,2,7,10:00,-10.3,-13.8,76,9,20,24.1,100.57,,-18,Mainly Clear,11.39
07-02-2023 11:00,2,7,11:00,-9.1,-13.2,72,8,19,24.1,100.35,,-17,NA,11.195
07-02-2023 12:00,2,7,12:00,-8.7,-13,71,9,28,24.1,100,,-18,NA,11.141
07-02-2023 13:00,2,7,13:00,-7.2,-12.5,67,10,32,24.1,99.92,,-16,Mostly Cloudy,12.468
07-02-2023 14:00,2,7,14:00,-6.7,-12.2,65,6,12,24.1,99.85,,-12,NA,11.556
07-02-2023 15:00,2,7,15:00,-7.8,-9.5,88,10,17,1.6,99.79,,-14,Snow,11.199
07-02-2023 16:00,2,7,16:00,-7.3,-8.8,89,8,17,16.1,99.67,,-14,Cloudy,9.885
07-02-2023 17:00,2,7,17:00,-6.8,-8.5,88,8,18,16.1,99.63,,-13,NA,9.971
07-02-2023 18:00,2,7,18:00,-6.5,-8.6,86,9,14,16.1,99.65,,-12,NA,9.263
07-02-2023 19:00,2,7,19:00,-5.8,-7.7,87,8,5,16.1,99.66,,-8,Cloudy,8.182
07-02-2023 20:00,2,7,20:00,-4.8,-6.9,85,36,2,16.1,99.68,,-6,NA,7.377
07-02-2023 21:00,2,7,21:00,-5.2,-6.9,88,8,7,12.9,99.72,,-8,NA,6.488
07-02-2023 22:00,2,7,22:00,-3.6,-5.3,88,26,4,24.1,99.81,,-5,Cloudy,6.533
07-02-2023 23:00,2,7,23:00,-2.5,-3.9,90,32,13,16.1,99.88,,-7,NA,6.401
08-02-2023 00:00,2,8,00:00,-2.2,-3.3,92,29,10,24.1,99.93,,-6,NA,6.473
08-02-2023 01:00,2,8,01:00,-1.2,-3.2,86,25,8,24.1,99.99,,-4,Cloudy,6.46
08-02-2023 02:00,2,8,02:00,0.5,-2.6,80,24,10,24.1,100.07,,,NA,6.478
08-02-2023 03:00,2,8,03:00,1.3,-2.4,76,24,12,24.1,100.1,,,NA,6.501
08-02-2023 04:00,2,8,04:00,0.9,-2.3,79,22,10,24.1,100.15,,,Cloudy,6.458
08-02-2023 05:00,2,8,05:00,0.8,-2.4,79,25,12,24.1,100.24,,,NA,6.4
08-02-2023 06:00,2,8,06:00,1.6,-2.8,72,27,17,24.1,100.34,,,NA,7.72
08-02-2023 07:00,2,8,07:00,1.3,-2.5,76,24,11,24.1,100.41,,,Cloudy,9.905
08-02-2023 08:00,2,8,08:00,0.9,-2.3,79,25,16,24.1,100.52,,,NA,9.925
08-02-2023 09:00,2,8,09:00,1.4,-1.9,79,26,15,24.1,100.61,,,NA,9.493
08-02-2023 10:00,2,8,10:00,2.2,-1.8,75,26,16,24.1,100.59,,,Mostly Cloudy,9.587
08-02-2023 11:00,2,8,11:00,2.7,-2.1,71,26,23,24.1,100.62,,,NA,9.817
08-02-2023 12:00,2,8,12:00,3.2,-3.2,63,27,18,24.1,100.66,,,NA,9.961
08-02-2023 13:00,2,8,13:00,4.1,-3.5,58,26,21,24.1,100.64,,,Mainly Clear,9.488
08-02-2023 14:00,2,8,14:00,4.5,-3.6,56,22,15,24.1,100.6,,,NA,9.031
08-02-2023 15:00,2,8,15:00,5.1,-3.4,54,22,23,24.1,100.52,,,NA,8.795
08-02-2023 16:00,2,8,16:00,5.3,-3.6,53,23,18,24.1,100.57,,,Clear,8.62
08-02-2023 17:00,2,8,17:00,4.6,-3.3,56,22,12,24.1,100.62,,,NA,8.9
08-02-2023 18:00,2,8,18:00,3.1,-3.5,62,21,6,24.1,100.68,,,NA,8.84
08-02-2023 19:00,2,8,19:00,2.4,-3.7,64,20,7,24.1,100.78,,,Clear,8.923
08-02-2023 20:00,2,8,20:00,1.2,-4,68,20,10,24.1,100.85,,,NA,8.518
08-02-2023 21:00,2,8,21:00,0.5,-4.1,72,22,10,24.1,100.87,,,NA,7.077
08-02-2023 22:00,2,8,22:00,0,-4.1,74,25,11,24.1,100.98,,-4,Clear,6.979
08-02-2023 23:00,2,8,23:00,-1,-4.5,77,21,8,24.1,100.98,,-4,NA,6.929
09-02-2023 00:00,2,9,00:00,-2,-4.8,81,30,7,24.1,101.05,,-5,NA,6.853
09-02-2023 01:00,2,9,01:00,-4.4,-6.1,88,2,3,24.1,100.99,,-6,Clear,6.992
09-02-2023 02:00,2,9,02:00,-4.2,-5.3,92,5,9,24.1,100.89,,-8,NA,6.995
09-02-2023 03:00,2,9,03:00,-5.2,-5.7,96,6,3,24.1,100.91,,-7,NA,6.862
09-02-2023 04:00,2,9,04:00,-7.1,-7.7,95,5,6,24.1,100.9,,-10,Mainly Clear,7.052
09-02-2023 05:00,2,9,05:00,-7,-7.7,95,4,12,24.1,100.88,,-12,NA,6.822
09-02-2023 06:00,2,9,06:00,-7.5,-8.4,93,6,12,24.1,100.85,,-13,NA,7.628
09-02-2023 07:00,2,9,07:00,-6.6,-7.3,95,7,12,0.6,100.83,,-12,Freezing Fog,10.625
09-02-2023 08:00,2,9,08:00,-5.8,-6.5,95,6,12,0.8,100.82,,-11,Freezing Fog,9.747
09-02-2023 09:00,2,9,09:00,-4.9,-5.4,96,6,14,0.6,100.76,,-10,Freezing Fog,10.088
09-02-2023 10:00,2,9,10:00,-3.9,-4.3,97,6,15,0.8,100.64,,-9,Freezing Fog,9.651
09-02-2023 11:00,2,9,11:00,-2.9,-3.2,97,6,21,4,100.57,,-9,Fog,9.849
09-02-2023 12:00,2,9,12:00,-2.2,-2.4,98,6,16,6.4,100.42,,-7,Fog,9.764
09-02-2023 13:00,2,9,13:00,-1.3,-1.6,98,7,21,4.8,100.19,,-7,"Freezing Rain,Fog",9.788
09-02-2023 14:00,2,9,14:00,-0.5,-1.2,95,7,18,4.8,100.04,,-6,"Freezing Rain,Fog",9.075
09-02-2023 15:00,2,9,15:00,-0.3,-0.8,97,7,25,4,99.87,,-6,"Freezing Rain,Fog",8.492
09-02-2023 16:00,2,9,16:00,0,-0.4,97,8,29,4.8,99.66,,-6,"Freezing Rain,Fog",8.439
09-02-2023 17:00,2,9,17:00,0.1,-0.3,97,7,29,4,99.52,,,"Freezing Rain,Fog",8.516
09-02-2023 18:00,2,9,18:00,0.2,-0.2,98,7,32,4,99.38,,,"Rain,Fog",8.345
09-02-2023 19:00,2,9,19:00,0.1,-0.2,98,8,29,3.2,99.28,,,"Rain,Fog",8.343
09-02-2023 20:00,2,9,20:00,0.2,0,98,7,24,2.8,99.23,,,"Rain,Fog",8.36
09-02-2023 21:00,2,9,21:00,0.1,-0.1,98,5,18,3.2,99.14,,,"Rain,Fog",7.561
09-02-2023 22:00,2,9,22:00,-0.2,-0.4,98,6,30,6.4,98.96,,-7,"Freezing Rain,Fog",7.165
09-02-2023 23:00,2,9,23:00,0,-0.3,98,8,18,4,98.88,,-5,"Freezing Rain,Fog",7.045
10-02-2023 00:00,2,10,00:00,0.1,-0.1,99,8,18,4.8,98.76,,,"Rain,Fog",6.96
10-02-2023 01:00,2,10,01:00,0.2,0,99,10,11,2,98.65,,,"Moderate Rain,Fog",7.169
10-02-2023 02:00,2,10,02:00,1.2,1.1,99,15,16,3.2,98.58,,,"Rain,Fog",7.198
10-02-2023 03:00,2,10,03:00,3.3,3.2,99,20,14,6.4,98.5,,,Fog,7.135
10-02-2023 04:00,2,10,04:00,4.4,3.4,93,20,21,24.1,98.52,,,Cloudy,7.13
10-02-2023 05:00,2,10,05:00,4,2.7,91,20,24,24.1,98.58,,,NA,7.055
10-02-2023 06:00,2,10,06:00,3.7,2,89,22,24,24.1,98.58,,,NA,7.925
10-02-2023 07:00,2,10,07:00,3.2,1.3,88,23,27,24.1,98.7,,,Cloudy,10.458
10-02-2023 08:00,2,10,08:00,3,0.1,81,23,30,24.1,98.81,,,NA,9.737
10-02-2023 09:00,2,10,09:00,2.7,-0.5,79,23,28,24.1,98.9,,,NA,9.841
10-02-2023 10:00,2,10,10:00,2,-0.1,86,26,28,16.1,99.03,,,Rain Showers,9.642
10-02-2023 11:00,2,10,11:00,1.6,0.2,91,26,27,12.9,99.17,,,"Rain Showers,Snow Showers",10.008
10-02-2023 12:00,2,10,12:00,1.6,-0.7,85,26,31,12.9,99.28,,,Snow Showers,10.548
10-02-2023 13:00,2,10,13:00,1.3,-1.4,82,28,39,12.9,99.41,,,Snow Showers,10.396
10-02-2023 14:00,2,10,14:00,2.2,-1.8,75,28,25,24.1,99.52,,,NA,10.879
10-02-2023 15:00,2,10,15:00,1.4,-1.7,80,29,23,24.1,99.63,,,NA,11.326
10-02-2023 16:00,2,10,16:00,1.4,-1.9,78,29,25,24.1,99.66,,,Mostly Cloudy,11.145
10-02-2023 17:00,2,10,17:00,1.1,-1.9,80,27,17,24.1,99.75,,,NA,11.447
10-02-2023 18:00,2,10,18:00,1,-1.8,82,28,15,16.1,99.82,,,Snow Pellets,11.057
10-02-2023 19:00,2,10,19:00,0,-1,93,28,9,1.6,99.88,,-3,Snow,10.924
10-02-2023 20:00,2,10,20:00,-0.6,-1,97,28,12,2,99.86,,-5,Snow,10.561
10-02-2023 21:00,2,10,21:00,-0.8,-1.2,97,27,12,3.2,99.91,,-5,Snow,10.334
10-02-2023 22:00,2,10,22:00,-0.9,-1.4,96,31,19,2.4,99.97,,-6,Snow,9.329
10-02-2023 23:00,2,10,23:00,-2.5,-3.9,90,33,19,3.2,100.05,,-8,Snow,8.47
11-02-2023 00:00,2,11,00:00,-2.9,-5,86,33,23,9.7,100.15,,-9,Snow,8.191
11-02-2023 01:00,2,11,01:00,-3.4,-5.9,83,32,24,24.1,100.25,,-10,Mostly Cloudy,8.349
11-02-2023 02:00,2,11,02:00,-4.4,-6.4,86,29,17,24.1,100.38,,-10,NA,8.361
11-02-2023 03:00,2,11,03:00,-4.9,-6.7,87,29,17,24.1,100.5,,-11,NA,8.317
11-02-2023 04:00,2,11,04:00,-4.5,-7.7,78,33,30,24.1,100.62,,-12,Mostly Cloudy,8.318
11-02-2023 05:00,2,11,05:00,-6.5,-9.6,79,30,15,24.1,100.76,,-12,NA,8.399
11-02-2023 06:00,2,11,06:00,-7.2,-9.6,83,29,16,24.1,100.87,,-14,NA,8.26
11-02-2023 07:00,2,11,07:00,-7.9,-10.6,81,29,20,24.1,101.01,,-15,Clear,8.27
11-02-2023 08:00,2,11,08:00,-8.3,-11,81,29,17,24.1,101.13,,-15,NA,8.146
11-02-2023 09:00,2,11,09:00,-8,-11.8,74,28,22,24.1,101.21,,-16,NA,8.373
11-02-2023 10:00,2,11,10:00,-7.6,-12.8,66,27,21,24.1,101.21,,-15,Clear,8.104
11-02-2023 11:00,2,11,11:00,-6.8,-13.3,60,25,17,24.1,101.23,,-13,NA,8.238
11-02-2023 12:00,2,11,12:00,-5.9,-12.5,60,25,16,24.1,101.14,,-12,NA,8.181
11-02-2023 13:00,2,11,13:00,-4.3,-11.6,57,22,14,24.1,101.06,,-9,Clear,8.228
11-02-2023 14:00,2,11,14:00,-2.8,-10.9,54,21,11,24.1,100.91,,-7,NA,8.354
11-02-2023 15:00,2,11,15:00,-1,-11.2,46,20,17,24.1,100.81,,-6,NA,7.843
11-02-2023 16:00,2,11,16:00,-0.7,-9.3,52,20,20,24.1,100.73,,-6,Mainly Clear,8.054
11-02-2023 17:00,2,11,17:00,-1,-7.8,60,19,23,24.1,100.63,,-7,NA,7.945
11-02-2023 18:00,2,11,18:00,-2,-7.1,69,19,26,24.1,100.53,,-9,NA,7.809
11-02-2023 19:00,2,11,19:00,-2,-6.2,73,20,29,24.1,100.5,,-9,Mainly Clear,8.073
11-02-2023 20:00,2,11,20:00,-1.7,-5.6,75,21,32,24.1,100.47,,-9,NA,7.874
11-02-2023 21:00,2,11,21:00,-1.6,-5.5,75,21,27,24.1,100.47,,-8,NA,7.804
11-02-2023 22:00,2,11,22:00,-1.8,-5.4,76,21,24,24.1,100.42,,-8,Clear,7.918
11-02-2023 23:00,2,11,23:00,-2,-5.5,77,22,20,24.1,100.39,,-8,NA,8.013
12-02-2023 00:00,2,12,00:00,-2.5,-6,77,21,14,24.1,100.36,,-7,NA,7.619
12-02-2023 01:00,2,12,01:00,-3.4,-6.6,79,20,11,24.1,100.33,,-8,Clear,7.881
12-02-2023 02:00,2,12,02:00,-3.4,-6.7,78,19,10,24.1,100.33,,-7,NA,7.808
12-02-2023 03:00,2,12,03:00,-4.1,-7.3,79,20,12,24.1,100.3,,-9,NA,7.863
12-02-2023 04:00,2,12,04:00,-4,-7.2,78,21,16,24.1,100.31,,-10,Clear,7.999
12-02-2023 05:00,2,12,05:00,-3.9,-7.4,76,22,15,24.1,100.33,,-9,NA,7.829
12-02-2023 06:00,2,12,06:00,-3.8,-7.1,78,22,16,24.1,100.3,,-9,NA,8.013
12-02-2023 07:00,2,12,07:00,-3.9,-7.1,78,22,15,24.1,100.36,,-9,Mainly Clear,8.201
12-02-2023 08:00,2,12,08:00,-3.3,-6.7,78,22,9,24.1,100.42,,-7,NA,7.994
12-02-2023 09:00,2,12,09:00,-2.4,-6.2,76,22,13,24.1,100.43,,-7,NA,8.132
12-02-2023 10:00,2,12,10:00,-1.6,-5.6,74,23,12,24.1,100.41,,-6,Mostly Cloudy,8.185
12-02-2023 11:00,2,12,11:00,-0.6,-4.6,74,25,7,24.1,100.39,,-3,NA,8.163
12-02-2023 12:00,2,12,12:00,0.8,-4.7,66,27,4,24.1,100.28,,,NA,8.257
12-02-2023 13:00,2,12,13:00,1.9,-4.7,62,12,3,24.1,100.22,,,Mainly Clear,8.28
12-02-2023 14:00,2,12,14:00,3.1,-4,59,36,3,24.1,100.07,,,NA,8.259
12-02-2023 15:00,2,12,15:00,3.6,-3.7,59,10,5,24.1,100.02,,,NA,8.228
12-02-2023 16:00,2,12,16:00,2.7,-3.4,64,8,12,24.1,99.98,,,Mainly Clear,8.101
12-02-2023 17:00,2,12,17:00,2.2,-3.2,67,10,10,24.1,99.99,,,NA,8.07
12-02-2023 18:00,2,12,18:00,1.2,-3.5,71,7,13,24.1,99.96,,,NA,7.925
12-02-2023 19:00,2,12,19:00,0.2,-3.7,75,5,16,24.1,99.95,,,Mostly Cloudy,8.118
12-02-2023 20:00,2,12,20:00,-0.8,-4.2,78,7,14,24.1,99.92,,-5,NA,8.267
12-02-2023 21:00,2,12,21:00,-1.8,-4.6,81,9,12,24.1,99.86,,-6,NA,7.956
12-02-2023 22:00,2,12,22:00,-2.3,-4.8,83,8,14,24.1,99.79,,-7,Clear,7.932
12-02-2023 23:00,2,12,23:00,-3,-5.1,85,9,13,24.1,99.72,,-8,NA,7.809
13-02-2023 00:00,2,13,00:00,-4.5,-6.2,88,5,13,24.1,99.7,,-10,NA,7.686
13-02-2023 01:00,2,13,01:00,-4.7,-5.9,92,6,12,24.1,99.63,,-9,Clear,7.831
13-02-2023 02:00,2,13,02:00,-5.6,-6.8,92,4,17,24.1,99.58,,-12,NA,7.903
13-02-2023 03:00,2,13,03:00,-5.3,-6.4,92,6,14,24.1,99.51,,-11,NA,7.75
13-02-2023 04:00,2,13,04:00,-4.7,-5.8,92,6,14,24.1,99.45,,-10,Mainly Clear,7.868
13-02-2023 05:00,2,13,05:00,-5.2,-6.3,92,6,15,24.1,99.36,,-11,NA,7.749
13-02-2023 06:00,2,13,06:00,-6.1,-6.8,95,5,17,24.1,99.29,,-12,NA,9.039
13-02-2023 07:00,2,13,07:00,-5.5,-6.4,93,7,21,16.1,99.17,,-12,Mainly Clear,12.733
13-02-2023 08:00,2,13,08:00,-4.1,-5.7,89,8,5,12.9,99.19,,-6,NA,11.994
13-02-2023 09:00,2,13,09:00,-4.2,-5.8,88,12,9,16.1,99.11,,-8,NA,11.781
13-02-2023 10:00,2,13,10:00,-1.6,-4.6,80,6,10,24.1,99.01,,-5,Mainly Clear,11.816
13-02-2023 11:00,2,13,11:00,-0.1,-4.2,74,10,16,24.1,98.93,,-5,NA,12.052
13-02-2023 12:00,2,13,12:00,1,-3.6,71,6,10,24.1,98.81,,,NA,11.5
13-02-2023 13:00,2,13,13:00,2.1,-3.3,67,10,10,24.1,98.69,,,Mainly Clear,11.481
13-02-2023 14:00,2,13,14:00,2.8,-3.8,62,11,10,24.1,98.58,,,NA,11.427
13-02-2023 15:00,2,13,15:00,3.1,-3.6,61,9,5,24.1,98.5,,,NA,10.093
13-02-2023 16:00,2,13,16:00,2.3,-2.9,68,11,10,24.1,98.49,,,Mostly Cloudy,10.229
13-02-2023 17:00,2,13,17:00,1.5,-3,72,5,9,24.1,98.49,,,NA,10.196
13-02-2023 18:00,2,13,18:00,1.6,-3.1,71,5,10,24.1,98.56,,,NA,10.204
13-02-2023 19:00,2,13,19:00,1.5,-3.1,71,36,1,24.1,98.63,,,Cloudy,10.411
13-02-2023 20:00,2,13,20:00,1.1,-3.2,73,7,7,24.1,98.69,,,NA,10.053
13-02-2023 21:00,2,13,21:00,1.2,-2.3,78,32,21,16.1,98.83,,,NA,8.787
13-02-2023 22:00,2,13,22:00,1.4,-2.5,75,29,17,24.1,98.92,,,Cloudy,8.27
13-02-2023 23:00,2,13,23:00,1.2,-0.5,89,28,23,16.1,99.02,,,NA,8.507
14-02-2023 00:00,2,14,00:00,1.3,-0.3,89,28,22,16.1,99.11,,,NA,8.238
14-02-2023 01:00,2,14,01:00,1.3,-0.6,87,29,17,24.1,99.22,,,Mostly Cloudy,8.528
14-02-2023 02:00,2,14,02:00,0.9,-1.4,84,28,16,24.1,99.37,,,NA,8.557
14-02-2023 03:00,2,14,03:00,0.8,-1.4,85,29,17,24.1,99.47,,,NA,8.028
14-02-2023 04:00,2,14,04:00,-0.1,-2.2,85,27,19,24.1,99.56,,-5,Clear,8.296
14-02-2023 05:00,2,14,05:00,-0.6,-3.2,83,28,17,24.1,99.71,,-6,NA,7.932
14-02-2023 06:00,2,14,06:00,-2.3,-4,88,25,11,24.1,99.84,,-6,NA,9.194
14-02-2023 07:00,2,14,07:00,-2.3,-4.1,88,28,10,24.1,99.95,,-6,Clear,12.293
14-02-2023 08:00,2,14,08:00,-2.7,-4.6,87,22,13,24.1,100.08,,-7,NA,11.958
14-02-2023 09:00,2,14,09:00,-0.9,-4.1,79,21,7,24.1,100.16,,-3,NA,12.07
14-02-2023 10:00,2,14,10:00,0.8,-3.1,75,25,7,24.1,100.23,,,Clear,11.803
14-02-2023 11:00,2,14,11:00,2.3,-2.3,72,25,8,24.1,100.28,,,NA,12.003
14-02-2023 12:00,2,14,12:00,3.3,-2.5,66,26,7,24.1,100.25,,,NA,11.756
14-02-2023 13:00,2,14,13:00,4,-2.4,63,22,12,24.1,100.21,,,Clear,11.926
14-02-2023 14:00,2,14,14:00,4.7,-2.4,60,21,7,24.1,100.23,,,NA,11.542
14-02-2023 15:00,2,14,15:00,5.1,-2.6,58,17,8,24.1,100.26,,,NA,10.613
14-02-2023 16:00,2,14,16:00,5.6,-3.5,52,19,12,24.1,100.29,,,Clear,9.937
14-02-2023 17:00,2,14,17:00,4.8,-3.7,54,17,11,24.1,100.35,,,NA,10.257
14-02-2023 18:00,2,14,18:00,3.7,-4.9,54,18,14,24.1,100.39,,,NA,10.101
14-02-2023 19:00,2,14,19:00,2.8,-1.2,75,17,13,24.1,100.39,,,Clear,10.38
14-02-2023 20:00,2,14,20:00,1.5,-1.6,80,18,10,24.1,100.38,,,NA,10.097
14-02-2023 21:00,2,14,21:00,0.4,-2.2,83,16,9,24.1,100.38,,,NA,8.87
14-02-2023 22:00,2,14,22:00,0.3,-2.4,82,16,10,24.1,100.38,,,Clear,8.412
14-02-2023 23:00,2,14,23:00,-0.3,-2.7,84,16,13,24.1,100.27,,-4,NA,8.169
15-02-2023 00:00,2,15,00:00,-0.4,-3.2,81,12,9,24.1,100.21,,-4,NA,8.374
15-02-2023 01:00,2,15,01:00,-0.7,-3.1,84,9,9,24.1,100.17,,-4,Mostly Cloudy,8.416
15-02-2023 02:00,2,15,02:00,-0.7,-3.4,82,9,10,24.1,100.12,,-4,NA,8.44
15-02-2023 03:00,2,15,03:00,-0.7,-3.6,81,9,13,24.1,99.97,,-5,NA,8.572
15-02-2023 04:00,2,15,04:00,-0.5,-4,77,9,14,24.1,99.86,,-5,Cloudy,8.066
15-02-2023 05:00,2,15,05:00,-0.3,-3.9,77,7,17,24.1,99.73,,-5,NA,8.149
15-02-2023 06:00,2,15,06:00,0.1,-3.5,77,7,22,24.1,99.6,,,NA,9.663
15-02-2023 07:00,2,15,07:00,-0.4,-2.6,85,4,15,24.1,99.64,,-5,Rain,11.556
15-02-2023 08:00,2,15,08:00,1,-3.1,74,9,16,24.1,99.48,,,Rain,11.606
15-02-2023 09:00,2,15,09:00,2.3,-2.6,70,11,18,24.1,99.33,,,NA,11.768
15-02-2023 10:00,2,15,10:00,2.4,-2.1,72,8,10,24.1,99.24,,,Cloudy,11.25
15-02-2023 11:00,2,15,11:00,2.2,-1.5,76,8,13,24.1,99.08,,,Rain,11.558
15-02-2023 12:00,2,15,12:00,4,-0.7,72,7,13,24.1,98.91,,,NA,11.313
15-02-2023 13:00,2,15,13:00,3.5,-0.3,76,8,6,24.1,98.85,,,Mostly Cloudy,12.165
15-02-2023 14:00,2,15,14:00,2.4,0.7,88,8,8,12.9,98.86,,,Rain,11.913
15-02-2023 15:00,2,15,15:00,6.6,4.3,86,18,17,9.7,98.81,,,"Rain,Fog",11.537
15-02-2023 16:00,2,15,16:00,7.7,4.8,82,18,19,24.1,98.76,,,Rain,11.78
15-02-2023 17:00,2,15,17:00,7.9,5.5,84,20,18,24.1,98.77,,,NA,11.479
15-02-2023 18:00,2,15,18:00,8.3,5.1,80,21,21,24.1,98.79,,,NA,11.508
15-02-2023 19:00,2,15,19:00,8.9,4.2,72,22,17,24.1,98.81,,,Cloudy,11.016
15-02-2023 20:00,2,15,20:00,8.7,3.4,69,22,21,24.1,98.84,,,NA,10.856
15-02-2023 21:00,2,15,21:00,7.8,3,72,28,50,24.1,99,,,NA,9.158
15-02-2023 22:00,2,15,22:00,6.1,0.9,69,25,26,24.1,99.11,,,Mostly Cloudy,8.561
15-02-2023 23:00,2,15,23:00,6.1,0.8,69,23,28,24.1,99.16,,,NA,9.114
16-02-2023 00:00,2,16,00:00,5.7,0.8,71,23,18,24.1,99.28,,,NA,8.364
16-02-2023 01:00,2,16,01:00,5.6,0.7,71,23,22,24.1,99.37,,,Mostly Cloudy,8.643
16-02-2023 02:00,2,16,02:00,5.1,0.4,72,24,20,24.1,99.51,,,NA,8.298
16-02-2023 03:00,2,16,03:00,4.7,-0.3,70,23,21,24.1,99.62,,,NA,8.457
16-02-2023 04:00,2,16,04:00,4,-0.6,72,25,19,24.1,99.73,,,Mostly Cloudy,8.199
16-02-2023 05:00,2,16,05:00,3.2,-1.9,69,28,22,24.1,99.89,,,NA,8.291
16-02-2023 06:00,2,16,06:00,2.6,-2.3,70,28,28,24.1,100.01,,,NA,8.545
16-02-2023 07:00,2,16,07:00,2.1,-2.7,71,28,28,24.1,100.11,,,Cloudy,12.809
16-02-2023 08:00,2,16,08:00,1.5,-2.5,75,29,14,24.1,100.24,,,NA,11.785
16-02-2023 09:00,2,16,09:00,1.3,-3.1,72,27,16,24.1,100.34,,,NA,11.932
16-02-2023 10:00,2,16,10:00,1.4,-3.1,72,30,18,24.1,100.37,,,Cloudy,11.875
16-02-2023 11:00,2,16,11:00,0.6,-4,71,31,28,24.1,100.39,,,NA,11.479
16-02-2023 12:00,2,16,12:00,0.7,-3.9,72,32,17,24.1,100.37,,,NA,11.665
16-02-2023 13:00,2,16,13:00,0.6,-3.7,73,31,17,24.1,100.31,,,Cloudy,11.832
16-02-2023 14:00,2,16,14:00,0.3,-4,73,31,21,24.1,100.2,,,NA,11.799
16-02-2023 15:00,2,16,15:00,0.2,-4.2,73,30,13,24.1,100.26,,,NA,11.627
16-02-2023 16:00,2,16,16:00,0.3,-4,73,31,18,24.1,100.22,,,Mostly Cloudy,11.336
16-02-2023 17:00,2,16,17:00,0.6,-4.6,68,34,18,24.1,100.17,,,NA,11.705
16-02-2023 18:00,2,16,18:00,0.4,-4.3,71,36,9,24.1,100.13,,,NA,11.647
16-02-2023 19:00,2,16,19:00,0.1,-4.9,69,2,16,24.1,100.1,,,Cloudy,11.489
16-02-2023 20:00,2,16,20:00,-0.5,-6.5,64,2,14,24.1,100.06,,-5,NA,10.908
16-02-2023 21:00,2,16,21:00,-0.7,-6.6,64,2,13,24.1,100.02,,-5,NA,9.53
16-02-2023 22:00,2,16,22:00,-1.2,-6.4,67,3,20,24.1,99.79,,-7,Snow,9.357
16-02-2023 23:00,2,16,23:00,-2,-5.5,77,3,26,8.1,99.67,,-9,Snow,9.809
17-02-2023 00:00,2,17,00:00,-2.9,-4.2,91,3,22,4,99.49,,-9,"Snow,Ice Pellets",9.288
17-02-2023 01:00,2,17,01:00,-3.3,-4.3,93,1,21,2.4,99.45,,-10,"Snow,Ice Pellets",9.645
17-02-2023 02:00,2,17,02:00,-3.7,-4.5,94,2,28,1.6,99.3,,-11,"Snow,Ice Pellets",9.547
17-02-2023 03:00,2,17,03:00,-3.8,-4.6,94,3,27,2,99.16,,-11,"Snow,Ice Pellets",9.516
17-02-2023 04:00,2,17,04:00,-4,-4.9,93,36,22,2,99.16,,-11,"Snow,Ice Pellets",9.368
17-02-2023 05:00,2,17,05:00,-4.7,-5.6,93,36,24,1.6,99.18,,-12,Snow,9.62
17-02-2023 06:00,2,17,06:00,-6,-7.2,91,2,23,1.6,99.09,,-13,Snow,10.34
17-02-2023 07:00,2,17,07:00,-6.8,-8,92,1,22,1.6,99.12,,-14,Snow,12.208
17-02-2023 08:00,2,17,08:00,-7.5,-9,89,36,27,1.2,99.19,,-16,"Snow,Blowing Snow",12.103
17-02-2023 09:00,2,17,09:00,-7.6,-9.7,85,34,22,9.7,99.33,,-15,"Snow,Blowing Snow",12.069
17-02-2023 10:00,2,17,10:00,-8.3,-12.2,73,34,28,16.1,99.52,,-17,Blowing Snow,11.714
17-02-2023 11:00,2,17,11:00,-9.4,-12.2,81,33,23,9.7,99.61,,-18,"Snow,Blowing Snow",11.777
17-02-2023 12:00,2,17,12:00,-9.3,-11.9,82,33,22,4.8,99.68,,-17,"Snow,Blowing Snow",11.575
17-02-2023 13:00,2,17,13:00,-8.7,-11.9,78,32,22,9.7,99.72,,-17,"Snow,Blowing Snow",11.676
17-02-2023 14:00,2,17,14:00,-7.2,-12.6,66,35,21,24.1,99.76,,-15,NA,11.11
17-02-2023 15:00,2,17,15:00,-7.3,-12.7,66,32,27,24.1,99.89,,-16,NA,10.61
17-02-2023 16:00,2,17,16:00,-7.3,-13,64,33,25,24.1,100,,-15,Clear,10.149
17-02-2023 17:00,2,17,17:00,-7.9,-13.6,64,32,24,24.1,100.1,,-16,NA,10.127
17-02-2023 18:00,2,17,18:00,-8.4,-14,64,33,25,24.1,100.21,,-17,NA,10.235
17-02-2023 19:00,2,17,19:00,-8.8,-14.3,65,34,21,24.1,100.35,,-17,Blowing Snow,10.081
17-02-2023 20:00,2,17,20:00,-9.3,-14.6,66,33,19,24.1,100.44,,-17,NA,10.091
17-02-2023 21:00,2,17,21:00,-10.2,-14.8,69,33,18,24.1,100.5,,-18,NA,8.62
17-02-2023 22:00,2,17,22:00,-10.7,-16.1,65,34,19,24.1,100.55,,-19,Clear,8.14
17-02-2023 23:00,2,17,23:00,-12.8,-15.8,78,25,9,24.1,100.6,,-18,NA,8.206
18-02-2023 00:00,2,18,00:00,-15.8,-18.4,80,28,11,24.1,100.66,,-23,NA,7.985
18-02-2023 01:00,2,18,01:00,-14.6,-17.1,81,24,12,24.1,100.7,,-21,Clear,8
18-02-2023 02:00,2,18,02:00,-16.4,-18.7,82,25,13,24.1,100.8,,-24,NA,8.132
18-02-2023 03:00,2,18,03:00,-15.6,-17.6,85,23,8,24.1,100.8,,-21,NA,8.106
18-02-2023 04:00,2,18,04:00,-16.1,-17.9,86,24,9,24.1,100.82,,-22,Clear,8.168
18-02-2023 05:00,2,18,05:00,-15.8,-18,83,19,8,24.1,100.81,,-21,NA,8.142
18-02-2023 06:00,2,18,06:00,-15.9,-18.1,83,19,8,24.1,100.83,,-21,NA,8.041
18-02-2023 07:00,2,18,07:00,-14.2,-16.7,81,19,12,24.1,100.81,,-21,Mostly Cloudy,8.202
18-02-2023 08:00,2,18,08:00,-12.1,-15,79,17,17,24.1,100.73,,-20,NA,7.997
18-02-2023 09:00,2,18,09:00,-9.5,-13.5,73,16,13,24.1,100.7,,-16,NA,8.308
18-02-2023 10:00,2,18,10:00,-7,-11.3,71,21,13,24.1,100.69,,-13,Mostly Cloudy,8.06
18-02-2023 11:00,2,18,11:00,-4.1,-9.3,67,22,28,24.1,100.64,,-12,NA,8.334
18-02-2023 12:00,2,18,12:00,-3.2,-9,64,23,23,24.1,100.62,,-10,NA,8.261
18-02-2023 13:00,2,18,13:00,-2.2,-8.8,60,22,17,24.1,100.53,,-8,Cloudy,8.259
18-02-2023 14:00,2,18,14:00,-1.8,-8.4,61,21,18,24.1,100.47,,-7,NA,8.165
18-02-2023 15:00,2,18,15:00,-1,-7.6,61,23,21,24.1,100.49,,-7,NA,8.215
18-02-2023 16:00,2,18,16:00,-1.2,-6.9,65,22,21,24.1,100.54,,-7,Cloudy,8.391
18-02-2023 17:00,2,18,17:00,-1.4,-5.8,72,23,20,24.1,100.62,,-7,NA,8.091
18-02-2023 18:00,2,18,18:00,-1.4,-4.9,77,23,21,16.1,100.74,,-7,Snow,8.293
18-02-2023 19:00,2,18,19:00,-1.4,-4.3,81,22,21,24.1,100.79,,-7,Snow,8.024
18-02-2023 20:00,2,18,20:00,-1,-4.4,78,22,19,24.1,100.85,,-6,NA,8.201
18-02-2023 21:00,2,18,21:00,-0.7,-4.4,76,24,23,24.1,100.9,,-7,NA,8.223
18-02-2023 22:00,2,18,22:00,-0.8,-4.2,78,22,20,24.1,100.92,,-6,Cloudy,8.37
18-02-2023 23:00,2,18,23:00,-0.8,-4,79,23,20,24.1,100.95,,-6,NA,8.228
19-02-2023 00:00,2,19,00:00,-0.8,-4,79,22,15,24.1,100.97,,-5,NA,7.952
19-02-2023 01:00,2,19,01:00,-0.8,-4.2,78,21,12,24.1,100.98,,-5,Cloudy,8.389
19-02-2023 02:00,2,19,02:00,-1.1,-4.3,79,20,10,24.1,101.02,,-5,NA,8.038
19-02-2023 03:00,2,19,03:00,-1.2,-4.3,80,20,9,24.1,101.01,,-4,NA,8.452
19-02-2023 04:00,2,19,04:00,-1.2,-4.2,80,20,8,24.1,101.02,,-4,Cloudy,8.183
19-02-2023 05:00,2,19,05:00,-1.8,-4.8,80,15,9,24.1,100.93,,-5,NA,8.11
19-02-2023 06:00,2,19,06:00,-1.7,-4.1,84,16,11,24.1,100.94,,-6,NA,8.171
19-02-2023 07:00,2,19,07:00,-1.7,-3.8,86,14,11,24.1,100.88,,-6,Cloudy,8.131
19-02-2023 08:00,2,19,08:00,-1.3,-3.4,86,14,14,24.1,100.81,,-6,NA,8.24
19-02-2023 09:00,2,19,09:00,-0.8,-3.4,82,14,16,24.1,100.72,,-6,NA,8.227
19-02-2023 10:00,2,19,10:00,0.4,-3.3,76,13,28,24.1,100.56,,,Cloudy,8.37
19-02-2023 11:00,2,19,11:00,1.1,-3.2,73,14,18,24.1,100.43,,,NA,8.167
19-02-2023 12:00,2,19,12:00,2.2,-3.3,67,12,20,24.1,100.19,,,NA,8.287
19-02-2023 13:00,2,19,13:00,2.8,-3,66,13,24,24.1,99.97,,,Mostly Cloudy,8.142
19-02-2023 14:00,2,19,14:00,3.8,-3.3,60,13,25,24.1,99.78,,,NA,8.111
19-02-2023 15:00,2,19,15:00,4.9,-4.4,51,16,12,24.1,99.64,,,NA,7.66
19-02-2023 16:00,2,19,16:00,4.9,-4.3,51,13,13,24.1,99.45,,,Mostly Cloudy,7.994
19-02-2023 17:00,2,19,17:00,5,-4.7,49,17,12,24.1,99.4,,,NA,7.631
19-02-2023 18:00,2,19,18:00,4.7,-4.6,51,16,14,24.1,99.36,,,NA,7.972
19-02-2023 19:00,2,19,19:00,4.9,-4.5,51,18,15,24.1,99.35,,,Cloudy,7.555
19-02-2023 20:00,2,19,20:00,5.6,-4.6,48,20,25,24.1,99.32,,,NA,8.056
19-02-2023 21:00,2,19,21:00,5.6,-3.9,50,21,23,24.1,99.31,,,NA,7.636
19-02-2023 22:00,2,19,22:00,5,-3.2,55,22,20,24.1,99.31,,,Mostly Cloudy,7.742
19-02-2023 23:00,2,19,23:00,4.4,-3,59,19,13,24.1,99.28,,,NA,7.797
20-02-2023 00:00,2,20,00:00,4.1,-2.6,62,19,15,24.1,99.18,,,NA,7.754
20-02-2023 01:00,2,20,01:00,4.1,-2.5,62,19,14,24.1,99.11,,,Cloudy,8.083
20-02-2023 02:00,2,20,02:00,4.4,-2.4,61,20,19,24.1,99.05,,,NA,7.809
20-02-2023 03:00,2,20,03:00,4.2,-2.3,63,20,17,24.1,98.95,,,NA,7.888
20-02-2023 04:00,2,20,04:00,4,-2.2,64,20,16,24.1,98.87,,,Cloudy,7.804
20-02-2023 05:00,2,20,05:00,3.5,-1.9,68,22,9,24.1,98.86,,,NA,7.84
20-02-2023 06:00,2,20,06:00,3.4,-1.8,69,22,14,24.1,98.84,,,NA,7.516
20-02-2023 07:00,2,20,07:00,3.3,-1.7,70,23,15,24.1,98.85,,,Cloudy,8.334
20-02-2023 08:00,2,20,08:00,3,-0.8,76,23,16,16.1,98.92,,,Rain,8.008
20-02-2023 09:00,2,20,09:00,2.7,0.1,83,21,12,24.1,98.94,,,Rain,8.28
20-02-2023 10:00,2,20,10:00,3.5,-0.6,75,24,14,24.1,98.91,,,Mostly Cloudy,8.578
20-02-2023 11:00,2,20,11:00,3.7,-1.5,69,27,13,24.1,98.93,,,NA,9.012
20-02-2023 12:00,2,20,12:00,0.5,-1.2,89,33,19,24.1,99.01,,,Snow,8.753
20-02-2023 13:00,2,20,13:00,0.7,-5,66,29,34,24.1,99.06,,,Mostly Cloudy,9.179
20-02-2023 14:00,2,20,14:00,0.9,-7.6,53,30,35,24.1,99.1,,,NA,8.812
20-02-2023 15:00,2,20,15:00,0.4,-7.2,57,30,26,24.1,99.18,,,NA,8.747
20-02-2023 16:00,2,20,16:00,-0.4,-9.4,51,30,36,24.1,99.22,,-8,Clear,8.64
20-02-2023 17:00,2,20,17:00,-1.6,-10.2,52,30,33,24.1,99.23,,-9,NA,8.968
20-02-2023 18:00,2,20,18:00,-3.1,-9.8,60,32,16,24.1,99.31,,-8,NA,8.52
20-02-2023 19:00,2,20,19:00,-3.4,-13.5,46,34,23,24.1,99.41,,-10,Clear,8.679
20-02-2023 20:00,2,20,20:00,-4.2,-14.3,46,34,21,24.1,99.45,,-11,NA,8.328
20-02-2023 21:00,2,20,21:00,-5.6,-13.9,52,2,17,24.1,99.48,,-12,NA,8.195
20-02-2023 22:00,2,20,22:00,-7.7,-15.5,54,1,21,24.1,99.51,,-15,Mainly Clear,8.383
20-02-2023 23:00,2,20,23:00,-8.8,-15.1,61,3,12,24.1,99.48,,-14,NA,8.582
21-02-2023 00:00,2,21,00:00,-9.9,-16,61,5,13,24.1,99.48,,-16,NA,8.171
21-02-2023 01:00,2,21,01:00,-11.1,-16.4,65,4,15,24.1,99.45,,-18,Clear,8.438
21-02-2023 02:00,2,21,02:00,-11.2,-16.5,65,4,16,24.1,99.36,,-18,NA,8.199
21-02-2023 03:00,2,21,03:00,-11.8,-16.7,67,4,16,24.1,99.28,,-19,NA,8.674
21-02-2023 04:00,2,21,04:00,-12.1,-17,67,6,16,24.1,99.29,,-20,Mainly Clear,8.672
21-02-2023 05:00,2,21,05:00,-12.5,-16.8,70,7,16,24.1,99.25,,-20,NA,8.688
21-02-2023 06:00,2,21,06:00,-12.6,-16.5,73,6,23,24.1,99.02,,-22,NA,8.723
21-02-2023 07:00,2,21,07:00,-13.2,-17.1,73,7,19,24.1,99.01,,-22,Clear,11.311
21-02-2023 08:00,2,21,08:00,-13.3,-17.9,69,7,18,24.1,99.04,,-22,NA,11.792
21-02-2023 09:00,2,21,09:00,-12.6,-17.2,69,7,24,24.1,98.97,,-22,NA,11.258
21-02-2023 10:00,2,21,10:00,-11.7,-16.7,66,8,30,24.1,98.76,,-22,Mostly Cloudy,12.6
21-02-2023 11:00,2,21,11:00,-10.8,-15.8,67,8,23,24.1,98.68,,-19,NA,10.863
21-02-2023 12:00,2,21,12:00,-9.4,-14.7,66,9,28,24.1,98.53,,-18,NA,10.899
21-02-2023 13:00,2,21,13:00,-8.9,-14.3,66,7,22,24.1,98.4,,-17,Mostly Cloudy,10.766
21-02-2023 14:00,2,21,14:00,-9,-13.8,69,32,19,4.8,98.48,,-16,Snow,10.86
21-02-2023 15:00,2,21,15:00,-9.4,-11.2,87,36,10,12.9,98.53,,-15,Snow,10.848
21-02-2023 16:00,2,21,16:00,-9.1,-11.6,82,7,8,16.1,98.56,,-13,Snow,9.268
21-02-2023 17:00,2,21,17:00,-9.3,-11.7,83,,0,24.1,98.72,,,NA,8.105
21-02-2023 18:00,2,21,18:00,-9.8,-12,84,18,6,24.1,98.83,,-13,NA,7.961
21-02-2023 19:00,2,21,19:00,-11.9,-14.1,84,36,1,24.1,98.93,,-13,Mainly Clear,8.123
21-02-2023 20:00,2,21,20:00,-10,-11.6,88,11,4,24.1,99.06,,-12,NA,8.013
21-02-2023 21:00,2,21,21:00,-8.1,-9.9,87,34,19,16.1,99.22,,-15,NA,8.064
21-02-2023 22:00,2,21,22:00,-6.8,-8.6,87,29,11,12.9,99.43,,-12,Snow,8.086
21-02-2023 23:00,2,21,23:00,-6.6,-8.5,86,28,21,24.1,99.61,,-14,NA,8.119
22-02-2023 00:00,2,22,00:00,-8,-10.9,80,29,32,24.1,99.81,,-17,Blowing Snow,7.932
22-02-2023 01:00,2,22,01:00,-9.6,-14.2,69,30,35,24.1,100.02,,-20,Blowing Snow,8.225
22-02-2023 02:00,2,22,02:00,-10.7,-15.5,68,32,25,24.1,100.21,,-20,NA,8.227
22-02-2023 03:00,2,22,03:00,-11.4,-16.7,66,30,17,24.1,100.32,,-19,NA,8.035
22-02-2023 04:00,2,22,04:00,-11.8,-16.4,69,30,27,24.1,100.49,,-21,Mostly Cloudy,8.285
22-02-2023 05:00,2,22,05:00,-12.7,-16.8,72,31,18,24.1,100.54,,-21,NA,7.986
22-02-2023 06:00,2,22,06:00,-13.1,-17.3,71,32,14,24.1,100.63,,-20,NA,8.263
22-02-2023 07:00,2,22,07:00,-13,-17.8,67,33,16,24.1,100.74,,-21,Mainly Clear,12.399
22-02-2023 08:00,2,22,08:00,-12.8,-18,65,34,12,24.1,100.8,,-19,NA,11.664
22-02-2023 09:00,2,22,09:00,-12.1,-18.1,62,34,13,24.1,100.9,,-19,NA,10.898
22-02-2023 10:00,2,22,10:00,-11.1,-18,57,36,7,24.1,100.93,,-15,Mostly Cloudy,11.135
22-02-2023 11:00,2,22,11:00,-10.6,-17,60,36,7,24.1,100.98,,-15,NA,10.796
22-02-2023 12:00,2,22,12:00,-10,-17.1,56,18,5,24.1,101.02,,-13,NA,9.978
22-02-2023 13:00,2,22,13:00,-9.2,-17.1,53,29,5,24.1,101.05,,-12,Mostly Cloudy,10.019
22-02-2023 14:00,2,22,14:00,-8.9,-17.2,51,28,3,24.1,100.97,,-11,NA,9.707
22-02-2023 15:00,2,22,15:00,-8.9,-17.2,51,17,5,24.1,100.9,,-12,NA,9.919
22-02-2023 16:00,2,22,16:00,-8.3,-17.2,49,36,3,24.1,100.91,,-10,Mostly Cloudy,8.769
22-02-2023 17:00,2,22,17:00,-8,-16.5,51,36,7,24.1,100.93,,-12,NA,8.319
22-02-2023 18:00,2,22,18:00,-8,-16.3,52,6,8,24.1,100.88,,-12,NA,8.249
22-02-2023 19:00,2,22,19:00,-8.2,-16.4,52,5,11,24.1,100.84,,-13,Cloudy,8.283
22-02-2023 20:00,2,22,20:00,-8.5,-16,55,5,13,24.1,100.71,,-14,NA,8.212
22-02-2023 21:00,2,22,21:00,-8.4,-16.1,54,4,18,24.1,100.77,,-15,NA,8.197
22-02-2023 22:00,2,22,22:00,-8.4,-16.9,51,4,21,24.1,100.75,,-16,Cloudy,8.363
22-02-2023 23:00,2,22,23:00,-8.9,-16.1,56,5,23,9.7,100.67,,-17,Snow,8.171
23-02-2023 00:00,2,23,00:00,-9.7,-13.5,74,6,18,2.4,100.56,,-17,Snow,8.209
23-02-2023 01:00,2,23,01:00,-9.9,-11.9,86,6,25,1.6,100.42,,-19,Snow,8.062
23-02-2023 02:00,2,23,02:00,-10.3,-12.2,86,6,30,1.2,100.4,,-20,"Snow,Blowing Snow",8.366
23-02-2023 03:00,2,23,03:00,-11.3,-13.3,86,5,27,1.2,100.42,,-21,"Snow,Blowing Snow",7.934
23-02-2023 04:00,2,23,04:00,-12.1,-14.2,85,6,34,2.4,100.41,,-23,"Snow,Blowing Snow",8.269
23-02-2023 05:00,2,23,05:00,-12.2,-14.5,83,5,37,3.6,100.37,,-23,"Snow,Blowing Snow",8.239
23-02-2023 06:00,2,23,06:00,-11.8,-14.6,80,6,28,12.9,100.43,,-22,"Snow,Blowing Snow",8.033
23-02-2023 07:00,2,23,07:00,-11.9,-15.4,76,5,30,24.1,100.43,,-22,"Snow,Blowing Snow",12.099
23-02-2023 08:00,2,23,08:00,-12,-15.4,76,5,30,24.1,100.45,,-22,Blowing Snow,11.528
23-02-2023 09:00,2,23,09:00,-11.8,-15.1,76,5,27,24.1,100.42,,-21,Blowing Snow,11.793
23-02-2023 10:00,2,23,10:00,-11.3,-14.9,75,5,27,24.1,100.35,,-21,Blowing Snow,11.566
23-02-2023 11:00,2,23,11:00,-10.9,-14.9,72,6,22,24.1,100.41,,-19,NA,11.869
23-02-2023 12:00,2,23,12:00,-10.7,-14.6,74,4,27,16.1,100.38,,-20,Snow,11.72
23-02-2023 13:00,2,23,13:00,-10.4,-13.2,80,6,17,2.4,100.4,,-18,Snow,11.675
23-02-2023 14:00,2,23,14:00,-9.6,-12.9,77,5,21,6.4,100.21,,-18,Snow,10.862
23-02-2023 15:00,2,23,15:00,-9.8,-13.4,75,9,21,16.1,100.15,,-18,NA,10.634
23-02-2023 16:00,2,23,16:00,-10.7,-13.6,80,10,21,8.1,100.05,,-19,Snow,9.334
23-02-2023 17:00,2,23,17:00,-11.5,-13.9,83,9,21,6.4,99.94,,-20,Snow,8.013
23-02-2023 18:00,2,23,18:00,-11.7,-13.7,85,4,19,2.4,99.97,,-20,Snow,8.276
23-02-2023 19:00,2,23,19:00,-11.7,-13.7,85,4,18,2.4,100.07,,-20,Snow,8.065
23-02-2023 20:00,2,23,20:00,-11.9,-13.6,87,9,6,4,100.05,,-16,"Freezing Drizzle,Snow",8.42
23-02-2023 21:00,2,23,21:00,-11.8,-13.5,87,11,5,8.1,100.04,,-15,Snow,8.244
23-02-2023 22:00,2,23,22:00,-11.7,-13.6,86,10,3,16.1,100.03,,-14,Snow,8.07
23-02-2023 23:00,2,23,23:00,-11.6,-13.3,87,28,4,4.8,100.08,,-14,Snow,8.361
24-02-2023 00:00,2,24,00:00,-11.7,-13.2,89,25,9,2.4,100.16,,-17,Snow,7.97
24-02-2023 01:00,2,24,01:00,-11.5,-13,89,24,11,12.9,100.24,,-17,Snow,8.386
24-02-2023 02:00,2,24,02:00,-11.7,-13.3,88,27,11,24.1,100.36,,-18,NA,8.067
24-02-2023 03:00,2,24,03:00,-11.6,-14,82,32,17,8.1,100.47,,-19,Snow,8.404
24-02-2023 04:00,2,24,04:00,-13.5,-16.6,78,32,19,24.1,100.58,,-22,Mainly Clear,8.056
24-02-2023 05:00,2,24,05:00,-13.6,-16.9,76,33,25,24.1,100.69,,-23,NA,8.415
24-02-2023 06:00,2,24,06:00,-15.1,-18.5,76,31,21,24.1,100.88,,-25,NA,8.208
24-02-2023 07:00,2,24,07:00,-15.5,-19.2,74,32,36,24.1,101.06,,-28,Clear,11.764
24-02-2023 08:00,2,24,08:00,-15.6,-19.7,71,33,28,24.1,101.26,,-26,NA,11.861
24-02-2023 09:00,2,24,09:00,-15.4,-19.9,69,31,20,24.1,101.4,,-25,NA,11.5
24-02-2023 10:00,2,24,10:00,-14.9,-20.1,65,29,22,24.1,101.49,,-24,Mainly Clear,11.666
24-02-2023 11:00,2,24,11:00,-14.6,-20.4,62,28,25,24.1,101.56,,-25,NA,11.653
24-02-2023 12:00,2,24,12:00,-13.9,-20.6,58,28,19,24.1,101.62,,-23,NA,11.921
24-02-2023 13:00,2,24,13:00,-13.1,-20.6,54,28,28,24.1,101.71,,-23,Mainly Clear,11.492
24-02-2023 14:00,2,24,14:00,-13.5,-20.2,57,26,27,24.1,101.73,,-24,NA,11.513
24-02-2023 15:00,2,24,15:00,-13.2,-21,52,25,26,24.1,101.77,,-23,NA,11.245
24-02-2023 16:00,2,24,16:00,-13,-21.5,50,27,28,24.1,101.85,,-23,Clear,10.738
24-02-2023 17:00,2,24,17:00,-13.1,-22.4,46,27,21,24.1,101.92,,-22,NA,8.759
24-02-2023 18:00,2,24,18:00,-14.2,-22.9,49,28,14,24.1,101.97,,-22,NA,8.617
24-02-2023 19:00,2,24,19:00,-14.6,-22.9,50,29,14,24.1,102.07,,-22,Clear,8.608
24-02-2023 20:00,2,24,20:00,-15.3,-23,52,30,16,24.1,102.11,,-24,NA,8.798
24-02-2023 21:00,2,24,21:00,-17,-23.9,56,31,12,24.1,102.14,,-24,NA,8.534
24-02-2023 22:00,2,24,22:00,-19.2,-25.1,60,23,4,24.1,102.15,,-23,Clear,8.796
24-02-2023 23:00,2,24,23:00,-17.7,-24.2,57,28,7,24.1,102.15,,-23,NA,8.473
25-02-2023 00:00,2,25,00:00,-19,-24,65,29,8,24.1,102.18,,-25,NA,8.573
25-02-2023 01:00,2,25,01:00,-20.1,-24.3,70,26,4,24.1,102.25,,-24,Clear,8.635
25-02-2023 02:00,2,25,02:00,-21.1,-24.9,72,36,2,24.1,102.19,,-23,NA,8.582
25-02-2023 03:00,2,25,03:00,-20.6,-24.1,74,22,7,24.1,102.11,,-26,NA,8.718
25-02-2023 04:00,2,25,04:00,-22.6,-25.1,80,22,3,24.1,102.06,,-25,Mostly Cloudy,8.65
25-02-2023 05:00,2,25,05:00,-22.2,-24.8,80,23,3,24.1,102,,-25,NA,8.76
25-02-2023 06:00,2,25,06:00,-22.5,-25.2,79,20,5,24.1,101.93,,-27,NA,8.605
25-02-2023 07:00,2,25,07:00,-20.7,-23.8,77,36,3,24.1,101.87,,-23,Mostly Cloudy,8.914
25-02-2023 08:00,2,25,08:00,-19.6,-22.7,77,28,3,24.1,101.91,,-22,NA,8.662
25-02-2023 09:00,2,25,09:00,-17.1,-22.1,65,13,4,24.1,101.75,,-20,NA,8.7
25-02-2023 10:00,2,25,10:00,-15.2,-21.9,57,18,5,24.1,101.67,,-19,Cloudy,8.532
25-02-2023 11:00,2,25,11:00,-13.9,-22.2,50,14,7,24.1,101.53,,-19,NA,8.815
25-02-2023 12:00,2,25,12:00,-13.9,-20.2,59,11,8,2.4,101.46,,-19,Snow,8.842
25-02-2023 13:00,2,25,13:00,-14,-18.1,71,6,5,2.4,101.35,,-17,Snow,8.728
25-02-2023 14:00,2,25,14:00,-13.6,-17.5,73,7,8,3.2,101.18,,-19,Snow,8.745
25-02-2023 15:00,2,25,15:00,-13.6,-17.4,74,11,8,6.4,101.13,,-19,Snow,8.731
25-02-2023 16:00,2,25,16:00,-13.6,-17,76,8,9,16.1,101.09,,-19,Snow,8.816
25-02-2023 17:00,2,25,17:00,-14.3,-17.3,78,12,12,24.1,101.01,,-21,NA,8.625
25-02-2023 18:00,2,25,18:00,-14.9,-17.6,80,8,7,24.1,100.96,,-20,NA,8.922
25-02-2023 19:00,2,25,19:00,-16.1,-17.9,86,9,9,24.1,100.88,,-22,Clear,8.533
25-02-2023 20:00,2,25,20:00,-17.5,-19,88,11,10,24.1,100.79,,-24,NA,8.783
25-02-2023 21:00,2,25,21:00,-17.2,-18.8,88,6,8,24.1,100.73,,-23,NA,8.571
25-02-2023 22:00,2,25,22:00,-17.1,-18.7,87,9,11,24.1,100.67,,-24,Cloudy,8.614
25-02-2023 23:00,2,25,23:00,-16.7,-18.4,87,6,10,24.1,100.56,,-23,NA,8.621
26-02-2023 00:00,2,26,00:00,-16.7,-18.5,86,8,12,24.1,100.44,,-24,NA,8.7
26-02-2023 01:00,2,26,01:00,-16.3,-18,87,7,11,24.1,100.38,,-23,Cloudy,8.476
26-02-2023 02:00,2,26,02:00,-16.2,-18,86,8,10,16.1,100.28,,-23,NA,8.554
26-02-2023 03:00,2,26,03:00,-15.8,-17.6,87,8,12,9.7,100.1,,-23,Snow,8.692
26-02-2023 04:00,2,26,04:00,-15.5,-17.2,87,8,9,12.9,99.98,,-21,Snow,8.678
26-02-2023 05:00,2,26,05:00,-15.2,-16.9,87,5,10,8.1,99.92,,-21,Snow,8.622
26-02-2023 06:00,2,26,06:00,-14.3,-15.9,88,10,13,3.2,99.71,,-21,Snow,8.603
26-02-2023 07:00,2,26,07:00,-13.7,-15.4,87,9,9,2.4,99.61,,-19,Snow,8.56
26-02-2023 08:00,2,26,08:00,-12.7,-14.3,88,9,12,1.6,99.53,,-19,Snow,8.558
26-02-2023 09:00,2,26,09:00,-12,-13.6,89,9,12,1.6,99.4,,-18,Snow,8.824
26-02-2023 10:00,2,26,10:00,-11.2,-12.9,88,7,13,1.6,99.3,,-18,Snow,8.483
26-02-2023 11:00,2,26,11:00,-9.8,-12.3,82,9,13,16.1,99.26,,-16,Snow,8.855
26-02-2023 12:00,2,26,12:00,-8.7,-11.7,79,3,12,12.9,99.25,,-14,Snow,8.529
26-02-2023 13:00,2,26,13:00,-7.5,-11.2,75,36,9,16.1,99.25,,-12,Snow,8.771
26-02-2023 14:00,2,26,14:00,-6.7,-10.1,77,19,4,24.1,99.18,,-9,NA,8.457
26-02-2023 15:00,2,26,15:00,-5,-8.9,74,24,10,24.1,99.21,,-9,NA,8.605
26-02-2023 16:00,2,26,16:00,-3.5,-7.8,72,22,9,24.1,99.23,,-7,Mainly Clear,8.62
26-02-2023 17:00,2,26,17:00,-3.5,-7.4,75,26,12,24.1,99.26,,-8,NA,8.496
26-02-2023 18:00,2,26,18:00,-4.3,-6.5,85,26,16,24.1,99.36,,-10,NA,8.644
26-02-2023 19:00,2,26,19:00,-5.1,-7,87,33,13,24.1,99.45,,-10,Mainly Clear,8.45
26-02-2023 20:00,2,26,20:00,-6.7,-9.1,83,33,9,16.1,99.53,,-11,NA,8.727
26-02-2023 21:00,2,26,21:00,-5.2,-6.8,89,32,15,16.1,99.67,,-11,NA,8.722
26-02-2023 22:00,2,26,22:00,-4.8,-8.8,73,33,21,24.1,99.78,,-11,Mostly Cloudy,8.691
26-02-2023 23:00,2,26,23:00,-6.7,-12.7,63,30,27,24.1,99.87,,-15,NA,8.504
27-02-2023 00:00,2,27,00:00,-8.4,-13.8,65,30,16,24.1,99.97,,-15,NA,8.568
27-02-2023 01:00,2,27,01:00,-9.1,-13.8,69,29,17,24.1,100.04,,-16,Clear,8.467
27-02-2023 02:00,2,27,02:00,-10,-14.4,70,29,18,24.1,100.1,,-17,NA,8.689
27-02-2023 03:00,2,27,03:00,-12,-15.4,77,28,10,24.1,100.18,,-18,NA,8.532
27-02-2023 04:00,2,27,04:00,-11.8,-15,78,29,15,24.1,100.28,,-19,Clear,8.696
27-02-2023 05:00,2,27,05:00,-13.5,-15.7,84,30,16,24.1,100.36,,-21,NA,8.5
27-02-2023 06:00,2,27,06:00,-13.9,-16.1,84,32,17,24.1,100.32,,-22,NA,11.054
27-02-2023 07:00,2,27,07:00,-12.7,-14.9,84,34,12,24.1,100.29,,-19,Clear,11.85
27-02-2023 08:00,2,27,08:00,-12.2,-14.4,84,1,9,24.1,100.33,,-17,NA,12.432
27-02-2023 09:00,2,27,09:00,-9.5,-12.8,77,3,13,24.1,100.34,,-16,NA,12.389
27-02-2023 10:00,2,27,10:00,-8,-12.2,72,7,17,24.1,100.33,,-15,Mostly Cloudy,12.383
27-02-2023 11:00,2,27,11:00,-6.9,-12.5,65,8,14,24.1,100.34,,-13,NA,12.158
27-02-2023 12:00,2,27,12:00,-6,-12.6,60,17,12,24.1,100.36,,-11,NA,11.57
27-02-2023 13:00,2,27,13:00,-6.1,-12.3,62,11,10,24.1,100.17,,-11,Cloudy,11.87
27-02-2023 14:00,2,27,14:00,-5.8,-11.7,64,11,14,24.1,100.1,,-11,NA,11.934
27-02-2023 15:00,2,27,15:00,-6,-12.1,62,8,18,24.1,100,,-12,NA,11.686
27-02-2023 16:00,2,27,16:00,-5.7,-11.6,63,8,13,24.1,99.89,,-11,Cloudy,11.523
27-02-2023 17:00,2,27,17:00,-6,-12.6,60,7,20,24.1,99.81,,-13,NA,11.852
27-02-2023 18:00,2,27,18:00,-6.6,-12.5,63,6,19,24.1,99.72,,-13,NA,11.204
27-02-2023 19:00,2,27,19:00,-6.6,-12.4,64,7,21,24.1,99.61,,-14,Cloudy,11.261
27-02-2023 20:00,2,27,20:00,-6.8,-13.1,61,6,28,24.1,99.46,,-15,NA,10.377
27-02-2023 21:00,2,27,21:00,-6.8,-13.1,61,7,28,24.1,99.43,,-15,Blowing Snow,8.342
27-02-2023 22:00,2,27,22:00,-7.1,-12.5,66,8,27,24.1,99.39,,-15,Blowing Snow,8.28
27-02-2023 23:00,2,27,23:00,-7.2,-13,64,8,28,24.1,99.38,,-16,Blowing Snow,8.021
28-02-2023 00:00,2,28,00:00,-7.4,-12.9,65,7,23,24.1,99.27,,-15,Blowing Snow,8.071
28-02-2023 01:00,2,28,01:00,-7.2,-12.6,65,8,27,16.1,99.22,,-15,Cloudy,8.16
28-02-2023 02:00,2,28,02:00,-7.3,-12.2,69,8,29,12.9,99.14,,-16,Snow,8.279
28-02-2023 03:00,2,28,03:00,-7,-11.9,68,7,27,12.9,99.04,,-15,Snow,8.555
28-02-2023 04:00,2,28,04:00,-7.4,-10.4,80,7,26,12.9,98.94,,-16,Snow,8.371
28-02-2023 05:00,2,28,05:00,-7.3,-9.2,86,7,25,2.4,98.91,,-15,Snow,8.216
28-02-2023 06:00,2,28,06:00,-7,-8.3,91,6,23,2.4,98.89,,-15,Snow,9.308
28-02-2023 07:00,2,28,07:00,-6.7,-7.9,91,6,25,1.6,98.88,,-15,Snow,10.247
28-02-2023 08:00,2,28,08:00,-6,-7.3,91,8,27,1.2,98.88,,-14,"Snow,Blowing Snow",10.64
28-02-2023 09:00,2,28,09:00,-5.4,-6.8,90,8,28,2.8,98.88,,-13,"Snow,Blowing Snow",10.93
28-02-2023 10:00,2,28,10:00,-5,-6.5,89,8,32,2.8,98.86,,-13,"Snow,Blowing Snow",10.526
28-02-2023 11:00,2,28,11:00,-4.4,-5.7,91,7,22,1.2,98.87,,-11,"Snow,Blowing Snow",11.529
28-02-2023 12:00,2,28,12:00,-3.7,-5,91,7,24,2,98.81,,-11,"Snow,Blowing Snow",11.413
28-02-2023 13:00,2,28,13:00,-3.1,-4.2,92,8,19,4,98.83,,-9,Snow,11.224
28-02-2023 14:00,2,28,14:00,-2.6,-3.5,93,8,16,1.6,98.81,,-8,"Snow Showers,Snow Pellets",11.868
28-02-2023 15:00,2,28,15:00,-2.2,-3.1,94,5,4,1.6,98.93,,-4,Snow,11.941
28-02-2023 16:00,2,28,16:00,-2.1,-3,93,25,11,12.9,99.08,,-6,Snow,11.327
28-02-2023 17:00,2,28,17:00,-1.9,-3.5,89,25,16,16.1,99.25,,-7,NA,10.743
28-02-2023 18:00,2,28,18:00,-1,-4,80,25,15,24.1,99.43,,-6,NA,10.583
28-02-2023 19:00,2,28,19:00,-0.8,-3.8,80,24,13,24.1,99.55,,-5,Cloudy,11.248
28-02-2023 20:00,2,28,20:00,-0.8,-4.1,79,26,17,24.1,99.67,,-6,NA,10.927
28-02-2023 21:00,2,28,21:00,-1.2,-5.3,74,26,21,24.1,99.84,,-7,NA,9.426
28-02-2023 22:00,2,28,22:00,-1.1,-5.4,72,24,21,24.1,99.91,,-7,Mostly Cloudy,9.098
28-02-2023 23:00,2,28,23:00,-2.1,-6.1,74,22,16,24.1,99.99,,-7,NA,9.186
01-03-2023 00:00,3,1,00:00,-2.5,-6.3,75,23,15,24.1,100.08,,-7,NA,8.995
01-03-2023 01:00,3,1,01:00,-3.6,-7,77,22,8,24.1,100.15,,-7,Clear,9.289
01-03-2023 02:00,3,1,02:00,-4.1,-7.2,79,21,12,24.1,100.22,,-9,NA,9.012
01-03-2023 03:00,3,1,03:00,-3.9,-6.9,80,23,14,24.1,100.31,,-9,NA,9.261
01-03-2023 04:00,3,1,04:00,-4.6,-7.2,82,22,11,24.1,100.37,,-9,Mainly Clear,8.895
01-03-2023 05:00,3,1,05:00,-5.3,-7.2,86,22,10,24.1,100.41,,-10,NA,9.133
01-03-2023 06:00,3,1,06:00,-9.1,-10.1,93,26,4,24.1,100.44,,-11,NA,11.275
01-03-2023 07:00,3,1,07:00,-9.6,-10.8,92,21,4,24.1,100.46,,-12,Mostly Cloudy,11.295
01-03-2023 08:00,3,1,08:00,-6.6,-7.3,95,22,3,24.1,100.48,,-8,NA,12.15
01-03-2023 09:00,3,1,09:00,-4.7,-5.9,92,20,6,24.1,100.49,,-7,NA,11.773
01-03-2023 10:00,3,1,10:00,-3.6,-6.1,83,20,3,24.1,100.49,,-5,Mostly Cloudy,11.781
01-03-2023 11:00,3,1,11:00,-1.8,-5,79,13,8,24.1,100.4,,-5,NA,12.091
01-03-2023 12:00,3,1,12:00,0.3,-4.3,71,36,2,24.1,100.43,,,NA,11.277
01-03-2023 13:00,3,1,13:00,0.9,-4.2,69,9,7,24.1,100.31,,,Cloudy,11.593
01-03-2023 14:00,3,1,14:00,0.9,-4.3,68,6,21,24.1,100.11,,,NA,11.729
01-03-2023 15:00,3,1,15:00,0.9,-3.8,70,10,14,24.1,100.13,,,NA,11.494
01-03-2023 16:00,3,1,16:00,1.1,-4.1,68,13,9,24.1,100.13,,,Cloudy,11.447
01-03-2023 17:00,3,1,17:00,1.2,-4.1,68,6,10,24.1,100.09,,,NA,11.674
01-03-2023 18:00,3,1,18:00,0.6,-4.1,71,8,9,24.1,100.05,,,NA,11.393
01-03-2023 19:00,3,1,19:00,0.3,-4.1,73,7,15,24.1,99.95,,,Mostly Cloudy,10.605
01-03-2023 20:00,3,1,20:00,-0.1,-4.4,73,7,14,24.1,99.95,,-4,NA,10.556
01-03-2023 21:00,3,1,21:00,-0.5,-4.7,74,6,17,24.1,99.87,,-5,NA,8.966
01-03-2023 22:00,3,1,22:00,-1.3,-5.3,74,6,18,24.1,99.77,,-7,Mostly Cloudy,8.386
01-03-2023 23:00,3,1,23:00,-1.2,-5.2,74,6,20,24.1,99.65,,-7,NA,8.654
02-03-2023 00:00,3,2,00:00,-1,-4.8,75,6,20,24.1,99.55,,-7,NA,8.427
02-03-2023 01:00,3,2,01:00,-1,-4.3,78,5,21,24.1,99.44,,-7,Cloudy,8.005
02-03-2023 02:00,3,2,02:00,-0.9,-3.8,81,5,24,24.1,99.39,,-7,NA,8.213
02-03-2023 03:00,3,2,03:00,-0.9,-2.8,87,6,22,24.1,99.29,,-7,Freezing Rain,8.312
02-03-2023 04:00,3,2,04:00,-1.1,-2.4,91,6,22,4,99.22,,-7,"Freezing Rain,Fog",8.229
02-03-2023 05:00,3,2,05:00,-1.3,-2.4,93,5,25,6.4,99.12,,-8,"Freezing Rain,Fog",7.933
02-03-2023 06:00,3,2,06:00,-1.2,-2.3,92,4,23,9.7,99.13,,-7,"Freezing Rain,Fog",10.311
02-03-2023 07:00,3,2,07:00,-1.2,-2,94,1,14,4.8,99.16,,-6,"Snow,Fog",12.11
02-03-2023 08:00,3,2,08:00,-1.1,-1.7,96,35,16,1.6,99.18,,-6,Snow,11.818
02-03-2023 09:00,3,2,09:00,-0.8,-1.8,93,35,16,8.1,99.15,,-6,Snow,11.847
02-03-2023 10:00,3,2,10:00,-0.7,-1.8,92,35,15,4,99.14,,-5,Snow,11.426
02-03-2023 11:00,3,2,11:00,-0.3,-2.1,88,34,17,2.4,99.15,,-5,Snow,12.343
02-03-2023 12:00,3,2,12:00,-0.2,-1.7,89,33,21,3.2,99.19,,-6,Snow,11.41
02-03-2023 13:00,3,2,13:00,-0.1,-1.2,92,32,20,2.4,99.21,,-5,Snow,11.779
02-03-2023 14:00,3,2,14:00,1,-0.9,88,33,13,24.1,99.26,,,Snow,11.737
02-03-2023 15:00,3,2,15:00,2.5,-3.5,64,34,27,24.1,99.33,,,NA,11.767
02-03-2023 16:00,3,2,16:00,2.4,-3.6,65,32,28,24.1,99.43,,,Mostly Cloudy,11.658
02-03-2023 17:00,3,2,17:00,1.7,-3.5,69,32,23,24.1,99.56,,,NA,11.606
02-03-2023 18:00,3,2,18:00,0.3,-3.9,74,31,15,24.1,99.69,,,NA,11.455
02-03-2023 19:00,3,2,19:00,0.6,-3.7,73,32,16,24.1,99.81,,,Mostly Cloudy,10.625
02-03-2023 20:00,3,2,20:00,-0.5,-5.8,67,34,22,24.1,99.88,,-6,NA,10.07
02-03-2023 21:00,3,2,21:00,-2.2,-7.5,67,32,26,24.1,99.99,,-9,NA,8.9
02-03-2023 22:00,3,2,22:00,-3.3,-8.8,66,33,18,24.1,100.06,,-9,Clear,8.595
02-03-2023 23:00,3,2,23:00,-5,-10.1,68,32,23,24.1,100.13,,-12,NA,8.375
03-03-2023 00:00,3,3,00:00,-6.5,-11.6,68,31,20,24.1,100.25,,-13,NA,8.331
03-03-2023 01:00,3,3,01:00,-7.3,-12.8,65,32,17,24.1,100.34,,-14,Clear,8.2
03-03-2023 02:00,3,3,02:00,-8.3,-13.3,67,33,16,24.1,100.36,,-15,NA,8.42
03-03-2023 03:00,3,3,03:00,-9.3,-13.8,70,33,13,24.1,100.39,,-15,NA,8.314
03-03-2023 04:00,3,3,04:00,-10.5,-14.6,72,32,9,24.1,100.47,,-15,Clear,8.388
03-03-2023 05:00,3,3,05:00,-10.4,-14.7,71,34,12,24.1,100.54,,-16,NA,8.105
03-03-2023 06:00,3,3,06:00,-11.6,-15.8,72,2,11,24.1,100.54,,-18,NA,9.148
03-03-2023 07:00,3,3,07:00,-12,-15,79,2,13,24.1,100.56,,-19,Clear,12.793
03-03-2023 08:00,3,3,08:00,-10.3,-14.7,71,2,15,24.1,100.6,,-17,NA,11.884
03-03-2023 09:00,3,3,09:00,-9.2,-14.7,64,4,11,24.1,100.65,,-15,NA,11.887
03-03-2023 10:00,3,3,10:00,-7.8,-14.7,58,5,8,24.1,100.71,,-12,Mainly Clear,11.885
03-03-2023 11:00,3,3,11:00,-6.5,-13.6,58,10,13,24.1,100.7,,-12,NA,12.488
03-03-2023 12:00,3,3,12:00,-5,-12.6,56,10,8,24.1,100.65,,-9,NA,11.77
03-03-2023 13:00,3,3,13:00,-4.5,-12.9,52,9,17,24.1,100.48,,-10,Mostly Cloudy,11.745
03-03-2023 14:00,3,3,14:00,-3.6,-12,52,8,13,24.1,100.4,,-8,NA,11.883
03-03-2023 15:00,3,3,15:00,-3.3,-11.3,54,9,12,24.1,100.34,,-8,NA,10.978
03-03-2023 16:00,3,3,16:00,-3.5,-11.3,55,9,15,24.1,100.18,,-9,Mostly Cloudy,10.534
03-03-2023 17:00,3,3,17:00,-4.6,-12.2,55,6,22,24.1,100.04,,-11,NA,10.187
03-03-2023 18:00,3,3,18:00,-5.1,-12.5,57,7,17,24.1,99.95,,-11,NA,9.461
03-03-2023 19:00,3,3,19:00,-5.2,-12.3,58,6,20,24.1,99.85,,-12,Cloudy,10.14
03-03-2023 20:00,3,3,20:00,-5.6,-12.2,60,7,17,24.1,99.71,,-12,NA,10.552
03-03-2023 21:00,3,3,21:00,-5.4,-12.5,58,7,32,24.1,99.54,,-14,NA,9.022
03-03-2023 22:00,3,3,22:00,-5.3,-12.1,59,7,31,24.1,99.36,,-14,Cloudy,8.179
03-03-2023 23:00,3,3,23:00,-5.4,-12,60,7,26,24.1,99.27,,-13,NA,7.96
04-03-2023 00:00,3,4,00:00,-6.2,-10.6,72,11,21,2,99.44,,-13,Snow,8.062
04-03-2023 01:00,3,4,01:00,-7.2,-8.6,90,6,29,4.8,99.19,,-16,Snow,8.073
04-03-2023 02:00,3,4,02:00,-7,-8.2,91,5,30,1.2,99.05,,-16,Snow,8.021
04-03-2023 03:00,3,4,03:00,-6.7,-7.8,92,5,34,1.2,98.87,,-16,"Snow,Blowing Snow",8.113
04-03-2023 04:00,3,4,04:00,-5.5,-6.5,93,5,32,1,98.8,,-14,"Snow,Blowing Snow",8.066
04-03-2023 05:00,3,4,05:00,-4.3,-5.1,94,6,24,0.4,98.8,,-11,"Heavy Snow,Blowing Snow",8.054
04-03-2023 06:00,3,4,06:00,-3.8,-4.7,93,6,26,2.4,98.8,,-11,"Snow,Blowing Snow",8.147
04-03-2023 07:00,3,4,07:00,-3.5,-4.5,93,6,30,1.6,98.84,,-11,"Snow,Blowing Snow",8.099
04-03-2023 08:00,3,4,08:00,-3.1,-4.1,93,7,30,0.8,98.94,,-11,"Moderate Snow,Blowing Snow",8.12
04-03-2023 09:00,3,4,09:00,-2.3,-3.3,93,6,28,0.8,99.01,,-9,"Moderate Snow,Blowing Snow",8.081
04-03-2023 10:00,3,4,10:00,-1.5,-2.9,90,7,29,1.6,99.09,,-8,"Snow,Blowing Snow",8.037
04-03-2023 11:00,3,4,11:00,-1.3,-3.1,88,5,29,4.8,99.18,,-8,"Snow,Blowing Snow",8.002
04-03-2023 12:00,3,4,12:00,-1,-2.4,90,6,23,1.6,99.27,,-7,Snow,8.039
04-03-2023 13:00,3,4,13:00,-0.8,-2.5,88,6,23,1.6,99.38,,-7,Snow,8.06
04-03-2023 14:00,3,4,14:00,-0.6,-2.1,90,6,17,3.2,99.46,,-6,Snow,8.171
04-03-2023 15:00,3,4,15:00,-0.6,-1.5,94,5,10,1.2,99.54,,-4,Snow,8.217
04-03-2023 16:00,3,4,16:00,-0.4,-1.4,92,11,5,6.4,99.69,,-2,Snow,8.091
04-03-2023 17:00,3,4,17:00,-0.5,-1.6,92,36,3,9.7,99.78,,-1,Fog,8.069
04-03-2023 18:00,3,4,18:00,-0.4,-1.1,95,30,5,24.1,99.86,,-2,NA,8.271
04-03-2023 19:00,3,4,19:00,-0.9,-1.4,96,18,5,24.1,99.94,,-3,Mostly Cloudy,8.232
04-03-2023 20:00,3,4,20:00,-1.6,-2,97,22,7,24.1,100.01,,-4,NA,8.168
04-03-2023 21:00,3,4,21:00,-1.1,-1.4,97,21,7,24.1,100.12,,-4,NA,8.115
04-03-2023 22:00,3,4,22:00,-1.3,-1.6,97,21,4,24.1,100.17,,-3,Cloudy,8.229
04-03-2023 23:00,3,4,23:00,-1.4,-1.8,97,20,4,24.1,100.17,,-3,NA,8.066
05-03-2023 00:00,3,5,00:00,-1.8,-2.2,97,16,4,24.1,100.2,,-3,NA,8.247
05-03-2023 01:00,3,5,01:00,-1.4,-2,96,18,6,24.1,100.22,,-4,Mostly Cloudy,8.254
05-03-2023 02:00,3,5,02:00,-1.6,-2.3,95,20,5,24.1,100.25,,-3,NA,8.234
05-03-2023 03:00,3,5,03:00,-1.6,-2.2,96,19,5,24.1,100.26,,-3,NA,8.234
05-03-2023 04:00,3,5,04:00,-1.8,-2.4,96,21,5,24.1,100.3,,-4,Mostly Cloudy,8.218
05-03-2023 05:00,3,5,05:00,-1.9,-2.3,97,24,4,24.1,100.34,,-3,NA,8.111
05-03-2023 06:00,3,5,06:00,-3.2,-3.7,96,4,5,24.1,100.36,,-5,NA,8.183
05-03-2023 07:00,3,5,07:00,-2.4,-2.7,98,6,7,3.2,100.41,,-5,Fog,8.424
05-03-2023 08:00,3,5,08:00,-2.7,-3,98,6,4,3.2,100.45,,-4,Fog,8.451
05-03-2023 09:00,3,5,09:00,-1.6,-2.5,94,4,4,6.4,100.48,,-3,Fog,8.456
05-03-2023 10:00,3,5,10:00,0.2,-2.5,82,21,7,16.1,100.51,,,Cloudy,8.493
05-03-2023 11:00,3,5,11:00,1.4,-2.5,76,26,5,24.1,100.54,,,NA,8.428
05-03-2023 12:00,3,5,12:00,2.5,-2.5,70,30,8,24.1,100.54,,,NA,8.531
05-03-2023 13:00,3,5,13:00,3.5,-2.1,67,24,12,24.1,100.5,,,Mostly Cloudy,8.902
05-03-2023 14:00,3,5,14:00,4.1,-1.8,66,25,9,24.1,100.54,,,NA,8.806
05-03-2023 15:00,3,5,15:00,4.5,-2.5,60,28,20,24.1,100.56,,,NA,8.662
05-03-2023 16:00,3,5,16:00,4.3,-3,59,29,16,24.1,100.6,,,Mainly Clear,7.971
05-03-2023 17:00,3,5,17:00,4.3,-3,59,27,19,24.1,100.62,,,NA,8.36
05-03-2023 18:00,3,5,18:00,3.4,-3.2,62,27,13,24.1,100.68,,,NA,7.945
05-03-2023 19:00,3,5,19:00,2.3,-3.6,65,26,10,24.1,100.75,,,Mainly Clear,7.979
05-03-2023 20:00,3,5,20:00,1.6,-2.9,72,26,13,24.1,100.77,,,NA,7.966
05-03-2023 21:00,3,5,21:00,0.8,-3.1,75,30,10,24.1,100.81,,,NA,7.886
05-03-2023 22:00,3,5,22:00,1.7,-4.3,64,33,17,24.1,100.82,,,Clear,7.962
05-03-2023 23:00,3,5,23:00,0.4,-4.4,70,28,8,24.1,100.84,,,NA,8.049
06-03-2023 00:00,3,6,00:00,-1.6,-6.2,71,29,13,24.1,100.86,,-6,NA,7.99
06-03-2023 01:00,3,6,01:00,-3,-7.5,72,29,10,24.1,100.91,,-7,Clear,7.748
06-03-2023 02:00,3,6,02:00,-1.6,-6.6,69,29,16,24.1,100.97,,-7,NA,7.767
06-03-2023 03:00,3,6,03:00,-2.2,-6.4,73,29,16,24.1,100.96,,-7,NA,7.847
06-03-2023 04:00,3,6,04:00,-1.8,-7.3,66,32,22,24.1,100.97,,-8,Clear,7.837
06-03-2023 05:00,3,6,05:00,-3,-8.4,66,31,25,24.1,101.09,,-10,NA,7.862
06-03-2023 06:00,3,6,06:00,-3.6,-9.2,66,33,19,24.1,101.07,,-10,NA,9.606
06-03-2023 07:00,3,6,07:00,-4.3,-9.6,67,33,21,24.1,101.05,,-11,Clear,11.854
06-03-2023 08:00,3,6,08:00,-3.8,-9.4,66,32,21,24.1,101.06,,-10,NA,11.81
06-03-2023 09:00,3,6,09:00,-2.4,-8.9,61,31,22,24.1,101.07,,-9,NA,11.813
06-03-2023 10:00,3,6,10:00,-1.3,-8.4,59,29,19,24.1,101.02,,-7,Mainly Clear,11.761
06-03-2023 11:00,3,6,11:00,0.1,-7.7,56,29,22,24.1,100.97,,,NA,11.838
06-03-2023 12:00,3,6,12:00,1,-7.4,54,29,19,24.1,100.9,,,NA,11.735
06-03-2023 13:00,3,6,13:00,1.4,-7.8,51,29,26,24.1,100.81,,,Mainly Clear,11.594
06-03-2023 14:00,3,6,14:00,2.3,-6.7,52,30,22,24.1,100.65,,,NA,11.952
06-03-2023 15:00,3,6,15:00,2.9,-7.6,46,29,25,24.1,100.56,,,NA,11.427
06-03-2023 16:00,3,6,16:00,3.5,-7.7,44,30,19,24.1,100.41,,,Mostly Cloudy,11.899
06-03-2023 17:00,3,6,17:00,3.8,-11.4,32,34,22,24.1,100.41,,,NA,11.023
06-03-2023 18:00,3,6,18:00,2.4,-11.4,36,33,18,24.1,100.28,,,NA,10.091
06-03-2023 19:00,3,6,19:00,-0.5,-10,49,32,16,24.1,100.32,,-5,Mainly Clear,10.378
06-03-2023 20:00,3,6,20:00,-0.5,-10.9,45,32,21,24.1,100.3,,-6,NA,10.053
06-03-2023 21:00,3,6,21:00,-0.6,-11.6,43,33,22,24.1,100.28,,-6,NA,8.669
06-03-2023 22:00,3,6,22:00,-1,-11.4,45,33,21,24.1,100.25,,-7,Mostly Cloudy,8.597
06-03-2023 23:00,3,6,23:00,-1.7,-11.4,47,33,23,24.1,100.22,,-8,NA,8.561
07-03-2023 00:00,3,7,00:00,-2.2,-11.1,51,33,25,24.1,100.16,,-9,NA,8.57
07-03-2023 01:00,3,7,01:00,-2.4,-11.2,51,34,26,24.1,100.08,,-9,Mostly Cloudy,8.515
07-03-2023 02:00,3,7,02:00,-3.6,-10.9,57,32,28,24.1,100.01,,-11,NA,8.411
07-03-2023 03:00,3,7,03:00,-4.3,-10.8,61,32,32,24.1,99.97,,-12,NA,8.579
07-03-2023 04:00,3,7,04:00,-5,-11.1,63,32,35,24.1,99.99,,-14,Mainly Clear,8.252
07-03-2023 05:00,3,7,05:00,-5.7,-11.2,66,33,32,24.1,100.01,,-14,NA,8.231
07-03-2023 06:00,3,7,06:00,-6.4,-11.6,67,32,33,24.1,100.05,,-15,NA,10.428
07-03-2023 07:00,3,7,07:00,-6.8,-11.9,67,32,30,24.1,100.07,,-15,Mostly Cloudy,11.686
07-03-2023 08:00,3,7,08:00,-6.2,-12,64,32,30,24.1,100.09,,-15,NA,12.084
07-03-2023 09:00,3,7,09:00,-5.8,-12.1,61,34,35,24.1,100.1,,-15,NA,11.959
07-03-2023 10:00,3,7,10:00,-5.7,-12.1,61,34,41,24.1,100.11,,-15,Mostly Cloudy,12.224
07-03-2023 11:00,3,7,11:00,-5.5,-11.3,64,31,43,16.1,100.16,,-15,Snow,11.798
07-03-2023 12:00,3,7,12:00,-4.8,-10.4,65,32,39,9.7,100.2,,-14,"Snow,Blowing Snow",11.425
07-03-2023 13:00,3,7,13:00,-4.4,-10,65,31,30,16.1,100.25,,-12,Snow,12.134
07-03-2023 14:00,3,7,14:00,-4,-9.6,65,33,38,12.9,100.31,,-13,Snow,11.653
07-03-2023 15:00,3,7,15:00,-3.8,-9.8,63,32,30,16.1,100.37,,-11,Snow,11.806
07-03-2023 16:00,3,7,16:00,-3.8,-9.9,63,32,40,24.1,100.46,,-12,Blowing Snow,11.283
07-03-2023 17:00,3,7,17:00,-3.6,-9.7,63,32,29,24.1,100.56,,-11,Blowing Snow,10.498
07-03-2023 18:00,3,7,18:00,-3.3,-9.8,61,33,28,24.1,100.66,,-11,Blowing Snow,10.113
07-03-2023 19:00,3,7,19:00,-3.4,-9.3,64,33,30,24.1,100.73,,-11,Cloudy,10.195
07-03-2023 20:00,3,7,20:00,-3.6,-9.3,65,33,25,12.9,100.82,,-11,Snow Showers,9.77
07-03-2023 21:00,3,7,21:00,-3.9,-9.9,63,34,27,24.1,100.9,,-11,Snow,8.124
07-03-2023 22:00,3,7,22:00,-4.2,-10.2,63,33,24,24.1,100.97,,-11,Snow,8.211
07-03-2023 23:00,3,7,23:00,-4.6,-9.9,66,33,29,24.1,100.97,,-12,Snow,8.206
08-03-2023 00:00,3,8,00:00,-4.8,-9.8,68,33,26,24.1,101.01,,-12,NA,8.147
08-03-2023 01:00,3,8,01:00,-5,-10.4,66,34,31,24.1,101.04,,-13,Mostly Cloudy,8.184
08-03-2023 02:00,3,8,02:00,-5.2,-10.3,68,33,32,24.1,101.09,,-13,NA,8.094
08-03-2023 03:00,3,8,03:00,-5.4,-10.6,67,32,33,24.1,101.13,,-14,NA,8.162
08-03-2023 04:00,3,8,04:00,-5.7,-10.7,68,33,29,24.1,101.2,,-14,Snow,8.266
08-03-2023 05:00,3,8,05:00,-5.8,-11.2,66,33,30,24.1,101.26,,-14,NA,8.194
08-03-2023 06:00,3,8,06:00,-6.2,-11.3,67,33,31,24.1,101.32,,-15,NA,8.265
08-03-2023 07:00,3,8,07:00,-6.9,-11.7,69,32,21,24.1,101.36,,-14,Mostly Cloudy,12.142
08-03-2023 08:00,3,8,08:00,-6.3,-11.6,66,32,26,24.1,101.39,,-14,NA,12.111
08-03-2023 09:00,3,8,09:00,-6,-11.6,65,33,27,24.1,101.43,,-14,NA,12.014
08-03-2023 10:00,3,8,10:00,-5.3,-10.9,65,32,27,24.1,101.43,,-13,Mostly Cloudy,11.872
08-03-2023 11:00,3,8,11:00,-3.5,-10,61,33,25,24.1,101.43,,-10,NA,11.652
08-03-2023 12:00,3,8,12:00,-2,-9,59,31,17,24.1,101.41,,-7,NA,11.495
08-03-2023 13:00,3,8,13:00,-0.6,-8.7,55,28,21,24.1,101.37,,-6,Mostly Cloudy,11.875
08-03-2023 14:00,3,8,14:00,-0.2,-8.1,55,30,19,24.1,101.34,,-5,NA,12.012
08-03-2023 15:00,3,8,15:00,0.5,-8.2,52,33,21,24.1,101.35,,,NA,11.862
08-03-2023 16:00,3,8,16:00,0.1,-7.2,58,25,18,24.1,101.33,,,Mostly Cloudy,11.525
08-03-2023 17:00,3,8,17:00,-0.2,-7,60,25,12,24.1,101.32,,-4,NA,10.676
08-03-2023 18:00,3,8,18:00,-1.5,-7.4,64,26,13,24.1,101.32,,-6,NA,10.152
08-03-2023 19:00,3,8,19:00,-1.7,-7.3,65,28,13,24.1,101.33,,-6,Mostly Cloudy,10.351
08-03-2023 20:00,3,8,20:00,-0.7,-8,58,33,26,24.1,101.32,,-7,NA,9.95
08-03-2023 21:00,3,8,21:00,-2,-8,64,32,19,24.1,101.31,,-8,NA,8.394
08-03-2023 22:00,3,8,22:00,-2.4,-8.8,62,33,31,24.1,101.31,,-10,Mostly Cloudy,8.277
08-03-2023 23:00,3,8,23:00,-3,-8.3,67,32,35,24.1,101.28,,-11,NA,8.249
09-03-2023 00:00,3,9,00:00,-3.8,-8,72,33,30,16.1,101.29,,-11,Snow,8.174
09-03-2023 01:00,3,9,01:00,-4,-8.1,73,33,27,24.1,101.31,,-11,Snow,8.041
09-03-2023 02:00,3,9,02:00,-4.4,-7.3,80,33,23,16.1,101.29,,-11,Snow,7.999
09-03-2023 03:00,3,9,03:00,-4.4,-7.5,79,32,25,16.1,101.24,,-12,Snow,7.767
09-03-2023 04:00,3,9,04:00,-4.4,-7.7,78,32,23,24.1,101.26,,-11,Snow,7.988
09-03-2023 05:00,3,9,05:00,-4.6,-7.8,78,32,24,24.1,101.24,,-12,Snow,7.97
09-03-2023 06:00,3,9,06:00,-4.6,-9.1,71,33,24,24.1,101.22,,-12,NA,7.937
09-03-2023 07:00,3,9,07:00,-4.9,-9.7,69,33,23,24.1,101.26,,-12,Mostly Cloudy,8.522
09-03-2023 08:00,3,9,08:00,-5.2,-9.7,71,32,27,24.1,101.28,,-13,NA,12.58
09-03-2023 09:00,3,9,09:00,-5,-9.5,71,32,24,24.1,101.3,,-12,NA,11.666
09-03-2023 10:00,3,9,10:00,-3.9,-9.1,67,32,25,24.1,101.33,,-11,Mostly Cloudy,11.536
09-03-2023 11:00,3,9,11:00,-3,-8.8,64,33,16,24.1,101.3,,-8,NA,11.628
09-03-2023 12:00,3,9,12:00,-1.9,-8.3,61,31,14,24.1,101.28,,-7,NA,11.694
09-03-2023 13:00,3,9,13:00,-0.8,-8.2,58,33,21,24.1,101.27,,-6,Mostly Cloudy,11.778
09-03-2023 14:00,3,9,14:00,0.4,-7.2,57,32,20,24.1,101.24,,,NA,11.536
09-03-2023 15:00,3,9,15:00,1.1,-6.7,56,34,20,24.1,101.22,,,NA,11.608
09-03-2023 16:00,3,9,16:00,1.8,-6.7,54,35,16,24.1,101.17,,,Mostly Cloudy,11.406
09-03-2023 17:00,3,9,17:00,1.6,-5.9,58,32,15,24.1,101.15,,,NA,10.643
09-03-2023 18:00,3,9,18:00,1.1,-5.5,62,32,15,24.1,101.16,,,NA,10.496
09-03-2023 19:00,3,9,19:00,0.7,-5.6,63,32,18,24.1,101.21,,,Mostly Cloudy,10.41
09-03-2023 20:00,3,9,20:00,0.7,-5.9,62,33,23,24.1,101.2,,,NA,9.948
09-03-2023 21:00,3,9,21:00,0.1,-6.1,63,34,17,24.1,101.16,,,NA,8.266
09-03-2023 22:00,3,9,22:00,0.2,-6.1,63,34,18,24.1,101.1,,,Mostly Cloudy,8.545
09-03-2023 23:00,3,9,23:00,-0.1,-5.6,67,1,12,24.1,101,,-4,NA,8.292
10-03-2023 00:00,3,10,00:00,-0.4,-6.5,63,1,22,24.1,100.94,,-6,NA,8.352
10-03-2023 01:00,3,10,01:00,-0.8,-6.8,64,35,13,24.1,100.9,,-5,Mostly Cloudy,8.232
10-03-2023 02:00,3,10,02:00,-2.4,-7.4,68,33,14,24.1,100.93,,-7,NA,8.259
10-03-2023 03:00,3,10,03:00,-3.2,-7.9,70,33,18,24.1,100.91,,-9,NA,8.282
10-03-2023 04:00,3,10,04:00,-4.1,-8.1,74,33,18,24.1,100.89,,-10,Clear,8.321
10-03-2023 05:00,3,10,05:00,-5.9,-8.8,80,32,14,24.1,100.85,,-11,NA,8.444
10-03-2023 06:00,3,10,06:00,-4.4,-8.1,75,36,17,24.1,100.8,,-10,NA,10.024
10-03-2023 07:00,3,10,07:00,-4.4,-8.2,75,35,21,24.1,100.72,,-11,Mostly Cloudy,12.346
10-03-2023 08:00,3,10,08:00,-4.5,-8.4,74,35,18,24.1,100.7,,-11,NA,11.764
10-03-2023 09:00,3,10,09:00,-4.2,-8.1,74,1,12,24.1,100.65,,-9,NA,12.015
10-03-2023 10:00,3,10,10:00,-4.3,-8.6,72,3,11,24.1,100.6,,-9,Cloudy,11.429
10-03-2023 11:00,3,10,11:00,-4.1,-8.7,71,34,13,24.1,100.49,,-9,NA,12.066
10-03-2023 12:00,3,10,12:00,-4.3,-8.6,72,31,9,24.1,100.39,,-8,NA,11.631
10-03-2023 13:00,3,10,13:00,-3.7,-8.5,70,36,10,24.1,100.27,,-8,Mostly Cloudy,12.175
10-03-2023 14:00,3,10,14:00,-2.9,-8.5,65,5,8,24.1,100.15,,-6,NA,11.78
10-03-2023 15:00,3,10,15:00,-2.1,-8.4,62,6,5,24.1,100.04,,-4,NA,11.656
10-03-2023 16:00,3,10,16:00,-2.2,-8.5,62,7,10,24.1,99.94,,-6,Mostly Cloudy,11.521
10-03-2023 17:00,3,10,17:00,-2.4,-8.9,61,10,7,24.1,99.9,,-5,NA,11.58
10-03-2023 18:00,3,10,18:00,-3.5,-8.8,67,7,6,24.1,99.86,,-6,NA,11.218
10-03-2023 19:00,3,10,19:00,-4.1,-8.9,69,14,8,24.1,99.88,,-8,Cloudy,11.031
10-03-2023 20:00,3,10,20:00,-4.4,-8.6,72,6,7,24.1,99.85,,-8,NA,9.913
10-03-2023 21:00,3,10,21:00,-4.3,-8.3,74,3,10,24.1,99.86,,-8,NA,8.226
10-03-2023 22:00,3,10,22:00,-4.9,-8.7,75,4,14,24.1,99.87,,-10,Mostly Cloudy,8.204
10-03-2023 23:00,3,10,23:00,-4.5,-7.9,77,2,13,24.1,99.88,,-10,NA,8.135
11-03-2023 00:00,3,11,00:00,-4.2,-7.8,76,36,12,24.1,99.88,,-9,NA,8.127
11-03-2023 01:00,3,11,01:00,-4.3,-8.1,75,36,15,24.1,99.88,,-10,Mostly Cloudy,8.164
11-03-2023 02:00,3,11,02:00,-4.9,-8.5,76,1,13,24.1,99.87,,-10,NA,7.987
11-03-2023 03:00,3,11,03:00,-4.9,-8.6,75,36,11,24.1,99.89,,-9,NA,8.11
11-03-2023 04:00,3,11,04:00,-5,-8.6,76,36,12,24.1,99.92,,-10,Mostly Cloudy,8.336
11-03-2023 05:00,3,11,05:00,-4.9,-8.5,76,35,16,24.1,99.95,,-11,NA,8.061
11-03-2023 06:00,3,11,06:00,-4.9,-8.6,75,35,20,24.1,99.99,,-11,NA,8.187
11-03-2023 07:00,3,11,07:00,-5,-8.7,76,35,18,24.1,100.06,,-11,Mostly Cloudy,8.094
11-03-2023 08:00,3,11,08:00,-4.2,-8.5,72,36,24,24.1,100.13,,-11,NA,8.1
11-03-2023 09:00,3,11,09:00,-2.6,-7.7,68,36,20,24.1,100.19,,-9,NA,8.144
11-03-2023 10:00,3,11,10:00,-2,-7.6,65,36,19,24.1,100.23,,-8,Mostly Cloudy,8.121
11-03-2023 11:00,3,11,11:00,-1,-7.2,63,36,12,24.1,100.22,,-5,NA,8.08
11-03-2023 12:00,3,11,12:00,0.7,-7.2,56,35,11,24.1,100.2,,,NA,8.244
11-03-2023 13:00,3,11,13:00,1.2,-7,55,30,15,24.1,100.15,,,Mainly Clear,8.209
11-03-2023 14:00,3,11,14:00,1.9,-6.8,53,35,18,24.1,100.14,,,NA,8.179
11-03-2023 15:00,3,11,15:00,2,-5.5,58,30,13,24.1,100.13,,,NA,8.16
11-03-2023 16:00,3,11,16:00,1.9,-5.5,58,30,14,24.1,100.13,,,Mainly Clear,8.288
11-03-2023 17:00,3,11,17:00,1.7,-6.5,54,28,19,24.1,100.16,,,NA,8.089
11-03-2023 18:00,3,11,18:00,-0.3,-6.6,63,26,14,24.1,100.23,,-5,NA,8.063
11-03-2023 19:00,3,11,19:00,-1.2,-7.3,63,28,17,24.1,100.31,,-6,Clear,8.491
11-03-2023 20:00,3,11,20:00,-2.3,-7.6,67,29,13,24.1,100.36,,-7,NA,8.325
11-03-2023 21:00,3,11,21:00,-3.1,-8.1,69,29,12,24.1,100.36,,-8,NA,8.408
11-03-2023 22:00,3,11,22:00,-4.1,-8.5,72,28,8,24.1,100.36,,-8,Clear,8.093
11-03-2023 23:00,3,11,23:00,-4.7,-9.1,72,26,8,24.1,100.38,,-8,NA,7.77
12-03-2023 00:00,3,12,00:00,-4.4,-8.8,72,30,18,24.1,100.44,,-10,NA,7.642
12-03-2023 01:00,3,12,01:00,-6.3,-9.9,76,31,18,24.1,100.39,,-13,Clear,7.587
12-03-2023 02:00,3,12,02:00,-6.8,-10.2,77,30,7,24.1,100.34,,-10,NA,7.152
12-03-2023 03:00,3,12,03:00,-6.7,-9.8,79,28,8,24.1,100.32,,-11,NA,0.628
12-03-2023 04:00,3,12,04:00,-8,-10.9,79,30,9,24.1,100.4,,-13,Clear,7.716
12-03-2023 05:00,3,12,05:00,-9,-11.9,80,31,16,24.1,100.45,,-16,NA,7.707
12-03-2023 06:00,3,12,06:00,-9.4,-11.8,83,29,8,24.1,100.46,,-14,NA,7.605
12-03-2023 07:00,3,12,07:00,-8.7,-11.6,80,36,5,24.1,100.42,,-11,Mainly Clear,7.89
12-03-2023 08:00,3,12,08:00,-7,-10.1,78,31,9,24.1,100.46,,-11,NA,7.562
12-03-2023 09:00,3,12,09:00,-3.8,-8.2,72,30,6,24.1,100.53,,-6,NA,7.882
12-03-2023 10:00,3,12,10:00,-1.5,-8.3,60,9,17,24.1,100.46,,-7,Mostly Cloudy,7.842
12-03-2023 11:00,3,12,11:00,-0.1,-8.1,55,8,12,24.1,100.44,,-4,NA,7.669
12-03-2023 12:00,3,12,12:00,0.9,-7.6,53,10,9,24.1,100.41,,,NA,8.001
12-03-2023 13:00,3,12,13:00,1.7,-7.2,52,8,16,24.1,100.32,,,Mostly Cloudy,7.811
12-03-2023 14:00,3,12,14:00,1.9,-7.1,51,8,16,24.1,100.24,,,NA,7.993
12-03-2023 15:00,3,12,15:00,2.1,-6.8,52,7,12,24.1,100.21,,,NA,7.923
12-03-2023 16:00,3,12,16:00,1.8,-6.1,56,11,11,24.1,100.13,,,Cloudy,8.151
12-03-2023 17:00,3,12,17:00,1.9,-5.7,57,7,7,24.1,100.16,,,NA,7.747
12-03-2023 18:00,3,12,18:00,1.5,-6.1,57,9,8,24.1,100.17,,,NA,7.718
12-03-2023 19:00,3,12,19:00,1.1,-6,59,7,8,24.1,100.16,,,Cloudy,7.83
12-03-2023 20:00,3,12,20:00,0.3,-6,63,8,10,24.1,100.12,,,NA,7.768
12-03-2023 21:00,3,12,21:00,0.1,-6,64,9,14,24.1,100.11,,,NA,7.866
12-03-2023 22:00,3,12,22:00,0.1,-6,64,7,14,24.1,100.08,,,Cloudy,7.94
12-03-2023 23:00,3,12,23:00,-0.2,-6,65,10,13,24.1,100.05,,-4,NA,7.811
13-03-2023 00:00,3,13,00:00,-0.6,-5.9,68,9,7,24.1,100.04,,-3,NA,7.754
13-03-2023 01:00,3,13,01:00,-1,-5.6,71,5,8,24.1,100.02,,-4,Cloudy,7.922
13-03-2023 02:00,3,13,02:00,-1,-5.9,70,7,9,24.1,100,,-4,NA,7.993
13-03-2023 03:00,3,13,03:00,-1.3,-5.8,72,6,9,24.1,99.96,,-5,NA,7.783
13-03-2023 04:00,3,13,04:00,-1.5,-5.6,74,5,13,16.1,99.92,,-6,Snow,8.115
13-03-2023 05:00,3,13,05:00,-1.8,-5.7,75,5,13,16.1,99.91,,-6,Snow,8.224
13-03-2023 06:00,3,13,06:00,-1.9,-5.1,79,6,8,12.9,99.92,,-5,Snow,10.286
13-03-2023 07:00,3,13,07:00,-2.1,-4.8,82,5,16,16.1,99.9,,-7,Snow,12.033
13-03-2023 08:00,3,13,08:00,-1.8,-4.2,84,7,8,6.4,99.92,,-5,Snow,11.729
13-03-2023 09:00,3,13,09:00,-1.5,-3.6,86,8,14,6.4,99.94,,-6,Snow,12.165
13-03-2023 10:00,3,13,10:00,-1,-3.1,86,8,12,9.7,99.91,,-5,Snow,12.109
13-03-2023 11:00,3,13,11:00,-0.3,-2.6,84,8,15,12.9,99.87,,-5,Snow,11.547
13-03-2023 12:00,3,13,12:00,0.8,-1.6,84,10,14,9.7,99.85,,,Snow,11.738
13-03-2023 13:00,3,13,13:00,1.1,-0.7,88,11,16,16.1,99.8,,,Snow,11.462
13-03-2023 14:00,3,13,14:00,1.1,-0.4,90,8,11,9.7,99.77,,,Snow,11.719
13-03-2023 15:00,3,13,15:00,1.1,-0.1,91,8,13,9.7,99.74,,,"Snow,Fog",11.565
13-03-2023 16:00,3,13,16:00,0.8,0,94,10,14,3.2,99.74,,,"Snow,Fog",11.644
13-03-2023 17:00,3,13,17:00,0.8,0.1,95,9,16,4.8,99.74,,,"Snow,Fog",11.91
13-03-2023 18:00,3,13,18:00,0.5,0.1,97,9,12,3.2,99.77,,,"Snow,Fog",11.216
13-03-2023 19:00,3,13,19:00,0.3,0,98,8,9,2.4,99.77,,,"Snow,Fog",10.726
13-03-2023 20:00,3,13,20:00,0.2,0,99,7,7,1.6,99.75,,,"Snow,Fog",10.036
13-03-2023 21:00,3,13,21:00,0.1,0,99,7,7,1.6,99.76,,,"Snow,Fog",8.117
13-03-2023 22:00,3,13,22:00,-0.1,-0.2,99,5,8,1.6,99.71,,-3,"Snow,Fog",7.533
13-03-2023 23:00,3,13,23:00,-0.1,-0.1,100,3,9,1.6,99.67,,-3,"Snow,Fog",7.853
14-03-2023 00:00,3,14,00:00,0,-0.1,100,1,9,2.4,99.63,,-3,"Snow,Fog",7.434
14-03-2023 01:00,3,14,01:00,0,-0.1,100,1,10,2.4,99.58,,-3,"Snow,Fog",7.663
14-03-2023 02:00,3,14,02:00,0,0,100,1,10,2.4,99.55,,-3,"Snow,Fog",7.551
14-03-2023 03:00,3,14,03:00,0.2,0.1,100,1,13,2.4,99.5,,,"Snow,Fog",7.503
14-03-2023 04:00,3,14,04:00,0.4,0.3,100,36,11,6.4,99.49,,,"Snow,Fog",7.598
14-03-2023 05:00,3,14,05:00,0.4,0.2,99,36,12,2.4,99.48,,,"Snow,Fog",7.759
14-03-2023 06:00,3,14,06:00,0.3,0.1,99,35,17,2.4,99.48,,,"Snow,Fog",9.107
14-03-2023 07:00,3,14,07:00,0.3,0.1,98,35,16,2.4,99.5,,,"Snow,Fog",12.163
14-03-2023 08:00,3,14,08:00,0.4,0.2,98,35,17,2.8,99.49,,,"Snow,Fog",11.863
14-03-2023 09:00,3,14,09:00,0.6,0.2,98,35,18,2.4,99.48,,,"Snow,Fog",11.893
14-03-2023 10:00,3,14,10:00,1,0.5,96,35,20,4.8,99.47,,,"Snow,Fog",11.974
14-03-2023 11:00,3,14,11:00,1.3,0.7,96,36,16,6.4,99.47,,,"Rain,Snow,Fog",11.925
14-03-2023 12:00,3,14,12:00,1.7,0.8,93,35,18,8.1,99.45,,,"Rain,Snow,Fog",11.575
14-03-2023 13:00,3,14,13:00,1.4,0.5,94,3,20,8.1,99.44,,,Snow,11.622
14-03-2023 14:00,3,14,14:00,1.8,0.8,93,36,22,9.7,99.43,,,Snow,11.886
14-03-2023 15:00,3,14,15:00,0.8,0,95,33,24,2.4,99.43,,,Snow,11.403
14-03-2023 16:00,3,14,16:00,1.1,0.3,95,33,20,9.7,99.47,,,Snow,11.902
14-03-2023 17:00,3,14,17:00,0.9,-0.6,89,33,30,16.1,99.55,,,Snow,10.825
14-03-2023 18:00,3,14,18:00,0.8,-0.8,89,33,22,12.9,99.63,,,Snow,10.358
14-03-2023 19:00,3,14,19:00,0.5,-1.5,87,33,30,16.1,99.67,,,Cloudy,10.375
14-03-2023 20:00,3,14,20:00,0,-2.3,85,33,34,16.1,99.69,,-7,NA,9.827
14-03-2023 21:00,3,14,21:00,-0.2,-3.3,80,33,26,24.1,99.71,,-6,NA,7.922
14-03-2023 22:00,3,14,22:00,-0.2,-4.9,71,34,32,24.1,99.74,,-7,Cloudy,8.004
14-03-2023 23:00,3,14,23:00,-0.7,-5.3,71,33,31,24.1,99.74,,-7,NA,8.071
15-03-2023 00:00,3,15,00:00,-1.3,-6.7,67,32,38,24.1,99.74,,-9,NA,8.023
15-03-2023 01:00,3,15,01:00,-2,-7.5,67,33,32,24.1,99.75,,-9,Cloudy,7.881
15-03-2023 02:00,3,15,02:00,-2.8,-8.8,64,33,35,24.1,99.78,,-11,NA,7.946
15-03-2023 03:00,3,15,03:00,-3.8,-9.8,63,32,35,24.1,99.8,,-12,NA,7.877
15-03-2023 04:00,3,15,04:00,-4.6,-10,66,32,34,24.1,99.85,,-13,Mostly Cloudy,7.576
15-03-2023 05:00,3,15,05:00,-5.3,-10.3,68,32,29,24.1,99.92,,-13,NA,7.631
15-03-2023 06:00,3,15,06:00,-6.1,-10.7,70,32,30,24.1,99.99,,-14,NA,8.945
15-03-2023 07:00,3,15,07:00,-6.7,-11,72,31,30,24.1,100.07,,-15,Mostly Cloudy,10.36
15-03-2023 08:00,3,15,08:00,-5.7,-10.8,67,30,28,24.1,100.11,,-14,NA,10.656
15-03-2023 09:00,3,15,09:00,-3.8,-9.7,64,32,34,24.1,100.18,,-12,NA,10.904
15-03-2023 10:00,3,15,10:00,-2.6,-9.1,61,32,33,24.1,100.22,,-10,Mainly Clear,11.778
15-03-2023 11:00,3,15,11:00,-1,-8.8,56,33,30,24.1,100.2,,-8,NA,12.034
15-03-2023 12:00,3,15,12:00,0.4,-7.3,56,32,31,24.1,100.17,,,NA,11.368
15-03-2023 13:00,3,15,13:00,1.7,-7.6,50,30,25,24.1,100.14,,,Clear,11.167
15-03-2023 14:00,3,15,14:00,1.7,-9,45,28,32,24.1,100.15,,,NA,11.47
15-03-2023 15:00,3,15,15:00,1.4,-7.9,50,25,19,24.1,100.16,,,NA,11.405
15-03-2023 16:00,3,15,16:00,2.3,-8.1,46,26,16,24.1,100.15,,,Mainly Clear,11.491
15-03-2023 17:00,3,15,17:00,2.7,-10.3,38,28,26,24.1,100.17,,,NA,11.26
15-03-2023 18:00,3,15,18:00,1.4,-10.5,41,27,14,24.1,100.18,,,NA,11.082
15-03-2023 19:00,3,15,19:00,0.6,-11.2,41,28,15,24.1,100.22,,,Mainly Clear,10.261
15-03-2023 20:00,3,15,20:00,-0.2,-10.8,45,28,9,24.1,100.2,,-3,NA,10.291
15-03-2023 21:00,3,15,21:00,0,-11.6,42,26,8,24.1,100.18,,-3,NA,8.311
15-03-2023 22:00,3,15,22:00,-0.2,-9,52,30,10,24.1,100.18,,-4,Cloudy,8.465
15-03-2023 23:00,3,15,23:00,-0.4,-10.2,48,25,12,24.1,100.19,,-4,NA,8.336
16-03-2023 00:00,3,16,00:00,0.1,-12.2,39,21,5,24.1,100.17,,,NA,8.271
16-03-2023 01:00,3,16,01:00,-0.4,-9.4,51,26,12,24.1,100.15,,-4,Cloudy,8.478
16-03-2023 02:00,3,16,02:00,0.5,-11.1,42,29,14,24.1,100.14,,,NA,8.258
16-03-2023 03:00,3,16,03:00,-0.3,-7,61,30,33,24.1,100.17,,-7,NA,8.036
16-03-2023 04:00,3,16,04:00,-0.5,-6.4,64,25,15,24.1,100.11,,-5,Cloudy,8.353
16-03-2023 05:00,3,16,05:00,-0.4,-6.2,65,24,8,24.1,100.08,,-3,NA,8.284
16-03-2023 06:00,3,16,06:00,-0.5,-6.3,65,21,4,24.1,100.09,,-2,NA,8.236
16-03-2023 07:00,3,16,07:00,-0.5,-6.1,66,19,10,24.1,100.05,,-4,Cloudy,8.234
16-03-2023 08:00,3,16,08:00,0.4,-6.9,58,22,11,24.1,100.05,,,NA,11.044
16-03-2023 09:00,3,16,09:00,1.1,-6.9,55,22,10,24.1,100.03,,,NA,11.895
16-03-2023 10:00,3,16,10:00,1.3,-6,58,24,15,16.1,100.05,,,Snow,12.208
16-03-2023 11:00,3,16,11:00,-0.6,-1.8,91,26,14,1.2,100.04,,-5,Snow,12.158
16-03-2023 12:00,3,16,12:00,-0.4,-1.6,92,23,14,1.2,100.02,,-5,Snow,11.832
16-03-2023 13:00,3,16,13:00,-0.1,-1.1,92,23,14,1.6,99.97,,-4,Snow,11.474
16-03-2023 14:00,3,16,14:00,0.6,-0.6,92,21,10,8.1,99.89,,,Snow,11.532
16-03-2023 15:00,3,16,15:00,1.4,-0.4,88,21,10,24.1,99.9,,,NA,11.553
16-03-2023 16:00,3,16,16:00,2,-0.5,84,20,7,16.1,99.87,,,Cloudy,11.402
16-03-2023 17:00,3,16,17:00,1.9,-0.2,86,16,6,16.1,99.84,,,NA,10.73
16-03-2023 18:00,3,16,18:00,1.7,-0.1,88,9,6,24.1,99.8,,,NA,9.979
16-03-2023 19:00,3,16,19:00,1.4,-0.1,90,10,10,24.1,99.81,,,Cloudy,9.855
16-03-2023 20:00,3,16,20:00,1.3,-0.2,90,10,12,24.1,99.77,,,NA,10.185
16-03-2023 21:00,3,16,21:00,1,-0.2,91,10,9,24.1,99.75,,,NA,7.401
16-03-2023 22:00,3,16,22:00,0.8,-0.5,91,10,8,24.1,99.69,,,Cloudy,7.653
16-03-2023 23:00,3,16,23:00,0.7,-0.6,91,8,9,24.1,99.62,,,NA,7.57
17-03-2023 00:00,3,17,00:00,0.3,-0.7,93,7,9,24.1,99.58,,,NA,7.614
17-03-2023 01:00,3,17,01:00,0.4,-0.6,93,8,10,24.1,99.51,,,Cloudy,7.44
17-03-2023 02:00,3,17,02:00,0.4,-0.7,92,8,13,24.1,99.42,,,NA,7.176
17-03-2023 03:00,3,17,03:00,0,-0.8,94,4,11,24.1,99.35,,-4,NA,6.919
17-03-2023 04:00,3,17,04:00,-0.1,-0.7,95,4,14,16.1,99.26,,-4,Cloudy,7.343
17-03-2023 05:00,3,17,05:00,0.1,-0.7,94,6,17,16.1,99.2,,,NA,6.993
17-03-2023 06:00,3,17,06:00,0.1,-0.9,93,9,15,8.1,99.12,,,Fog,8.79
17-03-2023 07:00,3,17,07:00,0.5,-0.9,91,8,16,8.1,98.97,,,Fog,10.461
17-03-2023 08:00,3,17,08:00,0.8,-1.1,87,12,18,8.1,98.94,,,Fog,10.296
17-03-2023 09:00,3,17,09:00,1.4,-1.1,83,10,18,8.1,98.78,,,"Rain,Fog",10.725
17-03-2023 10:00,3,17,10:00,1.4,-0.5,87,9,15,6.4,98.65,,,"Rain,Fog",10.602
17-03-2023 11:00,3,17,11:00,1.3,0.1,92,9,18,6.4,98.49,,,"Rain,Fog",11.038
17-03-2023 12:00,3,17,12:00,1.6,0.6,93,9,22,6.4,98.4,,,"Rain,Fog",10.777
17-03-2023 13:00,3,17,13:00,1.6,0.9,95,10,15,6.4,98.27,,,"Rain,Fog",12.078
17-03-2023 14:00,3,17,14:00,1.6,1.2,97,10,15,3.2,98.16,,,"Rain,Fog",11.298
17-03-2023 15:00,3,17,15:00,2.1,1.8,98,11,19,1.6,98.11,,,"Rain,Fog",10.934
17-03-2023 16:00,3,17,16:00,2.4,2.3,99,13,13,1.2,98.04,,,"Rain,Fog",10.233
17-03-2023 17:00,3,17,17:00,4.7,4.6,100,19,13,1.2,98.02,,,"Rain,Fog",10.45
17-03-2023 18:00,3,17,18:00,4.8,4.8,100,20,16,4,98.04,,,"Drizzle,Fog",10.845
17-03-2023 19:00,3,17,19:00,4.8,4.7,100,21,19,16.1,98.11,,,Cloudy,10.322
17-03-2023 20:00,3,17,20:00,4.7,4.5,98,23,18,16.1,98.2,,,Rain,10.215
17-03-2023 21:00,3,17,21:00,3.7,3.3,97,25,16,24.1,98.3,,,NA,8.631
17-03-2023 22:00,3,17,22:00,3.1,1,86,24,27,24.1,98.44,,,Mostly Cloudy,8.663
17-03-2023 23:00,3,17,23:00,2.2,-0.2,85,24,26,24.1,98.59,,,NA,8.557
18-03-2023 00:00,3,18,00:00,1.4,-1.4,82,25,22,16.1,98.74,,,Snow,8.349
18-03-2023 01:00,3,18,01:00,1.1,-2.5,77,23,27,24.1,98.83,,,Cloudy,8.386
18-03-2023 02:00,3,18,02:00,0.4,-4.1,71,25,21,24.1,98.94,,,NA,8.485
18-03-2023 03:00,3,18,03:00,0.1,-4.5,71,25,19,24.1,98.99,,,NA,8.303
18-03-2023 04:00,3,18,04:00,0.2,-6.2,62,27,31,24.1,98.99,,,Cloudy,8.358
18-03-2023 05:00,3,18,05:00,-0.2,-6.2,64,27,19,24.1,99.08,,-5,NA,8.327
18-03-2023 06:00,3,18,06:00,-0.5,-6,66,22,5,24.1,99.11,,-2,NA,8.442
18-03-2023 07:00,3,18,07:00,-0.3,-5.7,67,21,11,24.1,99.16,,-4,Mostly Cloudy,8.361
18-03-2023 08:00,3,18,08:00,0,-5.8,65,20,16,24.1,99.17,,-5,NA,8.231
18-03-2023 09:00,3,18,09:00,0.6,-5.5,63,23,19,24.1,99.14,,,NA,8.212
18-03-2023 10:00,3,18,10:00,0.7,-6.5,59,21,20,24.1,99.11,,,Mostly Cloudy,8.246
18-03-2023 11:00,3,18,11:00,1.8,-7.9,48,22,19,24.1,99.08,,,NA,8.271
18-03-2023 12:00,3,18,12:00,2.5,-9.4,41,22,19,24.1,99.03,,,NA,8.642
18-03-2023 13:00,3,18,13:00,2.5,-8.2,45,24,24,24.1,98.97,,,Mostly Cloudy,8.259
18-03-2023 14:00,3,18,14:00,3,-7.7,45,19,29,24.1,98.87,,,NA,8.982
18-03-2023 15:00,3,18,15:00,0.9,-4.3,68,22,30,24.1,98.87,,,NA,9.186
18-03-2023 16:00,3,18,16:00,-0.5,-2.9,83,24,27,24.1,98.89,,-7,Mostly Cloudy,9.309
18-03-2023 17:00,3,18,17:00,0.4,-5.3,66,23,32,24.1,98.92,,,NA,9.395
18-03-2023 18:00,3,18,18:00,-0.3,-7.8,57,23,30,24.1,99,,-7,NA,9.264
18-03-2023 19:00,3,18,19:00,-1.3,-7.3,64,23,16,24.1,99.05,,-6,Mainly Clear,9.049
18-03-2023 20:00,3,18,20:00,-2.4,-6.6,73,23,22,24.1,99.07,,-9,NA,8.452
18-03-2023 21:00,3,18,21:00,-2.4,-7.1,70,24,31,24.1,99.1,,-10,NA,8.485
18-03-2023 22:00,3,18,22:00,-4.2,-7.5,78,26,16,24.1,99.13,,-10,Mostly Cloudy,8.351
18-03-2023 23:00,3,18,23:00,-5.2,-8.9,75,23,24,24.1,99.16,,-12,NA,8.542
19-03-2023 00:00,3,19,00:00,-5.9,-12.3,61,24,26,24.1,99.21,,-14,NA,8.48
19-03-2023 01:00,3,19,01:00,-6.6,-12.3,64,23,20,24.1,99.26,,-14,Mainly Clear,8.416
19-03-2023 02:00,3,19,02:00,-6.7,-12.9,62,22,21,24.1,99.23,,-14,NA,8.202
19-03-2023 03:00,3,19,03:00,-7,-12.8,64,23,21,24.1,99.18,,-14,NA,8.282
19-03-2023 04:00,3,19,04:00,-6.9,-12.3,66,23,22,24.1,99.15,,-14,Mostly Cloudy,8.46
19-03-2023 05:00,3,19,05:00,-6.6,-11.7,67,23,23,12.9,99.15,,-14,Snow Showers,8.09
19-03-2023 06:00,3,19,06:00,-7,-11.7,69,24,23,24.1,99.2,,-15,NA,8.237
19-03-2023 07:00,3,19,07:00,-7.1,-12.9,64,26,32,24.1,99.3,,-16,Mostly Cloudy,8.45
19-03-2023 08:00,3,19,08:00,-8.5,-14.3,63,29,40,24.1,99.46,,-19,Blowing Snow,8.225
19-03-2023 09:00,3,19,09:00,-8.7,-16.8,52,28,43,24.1,99.56,,-19,Blowing Snow,8.231
19-03-2023 10:00,3,19,10:00,-8.3,-15.6,56,28,32,24.1,99.68,,-18,Blowing Snow,8.496
19-03-2023 11:00,3,19,11:00,-7.7,-15.9,52,26,36,24.1,99.76,,-17,NA,8.379
19-03-2023 12:00,3,19,12:00,-7.4,-15.4,53,27,35,24.1,99.85,,-17,NA,8.338
19-03-2023 13:00,3,19,13:00,-7.3,-17.1,46,27,36,24.1,99.89,,-17,Mainly Clear,8.313
19-03-2023 14:00,3,19,14:00,-6.2,-16.1,46,27,27,24.1,99.9,,-14,NA,8.213
19-03-2023 15:00,3,19,15:00,-5,-15.1,45,26,23,24.1,99.91,,-12,NA,8.348
19-03-2023 16:00,3,19,16:00,-4.2,-14.6,44,28,20,24.1,99.94,,-11,Mainly Clear,7.604
19-03-2023 17:00,3,19,17:00,-3.8,-14.2,44,26,21,24.1,99.97,,-10,NA,7.834
19-03-2023 18:00,3,19,18:00,-4.5,-14.7,45,24,10,24.1,100.01,,-9,NA,7.917
19-03-2023 19:00,3,19,19:00,-4.7,-15.2,44,23,7,24.1,100.06,,-8,Mostly Cloudy,7.861
19-03-2023 20:00,3,19,20:00,-5.4,-14.1,51,20,8,24.1,100.12,,-9,NA,7.867
19-03-2023 21:00,3,19,21:00,-4.3,-11.3,58,22,9,24.1,100.16,,-8,NA,8.211
19-03-2023 22:00,3,19,22:00,-4.2,-11.8,56,18,9,24.1,100.16,,-8,Mostly Cloudy,8.099
19-03-2023 23:00,3,19,23:00,-4,-10.2,62,20,13,24.1,100.12,,-9,NA,7.722
20-03-2023 00:00,3,20,00:00,-3.8,-8.9,68,22,14,24.1,100.11,,-9,NA,8.068
20-03-2023 01:00,3,20,01:00,-2.7,-8.6,64,22,21,24.1,100.12,,-9,Mostly Cloudy,7.894
20-03-2023 02:00,3,20,02:00,-2.9,-8.4,66,23,22,24.1,100.1,,-9,NA,7.832
20-03-2023 03:00,3,20,03:00,-3.2,-8.2,68,24,18,24.1,100.11,,-9,NA,7.983
20-03-2023 04:00,3,20,04:00,-3.7,-8.6,69,23,14,24.1,100.13,,-9,Clear,8.257
20-03-2023 05:00,3,20,05:00,-3.3,-8,70,23,13,24.1,100.18,,-8,NA,8.024
20-03-2023 06:00,3,20,06:00,-3.4,-8.2,69,21,14,24.1,100.18,,-8,NA,7.974
20-03-2023 07:00,3,20,07:00,-2.6,-8.2,66,22,20,24.1,100.25,,-9,Clear,8.608
20-03-2023 08:00,3,20,08:00,-1.3,-7.9,61,23,27,24.1,100.28,,-8,NA,10.901
20-03-2023 09:00,3,20,09:00,-0.2,-6.9,61,24,26,24.1,100.33,,-6,NA,12.134
20-03-2023 10:00,3,20,10:00,1,-6.2,59,24,23,24.1,100.34,,,Clear,11.969
20-03-2023 11:00,3,20,11:00,2.1,-6.2,54,22,26,24.1,100.33,,,NA,11.952
20-03-2023 12:00,3,20,12:00,3.2,-6.2,50,22,24,24.1,100.33,,,NA,11.183
20-03-2023 13:00,3,20,13:00,3.4,-6.3,49,24,27,24.1,100.34,,,Mostly Cloudy,11.134
20-03-2023 14:00,3,20,14:00,4,-6,48,23,24,24.1,100.31,,,NA,11.535
20-03-2023 15:00,3,20,15:00,4.1,-5.6,49,22,18,24.1,100.32,,,NA,11.214
20-03-2023 16:00,3,20,16:00,4.6,-5,50,22,18,24.1,100.32,,,Mostly Cloudy,11.305
20-03-2023 17:00,3,20,17:00,3.5,-4,58,21,20,24.1,100.34,,,NA,10.497
20-03-2023 18:00,3,20,18:00,3.2,-4.5,57,20,21,24.1,100.39,,,NA,10.008
20-03-2023 19:00,3,20,19:00,2.5,-3.3,65,20,18,24.1,100.46,,,Cloudy,9.25
20-03-2023 20:00,3,20,20:00,2.2,-3.1,68,22,17,24.1,100.55,,,NA,9.626
20-03-2023 21:00,3,20,21:00,1.8,-2.9,71,21,14,24.1,100.6,,,NA,7.613
20-03-2023 22:00,3,20,22:00,1.7,-2.5,73,27,13,24.1,100.62,,,Mostly Cloudy,7.293
20-03-2023 23:00,3,20,23:00,1.6,-2.6,74,24,13,24.1,100.64,,,NA,7.412
21-03-2023 00:00,3,21,00:00,1.6,-2.6,73,24,13,24.1,100.68,,,NA,7.151
21-03-2023 01:00,3,21,01:00,1.6,-2.9,72,22,6,24.1,100.68,,,Cloudy,7.05
21-03-2023 02:00,3,21,02:00,1.2,-3,74,18,5,24.1,100.66,,,NA,6.86
21-03-2023 03:00,3,21,03:00,0.7,-3.1,76,17,5,24.1,100.65,,,NA,6.918
21-03-2023 04:00,3,21,04:00,0.1,-3.4,78,15,8,24.1,100.66,,,Cloudy,6.958
21-03-2023 05:00,3,21,05:00,-1,-3.5,83,36,1,24.1,100.68,,-1,NA,7.041
21-03-2023 06:00,3,21,06:00,0,-3,80,25,3,24.1,100.73,,-1,NA,8.081
21-03-2023 07:00,3,21,07:00,0.1,-2.9,80,27,8,24.1,100.8,,,Cloudy,10.457
21-03-2023 08:00,3,21,08:00,1,-2.3,79,34,5,24.1,100.85,,,NA,10.432
21-03-2023 09:00,3,21,09:00,0.8,-2,82,34,20,24.1,100.96,,,NA,10.62
21-03-2023 10:00,3,21,10:00,1.1,-2.4,78,36,21,24.1,101.05,,,Cloudy,10.877
21-03-2023 11:00,3,21,11:00,0.5,-4.2,71,35,15,24.1,101.18,,,NA,10.89
21-03-2023 12:00,3,21,12:00,1.2,-4.4,66,35,9,24.1,101.24,,,Snow,11.371
21-03-2023 13:00,3,21,13:00,1.4,-4.2,66,28,9,24.1,101.26,,,Mostly Cloudy,11.557
21-03-2023 14:00,3,21,14:00,2.2,-5.4,57,32,7,24.1,101.27,,,NA,10.515
21-03-2023 15:00,3,21,15:00,2.7,-5.8,54,32,22,24.1,101.3,,,NA,11.733
21-03-2023 16:00,3,21,16:00,2.7,-5.7,54,30,17,24.1,101.31,,,Clear,11.521
21-03-2023 17:00,3,21,17:00,1.9,-5.4,59,27,22,24.1,101.33,,,NA,11.281
21-03-2023 18:00,3,21,18:00,1,-5.8,61,28,13,24.1,101.4,,,NA,11.523
21-03-2023 19:00,3,21,19:00,-0.4,-6.2,65,31,14,22.5,101.44,,-5,Mainly Clear,10.625
21-03-2023 20:00,3,21,20:00,0.2,-6.9,59,33,10,24.1,101.45,,,NA,9.969
21-03-2023 21:00,3,21,21:00,-1.4,-6.6,68,36,1,24.1,101.5,,-2,NA,7.668
21-03-2023 22:00,3,21,22:00,-0.9,-7,63,36,1,24.1,101.52,,-1,Cloudy,7.523
21-03-2023 23:00,3,21,23:00,-1.3,-5.9,71,2,6,24.1,101.54,,-4,NA,7.489
22-03-2023 00:00,3,22,00:00,-1.6,-6.2,71,5,14,24.1,101.57,,-6,NA,7.4
22-03-2023 01:00,3,22,01:00,-2.1,-10.9,51,6,20,24.1,101.58,,-8,Mostly Cloudy,7.447
22-03-2023 02:00,3,22,02:00,-3.3,-10.8,56,4,18,24.1,101.6,,-9,NA,7.178
22-03-2023 03:00,3,22,03:00,-4.1,-10.5,61,4,16,24.1,101.61,,-10,NA,7.555
22-03-2023 04:00,3,22,04:00,-4.8,-10.2,66,4,18,24.1,101.59,,-11,Mostly Cloudy,7.277
22-03-2023 05:00,3,22,05:00,-4.6,-11.7,58,5,16,24.1,101.61,,-10,NA,7.073
22-03-2023 06:00,3,22,06:00,-4.7,-11.7,58,6,20,24.1,101.58,,-11,NA,6.859
22-03-2023 07:00,3,22,07:00,-4.5,-11,61,6,19,24.1,101.61,,-11,Clear,10.744
22-03-2023 08:00,3,22,08:00,-3.8,-10.8,58,6,21,24.1,101.61,,-10,NA,10.164
22-03-2023 09:00,3,22,09:00,-3.3,-10.2,59,7,21,24.1,101.58,,-10,NA,10.673
22-03-2023 10:00,3,22,10:00,-2.6,-9.9,58,5,22,24.1,101.52,,-9,Clear,11.373
22-03-2023 11:00,3,22,11:00,-1.8,-9.4,56,5,21,24.1,101.46,,-8,NA,11.639
22-03-2023 12:00,3,22,12:00,-0.9,-9,54,7,23,24.1,101.34,,-7,NA,11.352
22-03-2023 13:00,3,22,13:00,-0.3,-8.9,52,5,27,24.1,101.15,,-7,Mainly Clear,11.089
22-03-2023 14:00,3,22,14:00,0.2,-8.6,52,6,19,24.1,101.01,,,NA,11.148
22-03-2023 15:00,3,22,15:00,0.2,-7.5,57,6,21,24.1,100.94,,,NA,11.474
22-03-2023 16:00,3,22,16:00,-0.1,-7.6,57,6,22,24.1,100.84,,-6,Mostly Cloudy,10.965
22-03-2023 17:00,3,22,17:00,-0.4,-7.3,59,6,18,24.1,100.8,,-5,NA,10.024
22-03-2023 18:00,3,22,18:00,-0.8,-7.1,62,7,11,24.1,100.73,,-5,NA,10.237
22-03-2023 19:00,3,22,19:00,-0.8,-6.9,63,6,10,24.1,100.72,,-4,Cloudy,10.141
22-03-2023 20:00,3,22,20:00,-0.7,-7.8,59,6,25,24.1,100.71,,-7,NA,9.53
22-03-2023 21:00,3,22,21:00,-1.1,-7.5,62,9,24,16.1,100.66,,-7,Freezing Rain,7.323
22-03-2023 22:00,3,22,22:00,-1.4,-7.2,65,8,30,16.1,100.48,,-8,Freezing Rain,7.387
22-03-2023 23:00,3,22,23:00,-1.5,-6.5,69,9,21,16.1,100.42,,-7,Freezing Rain,7.341
23-03-2023 00:00,3,23,00:00,-1.5,-5.2,76,9,13,16.1,100.34,,-6,Freezing Rain,7.358
23-03-2023 01:00,3,23,01:00,-1.5,-3.9,84,9,11,16.1,100.24,,-5,Freezing Rain,7.357
23-03-2023 02:00,3,23,02:00,-1.4,-3.8,84,8,7,16.1,100.16,,-4,Freezing Rain,7.475
23-03-2023 03:00,3,23,03:00,-1.4,-4,82,8,8,24.1,100.01,,-4,NA,7.264
23-03-2023 04:00,3,23,04:00,-1.3,-3.7,84,8,5,24.1,99.9,,-3,Cloudy,7.5
23-03-2023 05:00,3,23,05:00,-1.3,-3,88,7,14,16.1,99.78,,-6,Freezing Rain,7.426
23-03-2023 06:00,3,23,06:00,-1.3,-3.1,87,5,11,16.1,99.74,,-5,Freezing Rain,7.172
23-03-2023 07:00,3,23,07:00,-1.2,-2.6,91,11,9,12.9,99.68,,-4,Freezing Rain,10.776
23-03-2023 08:00,3,23,08:00,-0.9,-1.8,94,9,10,6.4,99.61,,-4,"Freezing Rain,Fog",10.484
23-03-2023 09:00,3,23,09:00,-0.8,-1.3,97,9,5,6.4,99.52,,-2,"Freezing Rain,Fog",10.913
23-03-2023 10:00,3,23,10:00,0,-0.3,98,5,7,4.8,99.39,,-2,"Freezing Rain,Fog",10.466
23-03-2023 11:00,3,23,11:00,0.2,-0.1,98,35,6,4,99.38,,,"Rain,Fog",11.463
23-03-2023 12:00,3,23,12:00,0.2,-0.1,97,11,4,4,99.29,,,"Rain,Fog",11.59
23-03-2023 13:00,3,23,13:00,0.5,0.2,98,12,4,3.2,99.22,,,"Rain,Fog",11.152
23-03-2023 14:00,3,23,14:00,1.3,1.1,98,36,1,3.2,99.15,,,"Rain,Fog",11.653
23-03-2023 15:00,3,23,15:00,1.9,1.5,97,26,8,6.4,99.13,,,Fog,11.808
23-03-2023 16:00,3,23,16:00,2.6,2.2,98,36,1,3.2,99.13,,,Fog,11.559
23-03-2023 17:00,3,23,17:00,2.9,2.7,99,23,4,1,99.17,,,Fog,11.341
23-03-2023 18:00,3,23,18:00,2.9,2.7,99,34,8,1.6,99.25,,,Fog,11.215
23-03-2023 19:00,3,23,19:00,2.3,2.2,99,21,9,1.2,99.29,,,Fog,10.026
23-03-2023 20:00,3,23,20:00,2.8,1.8,93,28,28,9.7,99.44,,,Fog,9.903
23-03-2023 21:00,3,23,21:00,2.8,-1.4,74,29,29,16.1,99.57,,,NA,7.695
23-03-2023 22:00,3,23,22:00,2,-2.1,74,29,16,24.1,99.66,,,Mostly Cloudy,7.816
23-03-2023 23:00,3,23,23:00,1.1,-2.9,75,27,10,24.1,99.73,,,NA,7.383
24-03-2023 00:00,3,24,00:00,1.6,-3.2,70,28,14,24.1,99.79,,,NA,7.787
24-03-2023 01:00,3,24,01:00,1.1,-2.9,75,25,9,24.1,99.86,,,Mostly Cloudy,7.369
24-03-2023 02:00,3,24,02:00,1.3,-4,68,29,19,24.1,99.91,,,NA,7.437
24-03-2023 03:00,3,24,03:00,0.8,-4.7,67,29,14,24.1,100,,,NA,7.585
24-03-2023 04:00,3,24,04:00,0.6,-5.2,65,29,17,24.1,100.01,,,Mostly Cloudy,7.451
24-03-2023 05:00,3,24,05:00,0.2,-5.2,67,29,16,24.1,100.04,,,NA,7.652
24-03-2023 06:00,3,24,06:00,-0.4,-4.5,73,31,13,24.1,100.13,,-5,NA,9.133
24-03-2023 07:00,3,24,07:00,-0.1,-6.7,61,34,19,24.1,100.24,,-5,Mostly Cloudy,11.187
24-03-2023 08:00,3,24,08:00,-0.6,-7.5,60,33,22,24.1,100.27,,-6,NA,10.747
24-03-2023 09:00,3,24,09:00,-0.4,-7.2,60,32,20,24.1,100.36,,-6,NA,10.711
24-03-2023 10:00,3,24,10:00,0.2,-6.7,60,30,13,24.1,100.34,,,Mainly Clear,11.431
24-03-2023 11:00,3,24,11:00,0.5,-7.3,56,28,16,24.1,100.39,,,NA,11.774
24-03-2023 12:00,3,24,12:00,1.1,-8,51,29,21,24.1,100.4,,,NA,11.106
24-03-2023 13:00,3,24,13:00,1.7,-7.6,50,29,21,24.1,100.42,,,Mainly Clear,11.376
24-03-2023 14:00,3,24,14:00,2.1,-7.2,50,27,21,24.1,100.41,,,NA,11.325
24-03-2023 15:00,3,24,15:00,2.1,-6.8,52,24,17,24.1,100.44,,,NA,11.305
24-03-2023 16:00,3,24,16:00,2,-6.9,52,24,18,24.1,100.42,,,Mainly Clear,11.221
24-03-2023 17:00,3,24,17:00,1.8,-6.1,56,27,16,24.1,100.49,,,NA,10.959
24-03-2023 18:00,3,24,18:00,1,-6.3,58,28,12,24.1,100.57,,,NA,10.012
24-03-2023 19:00,3,24,19:00,-0.2,-6.6,62,27,8,24.1,100.61,,-3,Clear,9.928
24-03-2023 20:00,3,24,20:00,0.1,-7.2,58,30,9,24.1,100.65,,,NA,9.523
24-03-2023 21:00,3,24,21:00,-0.4,-8.1,56,32,9,24.1,100.64,,-4,NA,7.843
24-03-2023 22:00,3,24,22:00,-1,-7.9,60,1,9,24.1,100.64,,-4,Clear,7.633
24-03-2023 23:00,3,24,23:00,-1.6,-7.8,62,2,8,24.1,100.66,,-5,NA,7.711
25-03-2023 00:00,3,25,00:00,-1.9,-8.1,63,6,9,24.1,100.57,,-5,NA,7.498
25-03-2023 01:00,3,25,01:00,-2.5,-8.1,66,7,13,24.1,100.63,,-7,Clear,7.636
25-03-2023 02:00,3,25,02:00,-2.7,-8.1,66,7,14,24.1,100.63,,-8,NA,7.429
25-03-2023 03:00,3,25,03:00,-2.7,-8,67,6,18,24.1,100.55,,-8,NA,7.526
25-03-2023 04:00,3,25,04:00,-3.7,-8,72,7,14,24.1,100.53,,-9,Mostly Cloudy,7.627
25-03-2023 05:00,3,25,05:00,-3.6,-7.7,73,6,20,24.1,100.49,,-10,NA,7.664
25-03-2023 06:00,3,25,06:00,-3.7,-7.3,76,6,21,24.1,100.47,,-10,NA,7.595
25-03-2023 07:00,3,25,07:00,-3.2,-6.8,76,6,24,24.1,100.39,,-10,Cloudy,7.575
25-03-2023 08:00,3,25,08:00,-2.5,-6.4,75,7,22,24.1,100.28,,-9,NA,7.497
25-03-2023 09:00,3,25,09:00,-1.7,-6,72,7,23,24.1,100.18,,-8,NA,7.676
25-03-2023 10:00,3,25,10:00,-0.7,-6.1,67,7,33,24.1,100.05,,-8,Cloudy,7.523
25-03-2023 11:00,3,25,11:00,-0.6,-6.4,65,8,35,24.1,99.94,,-8,NA,7.768
25-03-2023 12:00,3,25,12:00,-0.4,-5.6,68,8,35,24.1,99.7,,-7,NA,7.509
25-03-2023 13:00,3,25,13:00,-0.3,-5.1,70,8,32,24.1,99.53,,-7,Cloudy,7.516
25-03-2023 14:00,3,25,14:00,,,,,,,,,,,7.521
25-03-2023 15:00,3,25,15:00,-0.8,-1.7,94,9,36,1.2,99.19,,-8,Snow,7.572
25-03-2023 16:00,3,25,16:00,-0.4,-1.2,94,8,34,2.4,99.01,,-7,Snow,7.729
25-03-2023 17:00,3,25,17:00,0,-0.7,95,9,33,1.2,98.97,,-7,Snow,7.681
25-03-2023 18:00,3,25,18:00,0.2,-0.4,96,9,32,2.4,98.86,,,Snow,7.376
25-03-2023 19:00,3,25,19:00,0.2,-0.2,97,9,31,3.2,98.78,,,"Rain,Fog",7.539
25-03-2023 20:00,3,25,20:00,0.4,-0.1,97,8,22,11.3,98.75,,,NA,7.579
25-03-2023 21:00,3,25,21:00,0.4,0.1,97,9,18,4.8,98.68,,,"Rain,Fog",7.47
25-03-2023 22:00,3,25,22:00,0.5,0.2,98,8,19,8.1,98.58,,,"Rain,Fog",7.607
25-03-2023 23:00,3,25,23:00,0.8,0.5,98,11,16,8.1,98.6,,,"Rain,Fog",7.587
26-03-2023 00:00,3,26,00:00,2.7,1.9,94,19,22,12.9,98.52,,,Drizzle,7.442
26-03-2023 01:00,3,26,01:00,2.6,1.2,91,18,25,12.9,98.53,,,Rain,7.726
26-03-2023 02:00,3,26,02:00,2.3,0.9,91,18,21,12.9,98.51,,,NA,7.563
26-03-2023 03:00,3,26,03:00,2.4,0.5,87,19,19,12.9,98.51,,,Drizzle,7.392
26-03-2023 04:00,3,26,04:00,1.9,0.5,90,22,21,12.9,98.59,,,Rain,7.675
26-03-2023 05:00,3,26,05:00,2.1,-0.7,82,22,21,16.1,98.63,,,NA,7.501
26-03-2023 06:00,3,26,06:00,0.8,-0.4,92,21,25,3.2,98.71,,,Snow,7.69
26-03-2023 07:00,3,26,07:00,0.8,-0.2,93,21,25,3.2,98.8,,,Snow,7.357
26-03-2023 08:00,3,26,08:00,1.2,-0.6,88,22,31,9.7,98.87,,,Snow,7.539
26-03-2023 09:00,3,26,09:00,1.9,-1.6,78,23,33,24.1,98.99,,,Snow,7.796
26-03-2023 10:00,3,26,10:00,2.2,-2.1,73,24,34,24.1,99.1,,,Cloudy,7.755
26-03-2023 11:00,3,26,11:00,2.8,-2.2,70,25,29,24.1,99.19,,,NA,7.571
26-03-2023 12:00,3,26,12:00,3,-2.5,67,25,31,24.1,99.29,,,NA,7.46
26-03-2023 13:00,3,26,13:00,3.1,-2.6,66,26,39,24.1,99.39,,,Cloudy,7.535
26-03-2023 14:00,3,26,14:00,4,-3.1,60,27,39,24.1,99.48,,,NA,7.74
26-03-2023 15:00,3,26,15:00,4,-2.7,61,27,27,24.1,99.57,,,NA,7.643
26-03-2023 16:00,3,26,16:00,4.4,-2.5,61,27,26,24.1,99.66,,,Cloudy,7.789
26-03-2023 17:00,3,26,17:00,4,-2.1,64,30,22,24.1,99.79,,,NA,7.492
26-03-2023 18:00,3,26,18:00,3.7,-2.5,64,29,22,24.1,99.89,,,NA,7.668
26-03-2023 19:00,3,26,19:00,2.7,-2.5,69,29,13,24.1,100.02,,,Clear,7.808
26-03-2023 20:00,3,26,20:00,2,-2.3,73,30,15,24.1,100.1,,,NA,7.599
26-03-2023 21:00,3,26,21:00,2.3,-2.1,72,29,10,24.1,100.18,,,NA,7.627
26-03-2023 22:00,3,26,22:00,1.5,-2.2,76,22,8,24.1,100.2,,,Mostly Cloudy,7.412
26-03-2023 23:00,3,26,23:00,0.9,-2.4,78,19,7,24.1,100.18,,,NA,7.637
27-03-2023 00:00,3,27,00:00,0.4,-2.2,82,20,11,24.1,100.19,,,NA,7.602
27-03-2023 01:00,3,27,01:00,-0.5,-2.9,84,23,9,24.1,100.26,,-4,Mainly Clear,7.638
27-03-2023 02:00,3,27,02:00,-1.7,-3.2,89,28,5,24.1,100.27,,-4,NA,7.758
27-03-2023 03:00,3,27,03:00,-1.6,-4,84,24,3,24.1,100.23,,-3,NA,7.789
27-03-2023 04:00,3,27,04:00,-1.9,-3.2,91,20,7,24.1,100.3,,-5,Clear,7.712
27-03-2023 05:00,3,27,05:00,-2.6,-3.9,91,36,1,24.1,100.32,,-3,NA,7.549
27-03-2023 06:00,3,27,06:00,-2.6,-3.5,94,25,6,24.1,100.37,,-5,NA,9.498
27-03-2023 07:00,3,27,07:00,-0.5,-2.2,89,1,5,24.1,100.4,,-2,Mostly Cloudy,11.643
27-03-2023 08:00,3,27,08:00,0,-2.3,84,13,4,24.1,100.44,,-1,NA,10.909
27-03-2023 09:00,3,27,09:00,1.4,-1.6,80,36,2,24.1,100.5,,,NA,10.773
27-03-2023 10:00,3,27,10:00,3,-1.6,72,36,1,24.1,100.48,,,Mostly Cloudy,11.729
27-03-2023 11:00,3,27,11:00,4.9,-2.8,57,28,5,24.1,100.48,,,NA,11.714
27-03-2023 12:00,3,27,12:00,5.1,-4.1,51,36,3,24.1,100.44,,,NA,11.546
27-03-2023 13:00,3,27,13:00,6.1,-4.3,47,5,3,24.1,100.39,,,Mostly Cloudy,11.41
27-03-2023 14:00,3,27,14:00,5.8,-4.3,48,21,4,24.1,100.41,,,NA,11.539
27-03-2023 15:00,3,27,15:00,5.3,-2.5,57,18,14,24.1,100.4,,,NA,11.748
27-03-2023 16:00,3,27,16:00,5,-2.7,57,16,12,24.1,100.38,,,Mostly Cloudy,11.041
27-03-2023 17:00,3,27,17:00,4.9,-2.8,58,16,8,24.1,100.38,,,NA,11.333
27-03-2023 18:00,3,27,18:00,5.4,-3.5,52,36,2,24.1,100.43,,,NA,11.129
27-03-2023 19:00,3,27,19:00,5.2,-3.6,53,24,3,24.1,100.48,,,Mostly Cloudy,10.173
27-03-2023 20:00,3,27,20:00,3.9,-5.7,50,36,15,24.1,100.53,,,NA,9.839
27-03-2023 21:00,3,27,21:00,2.8,-5,57,36,17,24.1,100.61,,,NA,7.296
27-03-2023 22:00,3,27,22:00,1.4,-4.4,65,35,19,24.1,100.62,,,Clear,7.455
27-03-2023 23:00,3,27,23:00,0,-4.8,70,35,27,24.1,100.66,,-6,NA,7.598
28-03-2023 00:00,3,28,00:00,-0.9,-5.2,73,35,22,24.1,100.65,,-7,NA,7.525
28-03-2023 01:00,3,28,01:00,-2.6,-5.5,80,30,15,24.1,100.67,,-8,Clear,7.11
28-03-2023 02:00,3,28,02:00,-2.5,-5.7,78,30,11,24.1,100.7,,-7,NA,6.999
28-03-2023 03:00,3,28,03:00,-3.7,-5.9,84,30,15,24.1,100.71,,-9,NA,7.015
28-03-2023 04:00,3,28,04:00,-4.2,-6.4,84,32,16,24.1,100.72,,-10,Clear,7.036
28-03-2023 05:00,3,28,05:00,-4.2,-6.7,83,33,12,24.1,100.71,,-9,NA,7.129
28-03-2023 06:00,3,28,06:00,-5.1,-7.3,85,31,12,24.1,100.77,,-10,NA,8.706
28-03-2023 07:00,3,28,07:00,-4.2,-6.4,85,32,10,24.1,100.8,,-8,Mainly Clear,11.939
28-03-2023 08:00,3,28,08:00,-2.1,-5.7,76,33,16,24.1,100.81,,-7,NA,11.581
28-03-2023 09:00,3,28,09:00,-0.6,-5.8,68,35,11,24.1,100.84,,-4,NA,11.783
28-03-2023 10:00,3,28,10:00,0.1,-4.9,69,30,13,24.1,100.83,,,Mostly Cloudy,10.715
28-03-2023 11:00,3,28,11:00,1.1,-5.9,60,36,1,24.1,100.79,,,NA,11.741
28-03-2023 12:00,3,28,12:00,1.3,-5.8,59,26,14,24.1,100.76,,,NA,11.138
28-03-2023 13:00,3,28,13:00,1.9,-6,56,30,12,24.1,100.74,,,Mostly Cloudy,11.435
28-03-2023 14:00,3,28,14:00,2.2,-6.5,53,28,20,24.1,100.7,,,NA,10.317
28-03-2023 15:00,3,28,15:00,2,-6,56,25,17,24.1,100.67,,,NA,11.151
28-03-2023 16:00,3,28,16:00,2.3,-5.2,58,27,11,24.1,100.65,,,Mainly Clear,11.191
28-03-2023 17:00,3,28,17:00,2.4,-5.2,57,30,12,24.1,100.64,,,NA,10.313
28-03-2023 18:00,3,28,18:00,1.7,-6,57,28,14,24.1,100.66,,,NA,10.559
28-03-2023 19:00,3,28,19:00,1,-6.7,56,29,8,24.1,100.66,,,Clear,10.133
28-03-2023 20:00,3,28,20:00,-1.4,-6.9,66,21,6,24.1,100.67,,-4,NA,9.038
28-03-2023 21:00,3,28,21:00,-2.2,-7.5,67,18,4,24.1,100.65,,-4,NA,7.386
28-03-2023 22:00,3,28,22:00,-2.6,-7.2,71,8,5,24.1,100.66,,-5,Clear,7.296
28-03-2023 23:00,3,28,23:00,-1.6,-7.7,63,19,7,24.1,100.66,,-4,NA,7.33
29-03-2023 00:00,3,29,00:00,-2.9,-7.5,71,14,4,24.1,100.61,,-4,NA,7.363
29-03-2023 01:00,3,29,01:00,-4.2,-8.1,74,36,2,24.1,100.58,,-5,Mainly Clear,7.285
29-03-2023 02:00,3,29,02:00,-4.3,-7.9,76,13,9,24.1,100.54,,-8,NA,7.059
29-03-2023 03:00,3,29,03:00,-4,-5.7,88,17,7,24.1,100.52,,-7,NA,6.926
29-03-2023 04:00,3,29,04:00,-3.8,-4.4,95,16,10,0.8,100.47,,-8,Freezing Fog,7.006
29-03-2023 05:00,3,29,05:00,-4.2,-4.7,97,14,8,0.4,100.44,,-8,Freezing Fog,6.96
29-03-2023 06:00,3,29,06:00,-4.5,-5,96,13,8,0.4,100.38,,-8,Freezing Fog,8.79
29-03-2023 07:00,3,29,07:00,-4.1,-4.6,97,13,6,4.8,100.4,,-7,Fog,11.049
29-03-2023 08:00,3,29,08:00,-2.3,-2.6,98,17,11,16.1,100.34,,-6,NA,10.667
29-03-2023 09:00,3,29,09:00,0.8,0.2,96,18,16,24.1,100.25,,,NA,10.017
29-03-2023 10:00,3,29,10:00,3,-0.2,79,18,23,24.1,100.16,,,Mostly Cloudy,10.617
29-03-2023 11:00,3,29,11:00,5.2,-1,64,19,28,24.1,100.03,,,NA,10.815
29-03-2023 12:00,3,29,12:00,5.6,-2.5,56,20,28,24.1,99.91,,,NA,11.544
29-03-2023 13:00,3,29,13:00,6.6,-2.5,52,21,21,24.1,99.77,,,Mostly Cloudy,11.332
29-03-2023 14:00,3,29,14:00,7.1,-4.2,44,21,40,24.1,99.64,,,NA,11.06
29-03-2023 15:00,3,29,15:00,6.7,-3.4,48,20,40,24.1,99.48,,,NA,10.901
29-03-2023 16:00,3,29,16:00,6.4,-4.2,47,23,40,24.1,99.43,,,Mostly Cloudy,10.521
29-03-2023 17:00,3,29,17:00,2.1,0.3,88,22,27,16.1,99.52,,,"Rain,Snow",10.569
29-03-2023 18:00,3,29,18:00,-0.5,-1.4,94,28,37,1.2,99.64,,-8,Snow Showers,10.264
29-03-2023 19:00,3,29,19:00,-1,-4,80,25,22,24.1,99.67,,-7,Mostly Cloudy,10.256
29-03-2023 20:00,3,29,20:00,-1.4,-6,71,26,33,24.1,99.82,,-9,NA,9.452
29-03-2023 21:00,3,29,21:00,-2.3,-7.1,70,26,42,3.2,100,,-11,Snow Showers,7.59
29-03-2023 22:00,3,29,22:00,-3.2,-7.3,74,27,37,24.1,100.11,,-11,Mainly Clear,7.495
29-03-2023 23:00,3,29,23:00,-4.4,-10.6,62,30,32,24.1,100.31,,-12,NA,7.343
30-03-2023 00:00,3,30,00:00,-5.8,-11.1,66,30,39,24.1,100.42,,-15,NA,7.427
30-03-2023 01:00,3,30,01:00,-7,-13.5,60,30,35,24.1,100.64,,-16,Mainly Clear,7.304
30-03-2023 02:00,3,30,02:00,-7.7,-14.4,59,30,30,24.1,100.8,,-17,NA,7.093
30-03-2023 03:00,3,30,03:00,-7.8,-13.8,62,30,25,24.1,100.88,,-16,NA,6.933
30-03-2023 04:00,3,30,04:00,-8,-13.9,63,29,20,24.1,100.96,,-15,Clear,7.066
30-03-2023 05:00,3,30,05:00,-9.1,-14.1,67,26,13,24.1,101.01,,-15,NA,7.003
30-03-2023 06:00,3,30,06:00,-9.7,-14,71,24,11,24.1,101.08,,-15,NA,7.31
30-03-2023 07:00,3,30,07:00,-8.4,-13.5,67,24,15,24.1,101.16,,-15,Clear,11.462
30-03-2023 08:00,3,30,08:00,-7.1,-13,63,25,15,24.1,101.18,,-13,NA,10.263
30-03-2023 09:00,3,30,09:00,-5.6,-12.2,60,25,20,24.1,101.17,,-12,NA,10.931
30-03-2023 10:00,3,30,10:00,-4.4,-11.7,57,26,20,24.1,101.17,,-11,Mainly Clear,10.778
30-03-2023 11:00,3,30,11:00,-3.3,-13.3,46,27,29,24.1,101.17,,-11,NA,11.829
30-03-2023 12:00,3,30,12:00,-2.7,-12.8,46,25,19,24.1,101.14,,-8,NA,11.694
30-03-2023 13:00,3,30,13:00,-1.4,-11.6,46,27,23,24.1,101.09,,-7,Mainly Clear,11.557
30-03-2023 14:00,3,30,14:00,-0.2,-10.5,46,30,19,24.1,101.06,,-5,NA,11.532
30-03-2023 15:00,3,30,15:00,0.1,-10.7,44,29,21,24.1,101.01,,,NA,11.477
30-03-2023 16:00,3,30,16:00,0.1,-12.8,38,26,18,24.1,100.96,,,Clear,11.435
30-03-2023 17:00,3,30,17:00,0.3,-12.3,39,25,12,24.1,100.92,,,NA,10.46
30-03-2023 18:00,3,30,18:00,0.3,-13.6,35,27,5,24.1,100.9,,,NA,9.994
30-03-2023 19:00,3,30,19:00,-1.5,-13.1,41,13,7,24.1,100.91,,-4,Clear,9.735
30-03-2023 20:00,3,30,20:00,-1.8,-11.9,46,17,12,24.1,100.95,,-6,NA,9.455
30-03-2023 21:00,3,30,21:00,-1.8,-9.5,56,21,16,24.1,101,,-7,NA,7.553
30-03-2023 22:00,3,30,22:00,-1.8,-7.5,65,22,21,24.1,101.03,,-8,Clear,7.488
30-03-2023 23:00,3,30,23:00,-1.9,-7.1,68,23,18,24.1,101.02,,-7,NA,7.643
31-03-2023 00:00,3,31,00:00,-2.9,-7.5,71,21,8,24.1,100.99,,-6,NA,7.599
31-03-2023 01:00,3,31,01:00,-3.9,-7.9,74,17,7,24.1,101,,-7,Clear,7.432
31-03-2023 02:00,3,31,02:00,-5.2,-8.6,77,16,9,24.1,100.96,,-9,NA,7.468
31-03-2023 03:00,3,31,03:00,-4.5,-7.8,78,17,7,24.1,100.98,,-8,NA,7.522
31-03-2023 04:00,3,31,04:00,-4.8,-7.9,79,20,8,24.1,101.01,,-8,Mainly Clear,7.612
31-03-2023 05:00,3,31,05:00,-5.3,-8.1,81,18,8,24.1,101.04,,-9,NA,7.597
31-03-2023 06:00,3,31,06:00,-5.3,-7.7,83,18,7,24.1,100.99,,-9,NA,7.718
31-03-2023 07:00,3,31,07:00,-5.2,-7.4,85,16,8,24.1,100.93,,-9,Mainly Clear,12.103
31-03-2023 08:00,3,31,08:00,-2.4,-6.3,75,19,10,24.1,100.94,,-6,NA,10.859
31-03-2023 09:00,3,31,09:00,-1.2,-6.9,65,16,12,24.1,100.84,,-5,NA,10.898
31-03-2023 10:00,3,31,10:00,0.5,-7,57,16,10,24.1,100.76,,,Mostly Cloudy,10.427
31-03-2023 11:00,3,31,11:00,1.5,-6.5,55,14,13,24.1,100.64,,,NA,10.644
31-03-2023 12:00,3,31,12:00,1.6,-6.3,56,11,20,24.1,100.49,,,NA,11.198
31-03-2023 13:00,3,31,13:00,1.8,-6.4,55,13,25,24.1,100.43,,,Cloudy,10.689
31-03-2023 14:00,3,31,14:00,-0.1,-1.8,88,10,16,3.2,100.32,,-5,Snow,10.679
31-03-2023 15:00,3,31,15:00,-0.4,-1.1,95,7,17,1.2,100.18,,-5,Snow,10.355
31-03-2023 16:00,3,31,16:00,-0.2,-0.9,95,7,19,1.6,100.06,,-5,Snow,10.633
31-03-2023 17:00,3,31,17:00,-0.3,-1.1,94,9,26,2.4,99.99,,-6,Snow,9.98
31-03-2023 18:00,3,31,18:00,-0.5,-1.2,95,8,25,2.4,99.9,,-7,Snow,10.332
31-03-2023 19:00,3,31,19:00,-0.5,-1.2,95,8,28,4,99.8,,-7,Snow,10.227
31-03-2023 20:00,3,31,20:00,-0.5,-1.1,95,7,20,4.8,99.83,,-6,Snow,10.172
31-03-2023 21:00,3,31,21:00,-0.4,-0.9,97,6,19,8.1,99.74,,-6,Snow,8.356
31-03-2023 22:00,3,31,22:00,-0.3,-0.6,98,6,19,9.7,99.57,,-5,"Snow,Ice Pellets",8.252
31-03-2023 23:00,3,31,23:00,-0.1,-0.3,98,6,19,8.1,99.48,,-5,"Freezing Rain,Fog",8.117
01-04-2023 00:00,4,1,00:00,0,-0.2,98,6,17,6.4,99.35,,-5,"Freezing Rain,Fog",8.009
01-04-2023 01:00,4,1,01:00,0,-0.2,99,6,19,3.2,99.22,,-5,"Freezing Rain,Fog",8.269
01-04-2023 02:00,4,1,02:00,-0.1,-0.2,99,6,19,3.2,99.04,,-5,"Freezing Rain,Fog",8.111
01-04-2023 03:00,4,1,03:00,0,-0.2,99,6,21,4.8,98.84,,-5,"Freezing Rain,Fog",8.123
01-04-2023 04:00,4,1,04:00,0,-0.1,99,7,17,4.8,98.7,,-5,"Freezing Rain,Fog",8.082
01-04-2023 05:00,4,1,05:00,0.1,0,99,6,26,6.4,98.37,,,"Rain,Fog",8.136
01-04-2023 06:00,4,1,06:00,0.2,0.1,99,6,25,4.8,98.24,,,"Moderate Rain,Fog",8.129
01-04-2023 07:00,4,1,07:00,0.3,0.1,99,6,26,6.4,98.02,,,"Rain,Fog",8.13
01-04-2023 08:00,4,1,08:00,0.5,0.4,99,7,21,3.2,97.83,,,"Drizzle,Fog",7.83
01-04-2023 09:00,4,1,09:00,0.8,0.6,99,9,27,3.2,97.66,,,"Drizzle,Fog",7.939
01-04-2023 10:00,4,1,10:00,1.2,1,99,9,13,3.2,97.65,,,"Drizzle,Fog",8.244
01-04-2023 11:00,4,1,11:00,2.2,2.1,99,19,7,2.4,97.68,,,"Drizzle,Fog",8.024
01-04-2023 12:00,4,1,12:00,4.9,4.8,99,26,15,8.1,97.63,,,Fog,8.276
01-04-2023 13:00,4,1,13:00,8.5,6,85,27,15,16.1,97.56,,,Mainly Clear,7.862
01-04-2023 14:00,4,1,14:00,9,6.1,82,33,15,24.1,97.52,,,NA,8.389
01-04-2023 15:00,4,1,15:00,8.4,4.8,78,30,27,24.1,97.6,,,NA,8.359
01-04-2023 16:00,4,1,16:00,6.9,3,76,31,45,24.1,97.7,,,Mostly Cloudy,8.282
01-04-2023 17:00,4,1,17:00,6.7,2.3,73,30,40,24.1,97.8,,,NA,7.946
01-04-2023 18:00,4,1,18:00,4.2,0.2,75,33,35,24.1,98.03,,,NA,8.486
01-04-2023 19:00,4,1,19:00,2.6,-1,77,32,34,24.1,98.22,,,Mostly Cloudy,8.351
01-04-2023 20:00,4,1,20:00,1.9,-2,75,33,34,24.1,98.47,,,NA,8.047
01-04-2023 21:00,4,1,21:00,1.4,-2.4,76,32,31,24.1,98.67,,,NA,8.347
01-04-2023 22:00,4,1,22:00,0.8,-4,70,33,31,24.1,98.81,,,Cloudy,8.254
01-04-2023 23:00,4,1,23:00,-1,-6,69,32,37,24.1,98.97,,-8,NA,8.068
02-04-2023 00:00,4,2,00:00,-3.1,-9.6,61,32,40,24.1,99.2,,-12,NA,8.085
02-04-2023 01:00,4,2,01:00,-4.7,-12,57,32,35,24.1,99.46,,-13,Clear,8.043
02-04-2023 02:00,4,2,02:00,-5.8,-13.3,55,32,26,24.1,99.66,,-14,NA,7.981
02-04-2023 03:00,4,2,03:00,-7,-14.7,55,31,23,24.1,99.81,,-15,NA,8.028
02-04-2023 04:00,4,2,04:00,-8.4,-15.8,56,31,27,24.1,99.98,,-17,Clear,8.057
02-04-2023 05:00,4,2,05:00,-9.1,-17.1,53,31,26,24.1,100.14,,-18,NA,8.117
02-04-2023 06:00,4,2,06:00,-9.3,-17.3,53,33,23,24.1,100.31,,-18,NA,8.095
02-04-2023 07:00,4,2,07:00,-9,-17.1,52,30,17,24.1,100.44,,-16,Clear,7.981
02-04-2023 08:00,4,2,08:00,-8.2,-16.9,50,32,20,24.1,100.51,,-16,NA,7.957
02-04-2023 09:00,4,2,09:00,-8,-16.9,49,28,19,24.1,100.6,,-15,NA,8.1
02-04-2023 10:00,4,2,10:00,-6.6,-16.1,47,29,22,24.1,100.63,,-14,Clear,7.957
02-04-2023 11:00,4,2,11:00,-5.4,-15.2,46,28,19,24.1,100.64,,-12,NA,8.094
02-04-2023 12:00,4,2,12:00,-4,-13.4,48,30,20,24.1,100.59,,-10,NA,8.112
02-04-2023 13:00,4,2,13:00,-2.9,-12.7,47,29,15,24.1,100.55,,-8,Clear,7.816
02-04-2023 14:00,4,2,14:00,-2.2,-12.2,47,25,13,24.1,100.53,,-7,NA,8.018
02-04-2023 15:00,4,2,15:00,-1.4,-11.3,47,24,13,24.1,100.48,,-6,NA,7.998
02-04-2023 16:00,4,2,16:00,-0.3,-11.8,42,24,11,24.1,100.43,,-4,Mainly Clear,7.957
02-04-2023 17:00,4,2,17:00,0.4,-12.6,37,36,2,24.1,100.38,,,NA,7.822
02-04-2023 18:00,4,2,18:00,-0.4,-9.8,49,14,9,24.1,100.36,,-4,NA,7.588
02-04-2023 19:00,4,2,19:00,-1.9,-9.8,55,13,9,24.1,100.36,,-5,Mainly Clear,7.573
02-04-2023 20:00,4,2,20:00,-1.5,-9.8,53,18,13,24.1,100.4,,-6,NA,7.797
02-04-2023 21:00,4,2,21:00,-1.1,-8.1,59,20,18,24.1,100.39,,-6,NA,7.707
02-04-2023 22:00,4,2,22:00,-1.6,-7.1,66,20,19,24.1,100.35,,-7,Mostly Cloudy,7.698
02-04-2023 23:00,4,2,23:00,-1.9,-6.4,71,20,14,24.1,100.32,,-7,NA,7.85
03-04-2023 00:00,4,3,00:00,-1.9,-6.4,71,20,15,24.1,100.32,,-7,NA,7.566
03-04-2023 01:00,4,3,01:00,-2.1,-6.7,71,19,9,24.1,100.28,,-6,Mostly Cloudy,7.503
03-04-2023 02:00,4,3,02:00,-2.5,-6.7,73,14,7,24.1,100.21,,-5,NA,7.636
03-04-2023 03:00,4,3,03:00,-2.6,-6.7,73,12,9,24.1,100.19,,-6,NA,7.73
03-04-2023 04:00,4,3,04:00,-2.7,-7.1,72,16,8,24.1,100.19,,-6,Cloudy,7.65
03-04-2023 05:00,4,3,05:00,-2.6,-6.5,74,36,3,16.1,100.21,,-4,NA,7.671
03-04-2023 06:00,4,3,06:00,-3,-5.4,84,10,7,4.8,100.16,,-6,Snow,9.132
03-04-2023 07:00,4,3,07:00,-3,-4.5,89,11,28,16.1,99.9,,-10,Snow,9.127
03-04-2023 08:00,4,3,08:00,0,-7.1,59,13,27,24.1,99.74,,-6,NA,11.986
03-04-2023 09:00,4,3,09:00,1,-5.6,62,13,16,24.1,99.66,,,NA,11.973
03-04-2023 10:00,4,3,10:00,3,-6.4,50,16,18,24.1,99.41,,,Mostly Cloudy,11.074
03-04-2023 11:00,4,3,11:00,4.3,-6,47,21,8,24.1,99.36,,,NA,11.088
03-04-2023 12:00,4,3,12:00,4.9,-4.8,50,21,12,24.1,99.35,,,NA,10.678
03-04-2023 13:00,4,3,13:00,6.7,-2.5,52,22,18,24.1,99.34,,,Mostly Cloudy,10.701
03-04-2023 14:00,4,3,14:00,7.1,-1.7,53,22,18,24.1,99.33,,,NA,10.748
03-04-2023 15:00,4,3,15:00,7.3,-0.4,58,23,21,24.1,99.41,,,NA,10.504
03-04-2023 16:00,4,3,16:00,7.6,0.1,59,22,21,24.1,99.42,,,Mostly Cloudy,10.583
03-04-2023 17:00,4,3,17:00,8.2,0.1,56,23,19,24.1,99.47,,,NA,10.099
03-04-2023 18:00,4,3,18:00,7.5,0.2,60,26,13,24.1,99.6,,,NA,10.477
03-04-2023 19:00,4,3,19:00,6.7,0,62,22,8,24.1,99.68,,,Clear,10.148
03-04-2023 20:00,4,3,20:00,6.1,-0.6,62,23,11,24.1,99.79,,,NA,9.867
03-04-2023 21:00,4,3,21:00,4.9,-1.1,65,27,10,24.1,99.86,,,NA,7.71
03-04-2023 22:00,4,3,22:00,4.5,-1.6,65,22,11,24.1,99.97,,,Mostly Cloudy,7.774
03-04-2023 23:00,4,3,23:00,4.3,-1.4,66,24,9,24.1,100.05,,,NA,7.436
04-04-2023 00:00,4,4,00:00,4.3,-0.9,69,34,21,24.1,100.08,,,NA,7.439
04-04-2023 01:00,4,4,01:00,2.7,-0.8,78,33,12,24.1,100.12,,,Mostly Cloudy,7.556
04-04-2023 02:00,4,4,02:00,3,-0.6,77,35,9,24.1,100.17,,,NA,7.54
04-04-2023 03:00,4,4,03:00,2.3,-0.8,80,35,12,24.1,100.19,,,NA,7.175
04-04-2023 04:00,4,4,04:00,0.6,-1.4,87,36,4,24.1,100.2,,,Mostly Cloudy,7.435
04-04-2023 05:00,4,4,05:00,-0.1,-1.9,88,1,10,24.1,100.32,,-3,NA,7.277
04-04-2023 06:00,4,4,06:00,0.6,-1.4,86,1,8,24.1,100.47,,,NA,7.524
04-04-2023 07:00,4,4,07:00,1.2,-1.2,84,36,13,24.1,100.53,,,Mainly Clear,10.564
04-04-2023 08:00,4,4,08:00,2.7,-1,76,3,17,24.1,100.56,,,NA,11.496
04-04-2023 09:00,4,4,09:00,3.7,-0.9,72,1,16,24.1,100.6,,,NA,10.885
04-04-2023 10:00,4,4,10:00,4.5,-1.2,66,2,10,24.1,100.66,,,Mainly Clear,11.017
04-04-2023 11:00,4,4,11:00,5.8,-1.5,59,2,16,24.1,100.65,,,NA,11.108
04-04-2023 12:00,4,4,12:00,7,-1.5,55,36,17,24.1,100.71,,,NA,10.425
04-04-2023 13:00,4,4,13:00,7.1,-0.9,56,3,16,24.1,100.78,,,Mostly Cloudy,11.028
04-04-2023 14:00,4,4,14:00,7.5,-1.4,53,35,14,24.1,100.82,,,NA,10.725
04-04-2023 15:00,4,4,15:00,7.6,-1.7,52,1,20,24.1,100.82,,,NA,10.649
04-04-2023 16:00,4,4,16:00,8.1,-2.2,48,1,19,24.1,100.9,,,Mostly Cloudy,10.837
04-04-2023 17:00,4,4,17:00,7.5,-2.8,48,36,18,24.1,100.97,,,NA,10.477
04-04-2023 18:00,4,4,18:00,6.2,-3.3,51,3,21,24.1,101.04,,,NA,10.222
04-04-2023 19:00,4,4,19:00,3,-3.1,64,3,13,24.1,101.16,,,Mostly Cloudy,9.754
04-04-2023 20:00,4,4,20:00,3,-3.4,63,2,16,24.1,101.29,,,NA,9.178
04-04-2023 21:00,4,4,21:00,2.5,-4.8,58,3,18,24.1,101.29,,,NA,7.531
04-04-2023 22:00,4,4,22:00,1.8,-6.6,54,4,26,24.1,101.23,,,Mostly Cloudy,7.353
04-04-2023 23:00,4,4,23:00,0.9,-7.3,54,5,27,24.1,101.22,,,NA,7.445
05-04-2023 00:00,4,5,00:00,0.6,-6.8,58,6,19,24.1,101.31,,,NA,7.374
05-04-2023 01:00,4,5,01:00,0.7,-9.2,48,6,32,24.1,101.35,,,Cloudy,7.36
05-04-2023 02:00,4,5,02:00,0,-9.9,48,8,37,24.1,101.29,,-7,NA,7.359
05-04-2023 03:00,4,5,03:00,-0.6,-10.2,48,6,31,24.1,101.36,,-7,NA,7.109
05-04-2023 04:00,4,5,04:00,-1.6,-10.7,50,6,40,24.1,101.25,,-10,Cloudy,7.248
05-04-2023 05:00,4,5,05:00,-2.1,-10.5,53,7,39,24.1,101.12,,-10,NA,7.015
05-04-2023 06:00,4,5,06:00,-2.2,-10.6,53,7,27,24.1,101.15,,-9,NA,7.128
05-04-2023 07:00,4,5,07:00,-2.5,-10.1,56,8,40,24.1,100.89,,-11,Cloudy,10.563
05-04-2023 08:00,4,5,08:00,-2.6,-5.2,83,7,33,12.9,100.96,,-10,Freezing Rain,9.966
05-04-2023 09:00,4,5,09:00,-2.8,-4.6,87,8,43,16.1,100.57,,-11,Freezing Rain,10.026
05-04-2023 10:00,4,5,10:00,-2.4,-3.8,91,7,33,9.7,100.62,,-10,"Freezing Rain,Ice Pellets,Fog",10.028
05-04-2023 11:00,4,5,11:00,-2.1,-3.1,93,10,33,9.7,100.46,,-10,"Freezing Rain,Ice Pellets,Fog",10.826
05-04-2023 12:00,4,5,12:00,-1.4,-2.4,93,5,14,9.7,100.65,,-6,"Thunderstorms,Freezing Rain,Fog",10.54
05-04-2023 13:00,4,5,13:00,-0.7,-1.4,95,8,36,9.7,100.26,,-8,"Thunderstorms,Freezing Rain,Fog",10.816
05-04-2023 14:00,4,5,14:00,-0.5,-1.2,95,8,27,9.7,100.17,,-7,"Freezing Rain,Fog",10.579
05-04-2023 15:00,4,5,15:00,-0.1,-0.8,95,7,15,9.7,100.26,,-5,"Freezing Rain,Fog",10.796
05-04-2023 16:00,4,5,16:00,-0.1,-0.6,97,9,26,6.4,99.99,,-6,"Freezing Rain,Fog",10.337
05-04-2023 17:00,4,5,17:00,0,-0.4,97,5,24,12.9,99.99,,-6,Rain,10.203
05-04-2023 18:00,4,5,18:00,0,-0.4,97,7,17,8.1,100.05,,-5,"Rain,Fog",10.323
05-04-2023 19:00,4,5,19:00,0,-0.4,98,7,13,16.1,100.01,,-4,Cloudy,10.564
05-04-2023 20:00,4,5,20:00,0,-0.3,98,6,13,16.1,100.04,,-4,NA,9.377
05-04-2023 21:00,4,5,21:00,0,-0.2,99,6,15,8.1,99.98,,-4,Fog,7.402
05-04-2023 22:00,4,5,22:00,0,-0.2,99,8,13,3.2,100.01,,-4,"Drizzle,Fog",7.526
05-04-2023 23:00,4,5,23:00,0,-0.1,99,8,10,1.6,100.01,,-3,"Drizzle,Fog",7.524
06-04-2023 00:00,4,6,00:00,0,-0.1,100,10,16,1.2,99.92,,-5,"Drizzle,Fog",7.557
06-04-2023 01:00,4,6,01:00,0.1,0,100,36,3,0.8,100.01,,,"Drizzle,Fog",7.711
06-04-2023 02:00,4,6,02:00,0.1,0,100,11,27,1.2,99.8,,,"Drizzle,Fog",7.612
06-04-2023 03:00,4,6,03:00,0.1,0.1,100,16,9,1.2,99.91,,,"Drizzle,Fog",7.595
06-04-2023 04:00,4,6,04:00,0.2,0.2,100,35,16,0.8,99.98,,,"Drizzle,Fog",7.533
06-04-2023 05:00,4,6,05:00,0.1,0.1,100,10,13,0.8,100.02,,,Fog,7.62
06-04-2023 06:00,4,6,06:00,0.1,0.1,100,4,10,0.4,100.12,,,Fog,7.661
06-04-2023 07:00,4,6,07:00,0.1,0.1,100,8,6,0.2,100.2,,,Fog,10.695
06-04-2023 08:00,4,6,08:00,0.2,0.2,100,14,5,0.2,100.23,,,Fog,10.645
06-04-2023 09:00,4,6,09:00,0.2,0.2,100,36,1,0,100.29,,,Fog,11.385
06-04-2023 10:00,4,6,10:00,1,1,100,24,6,0.4,100.36,,,Fog,10.482
06-04-2023 11:00,4,6,11:00,2.3,2.3,100,24,8,6.4,100.39,,,Fog,10.847
06-04-2023 12:00,4,6,12:00,5.5,4,90,24,12,16.1,100.41,,,NA,10.972
06-04-2023 13:00,4,6,13:00,7.2,2.8,73,23,21,24.1,100.39,,,Mostly Cloudy,10.324
06-04-2023 14:00,4,6,14:00,8.1,2.7,69,22,19,24.1,100.39,,,NA,10.928
06-04-2023 15:00,4,6,15:00,9.2,2,61,22,32,24.1,100.37,,,NA,11.038
06-04-2023 16:00,4,6,16:00,9.2,1,56,22,34,24.1,100.37,,,Mostly Cloudy,10.816
06-04-2023 17:00,4,6,17:00,8.8,-0.6,52,22,34,24.1,100.41,,,NA,11.021
06-04-2023 18:00,4,6,18:00,7.9,-1.1,53,23,21,24.1,100.45,,,NA,10.674
06-04-2023 19:00,4,6,19:00,7.3,-2.4,50,23,23,24.1,100.51,,,Mostly Cloudy,10.477
06-04-2023 20:00,4,6,20:00,6.1,-2.2,55,26,22,24.1,100.64,,,NA,8.675
06-04-2023 21:00,4,6,21:00,4.4,-3.6,56,25,15,24.1,100.73,,,NA,6.321
06-04-2023 22:00,4,6,22:00,4.1,-4.8,52,27,15,24.1,100.77,,,Mostly Cloudy,6.202
06-04-2023 23:00,4,6,23:00,3.9,-4.7,53,23,14,24.1,100.75,,,NA,6.294
07-04-2023 00:00,4,7,00:00,3.8,-3.8,58,25,19,24.1,100.8,,,NA,6.123
07-04-2023 01:00,4,7,01:00,3.7,-4,57,28,26,24.1,100.83,,,Clear,6.141
07-04-2023 02:00,4,7,02:00,2.3,-5.8,55,26,26,24.1,100.83,,,NA,5.974
07-04-2023 03:00,4,7,03:00,1.4,-6.3,56,25,24,24.1,100.78,,,NA,6.045
07-04-2023 04:00,4,7,04:00,1.3,-6.5,56,26,32,24.1,100.81,,,Clear,6.082
07-04-2023 05:00,4,7,05:00,0.8,-7.5,54,25,37,24.1,100.82,,,NA,6.032
07-04-2023 06:00,4,7,06:00,-0.4,-10.4,47,29,31,24.1,100.99,,-7,NA,6.106
07-04-2023 07:00,4,7,07:00,-0.7,-11.4,44,29,30,24.1,101.15,,-7,Mainly Clear,6.245
07-04-2023 08:00,4,7,08:00,-0.5,-11.1,45,29,31,24.1,101.26,,-7,NA,5.845
07-04-2023 09:00,4,7,09:00,-0.2,-11.3,43,29,37,24.1,101.36,,-7,NA,6.084
07-04-2023 10:00,4,7,10:00,0,-11,43,30,35,24.1,101.45,,-7,Mainly Clear,6.059
07-04-2023 11:00,4,7,11:00,0.7,-10.3,44,29,36,24.1,101.49,,,NA,6.014
07-04-2023 12:00,4,7,12:00,1.3,-9.6,44,28,28,24.1,101.52,,,NA,5.996
07-04-2023 13:00,4,7,13:00,2,-10.8,38,29,24,24.1,101.54,,,Mainly Clear,6.084
07-04-2023 14:00,4,7,14:00,2.4,-9.3,42,27,27,24.1,101.54,,,NA,6.133
07-04-2023 15:00,4,7,15:00,2.2,-10.9,38,29,33,24.1,101.5,,,NA,5.982
07-04-2023 16:00,4,7,16:00,2.8,-10,39,29,30,24.1,101.49,,,Clear,6.062
07-04-2023 17:00,4,7,17:00,2.4,-10.7,38,28,28,24.1,101.5,,,NA,6.156
07-04-2023 18:00,4,7,18:00,2,-10.9,38,29,25,24.1,101.53,,,NA,6.077
07-04-2023 19:00,4,7,19:00,0.8,-10.9,42,28,17,24.1,101.57,,,Clear,5.879
07-04-2023 20:00,4,7,20:00,0,-10.2,46,30,17,24.1,101.61,,-5,NA,6.072
07-04-2023 21:00,4,7,21:00,-1.3,-10.6,50,30,8,24.1,101.69,,-4,NA,6.183
07-04-2023 22:00,4,7,22:00,-2.7,-10.9,54,32,12,24.1,101.7,,-7,Clear,6.092
07-04-2023 23:00,4,7,23:00,-3.3,-11.2,55,27,3,24.1,101.74,,-5,NA,6.061
08-04-2023 00:00,4,8,00:00,-3.6,-10.4,60,25,4,24.1,101.79,,-5,NA,6.196
08-04-2023 01:00,4,8,01:00,-3.7,-10.8,58,25,5,24.1,101.85,,-6,Clear,5.995
08-04-2023 02:00,4,8,02:00,-5.1,-11,63,27,10,24.1,101.86,,-9,NA,6.002
08-04-2023 03:00,4,8,03:00,-5.7,-11.6,63,25,5,24.1,101.86,,-8,NA,6.09
08-04-2023 04:00,4,8,04:00,-6.1,-11.2,67,25,5,24.1,101.9,,-9,Clear,6.151
08-04-2023 05:00,4,8,05:00,-6.4,-11.1,70,24,8,24.1,101.96,,-10,NA,6.095
08-04-2023 06:00,4,8,06:00,-6.4,-11.2,69,28,7,24.1,102.01,,-10,NA,6.277
08-04-2023 07:00,4,8,07:00,-2.9,-10.2,57,30,8,24.1,102.07,,-6,Clear,6.15
08-04-2023 08:00,4,8,08:00,-0.8,-11,46,28,9,24.1,102.14,,-4,NA,5.991
08-04-2023 09:00,4,8,09:00,0.6,-11.5,40,24,9,24.1,102.15,,,NA,6.074
08-04-2023 10:00,4,8,10:00,1.9,-12.4,34,26,17,24.1,102.12,,,Clear,6.169
08-04-2023 11:00,4,8,11:00,2.6,-12.9,31,30,10,24.1,102.06,,,NA,6.048
08-04-2023 12:00,4,8,12:00,3.8,-11.5,32,28,19,24.1,102.02,,,NA,6.256
08-04-2023 13:00,4,8,13:00,4.8,-10.7,32,28,14,24.1,101.93,,,Mainly Clear,6.035
08-04-2023 14:00,4,8,14:00,5.1,-11.9,28,30,17,24.1,101.83,,,NA,6.115
08-04-2023 15:00,4,8,15:00,5.4,-12.3,27,32,14,24.1,101.75,,,NA,6.088
08-04-2023 16:00,4,8,16:00,5.6,-12,27,24,8,24.1,101.67,,,Mostly Cloudy,6.23
08-04-2023 17:00,4,8,17:00,5.7,-11.8,27,29,8,24.1,101.66,,,NA,6.092
08-04-2023 18:00,4,8,18:00,4.9,-10.5,32,29,8,24.1,101.62,,,NA,5.993
08-04-2023 19:00,4,8,19:00,3.9,-12.3,30,23,4,24.1,101.63,,,Clear,6.055
08-04-2023 20:00,4,8,20:00,3.3,-11.7,33,18,9,24.1,101.66,,,NA,6.168
08-04-2023 21:00,4,8,21:00,1.5,-10.7,40,18,10,24.1,101.71,,,NA,6.189
08-04-2023 22:00,4,8,22:00,0.8,-7.8,53,19,7,24.1,101.72,,,Clear,6.1
08-04-2023 23:00,4,8,23:00,0,-6.6,62,20,10,24.1,101.73,,-3,NA,5.972
09-04-2023 00:00,4,9,00:00,-1.3,-6.5,68,20,13,24.1,101.74,,-6,NA,6.044
09-04-2023 01:00,4,9,01:00,-2.6,-6.3,75,25,4,24.1,101.77,,-4,Clear,6.17
09-04-2023 02:00,4,9,02:00,-2.2,-6.5,73,25,8,24.1,101.77,,-5,NA,6.039
09-04-2023 03:00,4,9,03:00,-3.9,-7.2,78,30,5,24.1,101.81,,-6,NA,6.069
09-04-2023 04:00,4,9,04:00,-4.8,-7.8,80,32,10,24.1,101.83,,-9,Clear,6.148
09-04-2023 05:00,4,9,05:00,-2.9,-6.8,75,27,4,24.1,101.86,,-4,NA,6.076
09-04-2023 06:00,4,9,06:00,-3.8,-7.6,75,28,6,24.1,101.94,,-6,NA,6.136
09-04-2023 07:00,4,9,07:00,-1.2,-7.2,63,29,10,24.1,102.03,,-5,Clear,6.218
09-04-2023 08:00,4,9,08:00,1.3,-7.2,53,31,7,24.1,102.05,,,NA,6.048
09-04-2023 09:00,4,9,09:00,3.6,-8,42,29,4,24.1,102.1,,,NA,6.156
09-04-2023 10:00,4,9,10:00,5.5,-6.2,43,22,7,24.1,102.09,,,Clear,6.195
09-04-2023 11:00,4,9,11:00,7.2,-7.9,33,27,10,24.1,102.07,,,NA,6.048
09-04-2023 12:00,4,9,12:00,8.3,-7.9,31,27,18,24.1,102.01,,,NA,6.134
09-04-2023 13:00,4,9,13:00,9.2,-7,31,26,18,24.1,101.94,,,Mainly Clear,6.169
09-04-2023 14:00,4,9,14:00,9.3,-8.4,28,26,9,24.1,101.87,,,NA,6.079
09-04-2023 15:00,4,9,15:00,10,-7.1,29,23,7,24.1,101.79,,,NA,6.175
09-04-2023 16:00,4,9,16:00,10.4,-7.8,27,28,8,24.1,101.72,,,Mainly Clear,6.093
09-04-2023 17:00,4,9,17:00,10.4,-8.4,26,27,6,24.1,101.68,,,NA,6.126
09-04-2023 18:00,4,9,18:00,8.8,-6.4,34,26,8,24.1,101.63,,,NA,6.027
09-04-2023 19:00,4,9,19:00,7.6,-8.3,31,26,4,24.1,101.57,,,Mainly Clear,6.158
09-04-2023 20:00,4,9,20:00,5.9,-6,42,22,13,24.1,101.58,,,NA,6.08
09-04-2023 21:00,4,9,21:00,4.7,-4.6,51,21,10,24.1,101.61,,,NA,6.076
09-04-2023 22:00,4,9,22:00,3.7,-3.9,58,20,9,24.1,101.55,,,Clear,6.089
09-04-2023 23:00,4,9,23:00,2.9,-3.5,63,21,9,24.1,101.51,,,NA,6.058
10-04-2023 00:00,4,10,00:00,2.3,-3.4,66,21,10,24.1,101.52,,,NA,6.142
10-04-2023 01:00,4,10,01:00,1.9,-3.5,67,23,9,24.1,101.51,,,Clear,6.254
10-04-2023 02:00,4,10,02:00,1.1,-3.6,71,20,8,24.1,101.48,,,NA,6.022
10-04-2023 03:00,4,10,03:00,0.5,-3.9,72,20,7,24.1,101.46,,,NA,6.094
10-04-2023 04:00,4,10,04:00,0.3,-4,73,22,15,24.1,101.46,,,Clear,6.086
10-04-2023 05:00,4,10,05:00,-0.9,-4.6,76,20,11,24.1,101.46,,-5,NA,6.104
10-04-2023 06:00,4,10,06:00,-0.3,-4.5,74,20,12,24.1,101.5,,-4,NA,6.136
10-04-2023 07:00,4,10,07:00,1.8,-3.9,66,20,16,24.1,101.51,,,Clear,6.179
10-04-2023 08:00,4,10,08:00,5.1,-3,56,21,17,24.1,101.44,,,NA,6.023
10-04-2023 09:00,4,10,09:00,8.2,-1.3,51,22,17,24.1,101.41,,,NA,6.097
10-04-2023 10:00,4,10,10:00,11.1,0.2,47,20,21,24.1,101.32,,,Clear,6.346
10-04-2023 11:00,4,10,11:00,13.3,1.5,44,21,19,24.1,101.29,,,NA,6.327
10-04-2023 12:00,4,10,12:00,15.2,1.4,39,22,27,24.1,101.18,,,NA,6.5
10-04-2023 13:00,4,10,13:00,16.4,1.3,36,21,25,24.1,101.08,,,Mainly Clear,6.247
10-04-2023 14:00,4,10,14:00,18.2,1.4,32,21,25,24.1,101.02,,,NA,6.304
10-04-2023 15:00,4,10,15:00,18.5,0.5,30,24,34,24.1,100.93,,,NA,6.159
10-04-2023 16:00,4,10,16:00,17.8,2.8,36,21,21,24.1,100.88,,,Mostly Cloudy,5.968
10-04-2023 17:00,4,10,17:00,15.9,2,39,20,23,24.1,100.85,,,NA,6.109
10-04-2023 18:00,4,10,18:00,13.8,1.6,43,20,24,24.1,100.85,,,NA,6.257
10-04-2023 19:00,4,10,19:00,12,1.1,47,20,20,24.1,100.8,,,Mostly Cloudy,6.004
10-04-2023 20:00,4,10,20:00,11.3,1,49,20,16,24.1,100.81,,,NA,6.102
10-04-2023 21:00,4,10,21:00,10.7,0.9,51,20,13,24.1,100.79,,,NA,6.028
10-04-2023 22:00,4,10,22:00,9.6,1,55,22,13,24.1,100.74,,,Mainly Clear,6.033
10-04-2023 23:00,4,10,23:00,8.7,1.1,59,25,13,24.1,100.68,,,NA,6.094
11-04-2023 00:00,4,11,00:00,9.5,1.4,57,23,15,24.1,100.63,,,NA,6.258
11-04-2023 01:00,4,11,01:00,9.4,1.2,57,22,12,24.1,100.57,,,Cloudy,6.052
11-04-2023 02:00,4,11,02:00,8.8,1.3,59,22,10,24.1,100.48,,,NA,6.025
11-04-2023 03:00,4,11,03:00,8.9,1.3,59,22,12,24.1,100.42,,,NA,6.04
11-04-2023 04:00,4,11,04:00,9.1,1.4,59,22,13,24.1,100.34,,,Cloudy,6.065
11-04-2023 05:00,4,11,05:00,8.9,1.5,59,22,13,24.1,100.28,,,NA,5.98
11-04-2023 06:00,4,11,06:00,8.8,1.6,61,21,13,24.1,100.27,,,NA,6.205
11-04-2023 07:00,4,11,07:00,9.5,1.7,58,19,13,24.1,100.22,,,Cloudy,9.234
11-04-2023 08:00,4,11,08:00,9.7,1.8,58,21,17,24.1,100.12,,,NA,9.236
11-04-2023 09:00,4,11,09:00,12.1,1.3,47,22,21,24.1,100,,,NA,9.046
11-04-2023 10:00,4,11,10:00,13.1,0.8,43,22,38,24.1,99.94,,,Cloudy,9.824
11-04-2023 11:00,4,11,11:00,14.8,1.5,40,22,26,24.1,99.82,,,NA,10.545
11-04-2023 12:00,4,11,12:00,16.1,1.1,36,23,40,24.1,99.68,,,NA,10.886
11-04-2023 13:00,4,11,13:00,16.7,1.9,37,22,35,24.1,99.57,,,Mostly Cloudy,10.644
11-04-2023 14:00,4,11,14:00,17.2,2,36,22,32,24.1,99.42,,,NA,10.506
11-04-2023 15:00,4,11,15:00,17.8,3.4,38,21,22,24.1,99.29,,,NA,10.289
11-04-2023 16:00,4,11,16:00,18,4.1,39,22,27,24.1,99.21,,,Mainly Clear,10.031
11-04-2023 17:00,4,11,17:00,20.1,1.1,28,27,35,24.1,99.2,,,NA,10.038
11-04-2023 18:00,4,11,18:00,18.1,1.6,33,28,29,24.1,99.26,,,NA,9.606
11-04-2023 19:00,4,11,19:00,16.4,1.4,36,28,23,24.1,99.34,,,Cloudy,10.117
11-04-2023 20:00,4,11,20:00,14.1,2.2,44,26,23,24.1,99.45,,,NA,8.946
11-04-2023 21:00,4,11,21:00,12.6,1.9,48,27,21,24.1,99.5,,,NA,7.273
11-04-2023 22:00,4,11,22:00,11.9,1.3,48,27,21,24.1,99.55,,,Mainly Clear,7.554
11-04-2023 23:00,4,11,23:00,10.6,1.1,52,27,21,24.1,99.55,,,NA,7.4
12-04-2023 00:00,4,12,00:00,10.4,1.1,53,27,19,24.1,99.59,,,NA,7.286
12-04-2023 01:00,4,12,01:00,9.8,0.8,54,28,17,24.1,99.65,,,Cloudy,7.198
12-04-2023 02:00,4,12,02:00,8.8,0.7,57,28,15,24.1,99.68,,,NA,7.307
12-04-2023 03:00,4,12,03:00,8.7,0.4,56,27,14,24.1,99.71,,,NA,7.078
12-04-2023 04:00,4,12,04:00,8.1,0,57,27,13,24.1,99.71,,,Cloudy,7.33
12-04-2023 05:00,4,12,05:00,7.8,0.5,60,26,14,24.1,99.77,,,NA,7.402
12-04-2023 06:00,4,12,06:00,7.7,-0.2,57,24,9,24.1,99.83,,,NA,7.296
12-04-2023 07:00,4,12,07:00,8,-0.6,55,24,9,24.1,99.88,,,Mostly Cloudy,10.551
12-04-2023 08:00,4,12,08:00,9.3,-1.2,48,25,10,24.1,99.91,,,NA,10.337
12-04-2023 09:00,4,12,09:00,11,-1.7,41,26,13,24.1,99.89,,,NA,10.393
12-04-2023 10:00,4,12,10:00,12.2,-1.6,38,28,14,24.1,99.86,,,Mostly Cloudy,10.568
12-04-2023 11:00,4,12,11:00,14.3,-1,35,27,10,24.1,99.8,,,NA,10.739
12-04-2023 12:00,4,12,12:00,14.3,-0.2,37,32,12,24.1,99.75,,,NA,10.282
12-04-2023 13:00,4,12,13:00,16.2,0.4,34,27,13,24.1,99.67,,,Mainly Clear,10.149
12-04-2023 14:00,4,12,14:00,16.6,0.1,32,24,10,24.1,99.57,,,NA,10.414
12-04-2023 15:00,4,12,15:00,18.3,-0.3,28,21,16,24.1,99.48,,,NA,10.598
12-04-2023 16:00,4,12,16:00,18.6,0.6,29,18,17,24.1,99.41,,,Clear,10.697
12-04-2023 17:00,4,12,17:00,18.9,0.8,29,15,9,24.1,99.35,,,NA,10.334
12-04-2023 18:00,4,12,18:00,18.2,1.4,32,16,13,24.1,99.28,,,NA,9.706
12-04-2023 19:00,4,12,19:00,14.6,1.4,40,12,10,24.1,99.29,,,Clear,8.982
12-04-2023 20:00,4,12,20:00,12.8,3.7,54,9,9,24.1,99.32,,,NA,8.273
12-04-2023 21:00,4,12,21:00,12.8,4.3,56,8,9,24.1,99.33,,,NA,6.792
12-04-2023 22:00,4,12,22:00,12.2,4.4,59,8,8,24.1,99.29,,,Mostly Cloudy,6.518
12-04-2023 23:00,4,12,23:00,10.8,4.8,66,11,11,24.1,99.22,,,NA,6.787
13-04-2023 00:00,4,13,00:00,8.9,3.8,70,5,7,24.1,99.23,,,NA,6.557
13-04-2023 01:00,4,13,01:00,9,3.7,69,3,14,24.1,99.23,,,Mainly Clear,6.631
13-04-2023 02:00,4,13,02:00,7.3,2.8,73,4,10,24.1,99.25,,,NA,6.575
13-04-2023 03:00,4,13,03:00,7.7,2,67,36,9,24.1,99.28,,,NA,6.458
13-04-2023 04:00,4,13,04:00,7.6,1.1,64,4,8,24.1,99.32,,,Clear,6.607
13-04-2023 05:00,4,13,05:00,4,0.3,77,20,6,24.1,99.4,,,NA,6.581
13-04-2023 06:00,4,13,06:00,6.1,1.5,72,36,2,24.1,99.44,,,NA,6.478
13-04-2023 07:00,4,13,07:00,9.4,2.4,62,17,8,24.1,99.47,,,Clear,9.833
13-04-2023 08:00,4,13,08:00,13.5,6.7,63,20,10,24.1,99.45,,,NA,9.211
13-04-2023 09:00,4,13,09:00,17.4,8.6,56,21,9,24.1,99.47,,,NA,9.646
13-04-2023 10:00,4,13,10:00,21,9.9,49,26,12,24.1,99.41,,,Clear,9.392
13-04-2023 11:00,4,13,11:00,24,10,41,24,22,24.1,99.37,25,,NA,9.549
13-04-2023 12:00,4,13,12:00,26.8,10,34,22,22,24.1,99.3,28,,NA,9.47
13-04-2023 13:00,4,13,13:00,27.2,10.8,35,20,25,24.1,99.24,29,,Clear,9.445
13-04-2023 14:00,4,13,14:00,28.2,10.4,32,25,20,24.1,99.24,30,,NA,10.04
13-04-2023 15:00,4,13,15:00,29.6,10.8,31,23,21,24.1,99.16,31,,NA,10.955
13-04-2023 16:00,4,13,16:00,29.5,10.6,30,25,22,24.1,99.12,31,,Clear,11.027
13-04-2023 17:00,4,13,17:00,29.4,10.1,30,31,19,24.1,99.15,31,,NA,10.662
13-04-2023 18:00,4,13,18:00,26.1,11.1,39,21,14,24.1,99.21,28,,NA,9.831
13-04-2023 19:00,4,13,19:00,23.5,10.9,45,20,12,24.1,99.27,25,,Mainly Clear,10.499
13-04-2023 20:00,4,13,20:00,22.1,10.6,47,20,8,24.1,99.31,,,NA,9.246
13-04-2023 21:00,4,13,21:00,20.1,10.1,52,20,6,24.1,99.35,,,NA,7.583
13-04-2023 22:00,4,13,22:00,16.8,9.6,62,18,9,24.1,99.39,,,Clear,7.251
13-04-2023 23:00,4,13,23:00,16.2,10,67,21,12,24.1,99.48,,,NA,7.168
14-04-2023 00:00,4,14,00:00,15.9,10.2,69,23,11,24.1,99.55,,,NA,7.351
14-04-2023 01:00,4,14,01:00,15,9.4,69,24,10,24.1,99.57,,,Clear,7.345
14-04-2023 02:00,4,14,02:00,14.3,8.5,68,31,13,24.1,99.63,,,NA,7.24
14-04-2023 03:00,4,14,03:00,14.2,8,66,35,19,24.1,99.68,,,NA,7.028
14-04-2023 04:00,4,14,04:00,12.6,6.5,66,2,30,24.1,99.71,,,Mainly Clear,7.22
14-04-2023 05:00,4,14,05:00,11.4,3.1,56,3,28,24.1,99.8,,,NA,7.145
14-04-2023 06:00,4,14,06:00,11.2,2,53,4,17,24.1,99.87,,,NA,7.004
14-04-2023 07:00,4,14,07:00,12.8,1.4,45,5,19,24.1,99.95,,,Mainly Clear,10.181
14-04-2023 08:00,4,14,08:00,14.2,1.2,41,6,23,24.1,100.02,,,NA,9.676
14-04-2023 09:00,4,14,09:00,15.7,0.3,35,5,22,24.1,100.02,,,NA,10.139
14-04-2023 10:00,4,14,10:00,17.7,0.8,32,9,18,24.1,100.05,,,Mainly Clear,9.869
14-04-2023 11:00,4,14,11:00,19.4,2,31,7,23,24.1,100.02,,,NA,10.164
14-04-2023 12:00,4,14,12:00,20.7,2.8,30,10,13,24.1,100,,,NA,10.123
14-04-2023 13:00,4,14,13:00,20.6,3,31,4,19,24.1,99.96,,,Mainly Clear,10.095
14-04-2023 14:00,4,14,14:00,21.3,3.7,31,6,29,24.1,99.94,,,NA,9.868
14-04-2023 15:00,4,14,15:00,21.9,3.8,30,10,16,24.1,99.89,,,NA,10.244
14-04-2023 16:00,4,14,16:00,21.3,3.5,31,7,12,24.1,99.85,,,Mainly Clear,9.929
14-04-2023 17:00,4,14,17:00,21.4,3.8,31,9,16,24.1,99.84,,,NA,9.706
14-04-2023 18:00,4,14,18:00,19.2,3.7,35,6,30,24.1,99.85,,,NA,9.964
14-04-2023 19:00,4,14,19:00,15.4,4,46,7,23,24.1,99.87,,,Mainly Clear,9.561
14-04-2023 20:00,4,14,20:00,15.1,4.6,49,7,17,24.1,99.92,,,NA,8.251
14-04-2023 21:00,4,14,21:00,14.6,3.1,46,7,17,24.1,99.96,,,NA,7.129
14-04-2023 22:00,4,14,22:00,13.1,2.6,49,6,25,24.1,99.95,,,Clear,7.175
14-04-2023 23:00,4,14,23:00,11.9,1.4,48,6,19,24.1,99.94,,,NA,6.811
15-04-2023 00:00,4,15,00:00,10.9,0.1,47,7,19,24.1,99.94,,,NA,7.097
15-04-2023 01:00,4,15,01:00,10.4,-1.1,45,7,25,24.1,99.91,,,Mainly Clear,7.063
15-04-2023 02:00,4,15,02:00,10.5,-1.6,43,6,25,24.1,99.89,,,NA,7.004
15-04-2023 03:00,4,15,03:00,8,-1.6,51,5,16,24.1,99.88,,,NA,7.03
15-04-2023 04:00,4,15,04:00,6.8,-1.6,55,5,12,24.1,99.88,,,Mainly Clear,7.023
15-04-2023 05:00,4,15,05:00,6.4,-1.9,55,4,13,24.1,99.85,,,NA,7.076
15-04-2023 06:00,4,15,06:00,7.8,-1.5,52,5,10,24.1,99.89,,,NA,6.865
15-04-2023 07:00,4,15,07:00,11.7,-2.1,38,6,13,24.1,99.92,,,Mainly Clear,6.999
15-04-2023 08:00,4,15,08:00,13.6,-1.6,35,7,18,24.1,99.91,,,NA,6.745
15-04-2023 09:00,4,15,09:00,15.9,0.3,34,7,14,24.1,99.9,,,NA,7.045
15-04-2023 10:00,4,15,10:00,17.4,1.3,33,8,9,24.1,99.85,,,Mainly Clear,7.027
15-04-2023 11:00,4,15,11:00,19.4,2.5,32,4,9,24.1,99.79,,,NA,6.803
15-04-2023 12:00,4,15,12:00,21.6,4.2,32,7,14,24.1,99.74,,,NA,7.004
15-04-2023 13:00,4,15,13:00,22.4,5.4,33,6,10,24.1,99.7,,,Mainly Clear,6.739
15-04-2023 14:00,4,15,14:00,23.6,6.3,32,5,16,24.1,99.66,,,NA,6.875
15-04-2023 15:00,4,15,15:00,24.1,7.5,34,4,12,24.1,99.6,,,NA,6.784
15-04-2023 16:00,4,15,16:00,24.6,8.5,35,7,31,24.1,99.57,25,,Mainly Clear,7.105
15-04-2023 17:00,4,15,17:00,24.1,8.2,36,6,31,24.1,99.58,25,,NA,6.974
15-04-2023 18:00,4,15,18:00,22.7,7.8,38,7,15,24.1,99.6,,,NA,6.598
15-04-2023 19:00,4,15,19:00,18.9,7.6,48,6,10,24.1,99.63,,,Clear,7.017
15-04-2023 20:00,4,15,20:00,17.9,7.8,51,6,10,24.1,99.66,,,NA,6.956
15-04-2023 21:00,4,15,21:00,16.2,8.2,59,8,16,24.1,99.64,,,NA,6.769
15-04-2023 22:00,4,15,22:00,16.5,7.5,55,9,19,24.1,99.65,,,Clear,7.013
15-04-2023 23:00,4,15,23:00,15.1,6.6,56,8,28,24.1,99.58,,,NA,6.752
16-04-2023 00:00,4,16,00:00,13.9,5.8,58,7,28,24.1,99.51,,,NA,6.972
16-04-2023 01:00,4,16,01:00,12.2,4.9,61,6,15,24.1,99.55,,,Clear,6.463
16-04-2023 02:00,4,16,02:00,9.8,4.5,69,6,5,24.1,99.61,,,NA,7.201
16-04-2023 03:00,4,16,03:00,10.7,4.4,65,6,8,24.1,99.62,,,NA,6.96
16-04-2023 04:00,4,16,04:00,10.8,3.6,61,7,15,24.1,99.63,,,Clear,6.696
16-04-2023 05:00,4,16,05:00,10.1,2.9,61,7,18,24.1,99.62,,,NA,7.169
16-04-2023 06:00,4,16,06:00,9.9,2.9,62,6,12,24.1,99.64,,,NA,7.195
16-04-2023 07:00,4,16,07:00,11.4,3,56,7,13,24.1,99.63,,,Clear,6.899
16-04-2023 08:00,4,16,08:00,13.3,3.4,51,7,14,24.1,99.62,,,NA,6.986
16-04-2023 09:00,4,16,09:00,15.5,4.3,47,7,13,24.1,99.58,,,NA,6.927
16-04-2023 10:00,4,16,10:00,17.6,5.6,45,9,14,24.1,99.57,,,Clear,6.81
16-04-2023 11:00,4,16,11:00,19.1,7.1,45,8,10,24.1,99.51,,,NA,7.186
16-04-2023 12:00,4,16,12:00,21.1,7.7,42,10,13,24.1,99.43,,,NA,7.229
16-04-2023 13:00,4,16,13:00,22.4,8.4,40,7,8,24.1,99.36,,,Clear,6.864
16-04-2023 14:00,4,16,14:00,23.9,9.1,39,6,10,24.1,99.28,25,,NA,7.061
16-04-2023 15:00,4,16,15:00,25.2,10.2,38,9,10,24.1,99.19,27,,NA,7.113
16-04-2023 16:00,4,16,16:00,24.9,9.9,38,9,8,24.1,99.11,26,,Mainly Clear,6.776
16-04-2023 17:00,4,16,17:00,24.9,8.9,36,11,14,24.1,99.03,26,,NA,7.198
16-04-2023 18:00,4,16,18:00,22.8,10.2,44,7,33,24.1,98.98,,,NA,7.172
16-04-2023 19:00,4,16,19:00,20.4,11.5,56,7,30,24.1,98.93,,,Mainly Clear,6.851
16-04-2023 20:00,4,16,20:00,19.6,12.1,62,8,31,24.1,98.9,,,NA,7.32
16-04-2023 21:00,4,16,21:00,18.2,11.8,66,9,14,24.1,98.88,,,NA,7.045
16-04-2023 22:00,4,16,22:00,17.3,11.6,69,8,18,24.1,98.83,,,Mostly Cloudy,7.204
16-04-2023 23:00,4,16,23:00,16.3,11.3,72,8,17,24.1,98.79,,,NA,7.035
17-04-2023 00:00,4,17,00:00,14.9,11,77,7,14,24.1,98.76,,,NA,6.737
17-04-2023 01:00,4,17,01:00,14.4,10.9,79,9,14,24.1,98.68,,,Mainly Clear,7.225
17-04-2023 02:00,4,17,02:00,14.3,11.1,81,8,16,24.1,98.64,,,NA,7.028
17-04-2023 03:00,4,17,03:00,13.4,10.9,84,10,13,24.1,98.61,,,NA,6.805
17-04-2023 04:00,4,17,04:00,15,12.2,83,17,14,24.1,98.63,,,Cloudy,7.133
17-04-2023 05:00,4,17,05:00,13.1,10.6,85,19,21,24.1,98.67,,,NA,7.013
17-04-2023 06:00,4,17,06:00,11.9,10.3,90,19,19,16.1,98.71,,,Rain,6.883
17-04-2023 07:00,4,17,07:00,10.1,9.7,97,19,14,6.4,98.74,,,"Rain,Fog",10.041
17-04-2023 08:00,4,17,08:00,8.9,8.2,95,19,23,9.7,98.78,,,"Rain,Fog",8.817
17-04-2023 09:00,4,17,09:00,7.9,7.2,95,20,20,9.7,98.8,,,Fog,10.379
17-04-2023 10:00,4,17,10:00,8.3,7.5,94,22,17,16.1,98.78,,,Rain,10.232
17-04-2023 11:00,4,17,11:00,8.1,7.5,95,21,17,9.7,98.8,,,"Rain,Fog",10.396
17-04-2023 12:00,4,17,12:00,8.6,7.7,94,19,11,9.7,98.74,,,"Rain,Fog",10.098
17-04-2023 13:00,4,17,13:00,8.1,7.1,93,19,13,16.1,98.74,,,Rain,10.53
17-04-2023 14:00,4,17,14:00,8.8,7.4,91,17,13,24.1,98.69,,,NA,10.103
17-04-2023 15:00,4,17,15:00,9.6,5.6,76,17,16,24.1,98.63,,,NA,10.35
17-04-2023 16:00,4,17,16:00,9.7,6.5,80,17,10,24.1,98.63,,,Mostly Cloudy,9.976
17-04-2023 17:00,4,17,17:00,10.9,5.8,71,20,13,24.1,98.63,,,NA,9.563
17-04-2023 18:00,4,17,18:00,10.6,4.5,66,21,6,24.1,98.64,,,NA,10.034
17-04-2023 19:00,4,17,19:00,9.8,3.4,64,19,7,24.1,98.65,,,Mostly Cloudy,9.475
17-04-2023 20:00,4,17,20:00,9.6,3.4,65,21,13,24.1,98.68,,,NA,8.668
17-04-2023 21:00,4,17,21:00,8.6,3.9,72,22,30,11.3,98.74,,,Rain,6.78
17-04-2023 22:00,4,17,22:00,5.2,4,92,23,17,16.1,98.8,,,Rain Showers,7.538
17-04-2023 23:00,4,17,23:00,4.8,1.7,80,21,22,24.1,98.76,,,NA,7.371
18-04-2023 00:00,4,18,00:00,4,1.2,82,20,17,24.1,98.75,,,Rain Showers,7.274
18-04-2023 01:00,4,18,01:00,4,1.7,85,20,18,24.1,98.74,,,Cloudy,7.232
18-04-2023 02:00,4,18,02:00,3.8,1.4,85,20,14,24.1,98.7,,,NA,7.04
18-04-2023 03:00,4,18,03:00,3.2,1.2,87,20,16,24.1,98.68,,,NA,6.783
18-04-2023 04:00,4,18,04:00,3,1,87,18,16,24.1,98.68,,,Cloudy,6.866
18-04-2023 05:00,4,18,05:00,3.3,1,85,20,16,24.1,98.69,,,NA,7.005
18-04-2023 06:00,4,18,06:00,3.5,1.2,85,19,13,24.1,98.7,,,NA,6.798
18-04-2023 07:00,4,18,07:00,4.2,1.3,81,20,18,24.1,98.74,,,Mostly Cloudy,9.338
18-04-2023 08:00,4,18,08:00,5.3,1.5,77,21,18,24.1,98.74,,,NA,9.542
18-04-2023 09:00,4,18,09:00,5.1,-0.6,67,21,25,24.1,98.79,,,NA,9.709
18-04-2023 10:00,4,18,10:00,6,0,65,22,23,24.1,98.8,,,Mostly Cloudy,9.681
18-04-2023 11:00,4,18,11:00,6.2,0.5,66,22,21,24.1,98.82,,,NA,9.227
18-04-2023 12:00,4,18,12:00,6.9,0.4,63,23,20,24.1,98.82,,,NA,9.101
18-04-2023 13:00,4,18,13:00,6.9,0.1,62,22,17,24.1,98.84,,,Mostly Cloudy,9.867
18-04-2023 14:00,4,18,14:00,6.2,1.3,70,21,23,24.1,98.92,,,Rain,9.258
18-04-2023 15:00,4,18,15:00,6.4,1.8,72,20,27,24.1,98.95,,,NA,9.624
18-04-2023 16:00,4,18,16:00,7,1.5,68,21,26,24.1,98.99,,,Cloudy,9.584
18-04-2023 17:00,4,18,17:00,5.9,1,71,25,27,24.1,99.1,,,Rain,9.255
18-04-2023 18:00,4,18,18:00,5.5,0.8,72,23,26,24.1,99.16,,,NA,9.631
18-04-2023 19:00,4,18,19:00,4.8,-0.1,70,23,25,24.1,99.25,,,Cloudy,9.966
18-04-2023 20:00,4,18,20:00,3.2,0.9,85,27,33,9.7,99.41,,,"Rain Showers,Fog",8.476
18-04-2023 21:00,4,18,21:00,1.7,-0.3,86,25,12,24.1,99.48,,,NA,7.291
18-04-2023 22:00,4,18,22:00,1.1,-0.6,88,22,12,24.1,99.54,,,Mainly Clear,7.217
18-04-2023 23:00,4,18,23:00,1.1,-2,80,22,17,24.1,99.55,,,NA,7.064
19-04-2023 00:00,4,19,00:00,1.1,-2.4,77,23,13,24.1,99.58,,,NA,7.067
19-04-2023 01:00,4,19,01:00,1.4,-2.6,75,23,15,24.1,99.6,,,Cloudy,7.267
19-04-2023 02:00,4,19,02:00,1.2,-2.4,77,26,18,24.1,99.61,,,NA,7.126
19-04-2023 03:00,4,19,03:00,0.9,-1.7,83,26,17,16.1,99.68,,,NA,6.74
19-04-2023 04:00,4,19,04:00,0.6,-1.3,87,25,14,12.9,99.72,,,Snow,6.793
19-04-2023 05:00,4,19,05:00,0.5,-0.9,90,25,14,9.7,99.77,,,Snow,7.034
19-04-2023 06:00,4,19,06:00,0.9,-0.8,88,26,18,16.1,99.85,,,Snow,7.219
19-04-2023 07:00,4,19,07:00,1,-0.4,90,27,19,12.9,99.92,,,Snow,9.692
19-04-2023 08:00,4,19,08:00,2,-1,81,26,21,24.1,99.98,,,NA,9.061
19-04-2023 09:00,4,19,09:00,2.2,-1.3,78,26,23,16.1,100.09,,,Snow,8.909
19-04-2023 10:00,4,19,10:00,3.3,-1.7,70,28,27,24.1,100.17,,,Mostly Cloudy,9.413
19-04-2023 11:00,4,19,11:00,3.5,-2,67,30,28,24.1,100.19,,,NA,9.522
19-04-2023 12:00,4,19,12:00,2.9,-2.9,65,28,30,24.1,100.23,,,NA,10.147
19-04-2023 13:00,4,19,13:00,3.8,-3.9,57,29,29,24.1,100.27,,,Mostly Cloudy,10.051
19-04-2023 14:00,4,19,14:00,3.3,-4.9,55,30,35,24.1,100.34,,,NA,10.096
19-04-2023 15:00,4,19,15:00,3.6,-5.2,53,29,31,24.1,100.35,,,NA,10.381
19-04-2023 16:00,4,19,16:00,3.4,-6.2,49,30,33,24.1,100.43,,,Mostly Cloudy,10.122
19-04-2023 17:00,4,19,17:00,3.2,-5.5,53,31,25,24.1,100.51,,,NA,10.112
19-04-2023 18:00,4,19,18:00,2.6,-6.5,51,30,31,24.1,100.61,,,NA,10.038
19-04-2023 19:00,4,19,19:00,2,-6.3,54,31,18,24.1,100.68,,,Cloudy,9.858
19-04-2023 20:00,4,19,20:00,2.1,-5.8,56,31,24,24.1,100.75,,,NA,8.581
19-04-2023 21:00,4,19,21:00,2.1,-5.4,58,30,27,24.1,100.78,,,NA,7.054
19-04-2023 22:00,4,19,22:00,1.9,-5,60,27,12,24.1,100.78,,,Cloudy,7.307
19-04-2023 23:00,4,19,23:00,2,-4.9,60,28,13,24.1,100.8,,,NA,7.098
20-04-2023 00:00,4,20,00:00,1.6,-3.8,67,26,8,24.1,100.86,,,NA,6.92
20-04-2023 01:00,4,20,01:00,1.7,-3.5,68,26,10,24.1,100.93,,,Cloudy,6.701
20-04-2023 02:00,4,20,02:00,1.6,-3.4,70,28,7,24.1,100.95,,,NA,6.84
20-04-2023 03:00,4,20,03:00,1.8,-3.7,67,31,12,24.1,100.99,,,NA,6.581
20-04-2023 04:00,4,20,04:00,1.8,-4.1,65,32,13,24.1,101.01,,,Cloudy,6.944
20-04-2023 05:00,4,20,05:00,0.6,-5.2,65,34,17,24.1,101.07,,,NA,6.749
20-04-2023 06:00,4,20,06:00,0.6,-6.6,59,34,13,24.1,101.1,,,NA,6.866
20-04-2023 07:00,4,20,07:00,1.5,-6.7,55,33,18,24.1,101.18,,,Mainly Clear,9.76
20-04-2023 08:00,4,20,08:00,2.8,-6,53,32,13,24.1,101.24,,,NA,9.23
20-04-2023 09:00,4,20,09:00,3.3,-5.9,51,32,18,24.1,101.24,,,NA,9.435
20-04-2023 10:00,4,20,10:00,3.9,-5.7,50,28,13,24.1,101.22,,,Mainly Clear,9.397
20-04-2023 11:00,4,20,11:00,4.9,-5.3,47,30,13,24.1,101.12,,,NA,10.174
20-04-2023 12:00,4,20,12:00,6.6,-3.8,47,9,6,24.1,101.05,,,NA,9.267
20-04-2023 13:00,4,20,13:00,7,-4.2,45,25,12,24.1,101.04,,,Mainly Clear,9.937
16-05-2023 17:00,5,16,17:00,7.4,2.5,71,34,24,24.1,99.13,,,NA,2.012
16-05-2023 18:00,5,16,18:00,7,1.5,68,35,22,24.1,99.19,,,NA,4.858
16-05-2023 19:00,5,16,19:00,6.3,-0.1,64,36,22,24.1,99.24,,,Mostly Cloudy,4.894
16-05-2023 20:00,5,16,20:00,5.8,0.6,69,32,22,24.1,99.31,,,NA,4.838
16-05-2023 21:00,5,16,21:00,4.5,0.8,76,32,23,24.1,99.38,,,NA,4.858
16-05-2023 22:00,5,16,22:00,3.7,-1.8,67,32,22,24.1,99.42,,,Clear,4.877
16-05-2023 23:00,5,16,23:00,2.6,-2.1,71,31,20,24.1,99.44,,,NA,4.898
17-05-2023 00:00,5,17,00:00,2.6,-2.3,70,32,20,24.1,99.51,,,NA,4.822
17-05-2023 01:00,5,17,01:00,2.4,-3,68,32,31,24.1,99.56,,,Mainly Clear,4.941
17-05-2023 02:00,5,17,02:00,1.6,-5.9,57,34,27,24.1,99.64,,,NA,4.867
17-05-2023 03:00,5,17,03:00,0.9,-7,56,35,22,24.1,99.72,,,NA,4.899
17-05-2023 04:00,5,17,04:00,0.8,-7.7,53,35,25,24.1,99.77,,,Mainly Clear,4.921
17-05-2023 05:00,5,17,05:00,0.6,-8.6,50,33,23,24.1,99.87,,,NA,4.972
17-05-2023 06:00,5,17,06:00,1.6,-8.5,47,34,23,24.1,99.96,,,NA,4.825
17-05-2023 07:00,5,17,07:00,1.8,-7.6,50,35,22,24.1,100.03,,,Mostly Cloudy,4.955
17-05-2023 08:00,5,17,08:00,2.1,-7,51,33,27,24.1,100.12,,,NA,4.924
17-05-2023 09:00,5,17,09:00,2.6,-7.7,46,31,27,24.1,100.16,,,NA,4.964
17-05-2023 10:00,5,17,10:00,4.9,-8.4,38,34,25,24.1,100.22,,,Mainly Clear,4.896
17-05-2023 11:00,5,17,11:00,5.6,-8.6,35,33,27,24.1,100.26,,,NA,4.921
17-05-2023 12:00,5,17,12:00,7.4,-8.7,31,34,22,24.1,100.25,,,NA,4.915
17-05-2023 13:00,5,17,13:00,8.5,-8.9,28,34,26,24.1,100.24,,,Mainly Clear,4.958
17-05-2023 14:00,5,17,14:00,8.7,-8.8,28,34,23,24.1,100.24,,,NA,4.913
17-05-2023 15:00,5,17,15:00,9.2,-8.7,27,35,24,24.1,100.23,,,NA,4.97
17-05-2023 16:00,5,17,16:00,9.8,-9.1,26,35,25,24.1,100.24,,,Clear,4.911
17-05-2023 17:00,5,17,17:00,9.6,-8.9,26,34,26,24.1,100.27,,,NA,4.89
17-05-2023 18:00,5,17,18:00,8.6,-9,28,34,12,24.1,100.29,,,NA,4.851
17-05-2023 19:00,5,17,19:00,7.6,-8.5,31,34,14,24.1,100.35,,,Mainly Clear,4.951
17-05-2023 20:00,5,17,20:00,4.6,-7.6,41,25,8,24.1,100.44,,,NA,4.903
17-05-2023 21:00,5,17,21:00,4.7,-6.4,44,25,10,24.1,100.55,,,NA,4.959
17-05-2023 22:00,5,17,22:00,3,-6.3,51,27,7,24.1,100.59,,,Mainly Clear,4.907
17-05-2023 23:00,5,17,23:00,2.5,-4.4,60,28,7,24.1,100.62,,,NA,4.949
18-05-2023 00:00,5,18,00:00,1,-3.9,70,26,9,24.1,100.68,,,NA,4.927
18-05-2023 01:00,5,18,01:00,0.8,-4.4,68,30,7,24.1,100.7,,,Mainly Clear,4.943
18-05-2023 02:00,5,18,02:00,0.6,-3.5,74,28,4,24.1,100.75,,,NA,4.949
18-05-2023 03:00,5,18,03:00,-3,-5.5,84,23,7,24.1,100.81,,-6,NA,4.934
18-05-2023 04:00,5,18,04:00,-1.3,-5.3,74,27,8,24.1,100.85,,-4,Mainly Clear,4.991
18-05-2023 05:00,5,18,05:00,-0.1,-4.3,74,29,4,24.1,100.94,,-1,NA,4.974
18-05-2023 06:00,5,18,06:00,1.1,-2,80,23,4,24.1,101.01,,,NA,4.953
18-05-2023 07:00,5,18,07:00,5.2,-2.9,56,32,6,24.1,101.1,,,Mostly Cloudy,4.964
18-05-2023 08:00,5,18,08:00,6.8,-4.8,44,31,5,24.1,101.13,,,NA,4.908
18-05-2023 09:00,5,18,09:00,9.3,-5,36,29,10,24.1,101.17,,,NA,4.935
18-05-2023 10:00,5,18,10:00,9.6,-5.4,34,29,15,24.1,101.14,,,Mainly Clear,4.972
18-05-2023 11:00,5,18,11:00,11.9,-4.3,32,27,17,24.1,101.13,,,NA,4.932
18-05-2023 12:00,5,18,12:00,12.6,-4.4,30,34,5,24.1,101.07,,,NA,4.984
18-05-2023 13:00,5,18,13:00,13.9,-4.5,28,25,16,24.1,100.98,,,Clear,5.261
18-05-2023 14:00,5,18,14:00,14.8,-4.4,26,24,13,24.1,100.95,,,NA,4.947
18-05-2023 15:00,5,18,15:00,15.6,-4.4,25,27,13,24.1,100.9,,,NA,4.976
18-05-2023 16:00,5,18,16:00,15.6,-4,26,26,11,24.1,100.85,,,Mainly Clear,4.88
18-05-2023 17:00,5,18,17:00,15.7,-0.5,33,20,15,24.1,100.8,,,NA,4.935
18-05-2023 18:00,5,18,18:00,14.8,-0.1,36,19,17,24.1,100.79,,,NA,4.969
18-05-2023 19:00,5,18,19:00,12.9,1,44,20,14,24.1,100.79,,,Mostly Cloudy,4.888
18-05-2023 20:00,5,18,20:00,11,0.3,48,19,10,24.1,100.8,,,NA,4.924
18-05-2023 21:00,5,18,21:00,9,-0.2,52,17,7,24.1,100.82,,,NA,4.947
18-05-2023 22:00,5,18,22:00,8.1,-1,52,17,10,24.1,100.81,,,Mostly Cloudy,4.957
18-05-2023 23:00,5,18,23:00,6.5,-2,54,16,11,24.1,100.76,,,NA,4.927
19-05-2023 00:00,5,19,00:00,6,-3,52,16,11,24.1,100.72,,,NA,4.882
19-05-2023 01:00,5,19,01:00,5.6,-3.3,53,16,10,24.1,100.67,,,Mostly Cloudy,4.946
19-05-2023 02:00,5,19,02:00,5.7,-2.2,57,9,6,24.1,100.61,,,NA,4.964
19-05-2023 03:00,5,19,03:00,5,-1.4,64,9,8,24.1,100.56,,,NA,4.985
19-05-2023 04:00,5,19,04:00,3.3,-1.3,72,5,10,24.1,100.55,,,Mostly Cloudy,4.96
19-05-2023 05:00,5,19,05:00,2.8,-1.4,74,8,6,24.1,100.56,,,NA,4.909
19-05-2023 06:00,5,19,06:00,5.6,1.3,74,6,7,24.1,100.58,,,NA,4.918
19-05-2023 07:00,5,19,07:00,10.2,4.3,66,18,7,24.1,100.56,,,Mostly Cloudy,4.963
19-05-2023 08:00,5,19,08:00,14.8,6.1,56,20,22,24.1,100.54,,,NA,4.963
19-05-2023 09:00,5,19,09:00,17.2,7.5,53,19,21,24.1,100.53,,,NA,4.933
19-05-2023 10:00,5,19,10:00,18.5,8.2,51,19,23,24.1,100.5,,,Mostly Cloudy,4.87
19-05-2023 11:00,5,19,11:00,20.1,9.6,50,19,20,24.1,100.41,,,NA,4.893
19-05-2023 12:00,5,19,12:00,20.9,9.6,48,18,32,24.1,100.33,,,NA,4.986
19-05-2023 13:00,5,19,13:00,21.2,9.9,48,18,30,24.1,100.28,,,Mostly Cloudy,4.866
19-05-2023 14:00,5,19,14:00,21.3,10.2,49,19,22,24.1,100.26,,,NA,4.969
19-05-2023 15:00,5,19,15:00,21.2,10.9,51,20,21,24.1,100.22,,,NA,4.993
19-05-2023 16:00,5,19,16:00,21.4,10.8,50,21,20,24.1,100.19,,,Cloudy,4.855
19-05-2023 17:00,5,19,17:00,21.2,10.7,51,20,18,24.1,100.18,,,NA,5.005
19-05-2023 18:00,5,19,18:00,21,10.8,52,22,15,24.1,100.15,,,NA,4.998
19-05-2023 19:00,5,19,19:00,20.7,11.2,54,22,23,24.1,100.19,,,Mostly Cloudy,4.872
19-05-2023 20:00,5,19,20:00,18.9,11.8,63,20,15,24.1,100.24,,,NA,5.012
19-05-2023 21:00,5,19,21:00,18.4,12,66,19,13,24.1,100.27,,,NA,5.005
19-05-2023 22:00,5,19,22:00,17.2,12.4,73,18,6,24.1,100.27,,,Mostly Cloudy,4.916
19-05-2023 23:00,5,19,23:00,16.3,12.7,79,17,9,24.1,100.29,,,NA,5.003
20-05-2023 00:00,5,20,00:00,16,12.8,81,16,9,24.1,100.26,,,NA,5.053
20-05-2023 01:00,5,20,01:00,15.7,12.8,83,16,8,24.1,100.25,,,Mostly Cloudy,4.898
20-05-2023 02:00,5,20,02:00,15,12.5,85,16,8,24.1,100.2,,,NA,5.017
20-05-2023 03:00,5,20,03:00,14.5,12.3,86,14,9,24.1,100.18,,,NA,5.029
20-05-2023 04:00,5,20,04:00,14.7,11.9,83,17,8,24.1,100.17,,,Mostly Cloudy,4.979
20-05-2023 05:00,5,20,05:00,14.5,11.5,82,18,7,24.1,100.17,,,NA,4.944
20-05-2023 06:00,5,20,06:00,15.1,11.8,80,15,7,19.3,100.17,,,NA,5.061
20-05-2023 07:00,5,20,07:00,15.8,11.6,76,15,6,19.3,100.19,,,Cloudy,4.951
20-05-2023 08:00,5,20,08:00,15.1,11.5,79,16,4,19.3,100.17,,,NA,5.008
20-05-2023 09:00,5,20,09:00,16,11.6,75,16,13,19.3,100.15,,,NA,4.997
20-05-2023 10:00,5,20,10:00,14.5,12.4,87,15,10,19.3,100.14,,,Cloudy,4.998
20-05-2023 11:00,5,20,11:00,14.4,13,91,12,13,8.1,100.1,,,"Rain,Fog",4.926
20-05-2023 12:00,5,20,12:00,14.5,13.6,94,15,10,8.1,100,,,"Rain,Fog",4.996
20-05-2023 13:00,5,20,13:00,14.4,13.5,94,15,10,9.7,99.94,,,"Rain,Fog",5.267
20-05-2023 14:00,5,20,14:00,14.6,13.9,96,16,12,8.1,99.9,,,"Rain,Fog",6.591
20-05-2023 15:00,5,20,15:00,14.5,14.1,97,16,14,6.4,99.85,,,"Rain,Fog",5.577
20-05-2023 16:00,5,20,16:00,14.8,14.3,97,19,8,6.4,99.82,,,"Rain,Fog",5.027
20-05-2023 17:00,5,20,17:00,14.8,14.3,97,20,8,9.7,99.74,,,"Rain,Fog",4.993
20-05-2023 18:00,5,20,18:00,14.6,14.1,97,22,4,12.9,99.67,,,Rain,5.086
20-05-2023 19:00,5,20,19:00,14.2,14,98,18,5,12.9,99.66,,,Rain,5.006
20-05-2023 20:00,5,20,20:00,14.1,13.9,99,19,9,12.9,99.64,,,Drizzle,5.014
20-05-2023 21:00,5,20,21:00,13.7,13.5,99,17,8,12.9,99.57,,,NA,4.988
20-05-2023 22:00,5,20,22:00,13.6,13.2,98,19,15,3.2,99.53,,,"Moderate Rain Showers,Fog",4.963
20-05-2023 23:00,5,20,23:00,13.4,12.9,97,20,16,12.9,99.47,,,Rain,5.085
21-05-2023 00:00,5,21,00:00,13.2,12.7,97,22,13,12.9,99.44,,,NA,4.994
21-05-2023 01:00,5,21,01:00,12.4,11.4,94,24,16,12.9,99.45,,,Cloudy,5.061
21-05-2023 02:00,5,21,02:00,11,9.8,92,23,23,12.9,99.45,,,NA,5.026
21-05-2023 03:00,5,21,03:00,10.4,9.3,93,23,14,16.1,99.45,,,NA,5.04
21-05-2023 04:00,5,21,04:00,10.5,9.4,93,21,13,16.1,99.47,,,Cloudy,5.019
21-05-2023 05:00,5,21,05:00,10.4,9.7,95,26,14,12.9,99.52,,,NA,4.98
21-05-2023 06:00,5,21,06:00,10.9,10.3,96,25,16,16.1,99.6,,,NA,5.05
21-05-2023 07:00,5,21,07:00,12.6,11.1,91,28,17,24.1,99.69,,,Mostly Cloudy,4.955
21-05-2023 08:00,5,21,08:00,14.8,11.8,82,30,18,24.1,99.77,,,NA,4.973
21-05-2023 09:00,5,21,09:00,16,12.7,81,30,22,24.1,99.86,,,NA,4.997
21-05-2023 10:00,5,21,10:00,17.4,12.2,72,28,16,24.1,99.91,,,Mainly Clear,5.031
21-05-2023 11:00,5,21,11:00,18.9,11.5,61,29,19,24.1,99.97,,,NA,5
21-05-2023 12:00,5,21,12:00,20.1,10.1,52,29,18,24.1,99.99,,,NA,5.009
21-05-2023 13:00,5,21,13:00,21,10.8,52,27,22,24.1,99.99,,,Mostly Cloudy,5.051
21-05-2023 14:00,5,21,14:00,21.8,11.4,51,26,23,24.1,100,,,NA,5.028
21-05-2023 15:00,5,21,15:00,19,11,60,35,19,24.1,100.08,,,NA,5.031
21-05-2023 16:00,5,21,16:00,21.3,12.2,56,35,20,24.1,100.11,,,Mainly Clear,5.061
21-05-2023 17:00,5,21,17:00,20.4,9.4,49,35,25,24.1,100.18,,,NA,4.967
21-05-2023 18:00,5,21,18:00,19,4.4,38,35,24,24.1,100.26,,,NA,4.949
21-05-2023 19:00,5,21,19:00,17.1,0.8,33,36,30,24.1,100.35,,,Mainly Clear,5.048
21-05-2023 20:00,5,21,20:00,14.7,-0.6,35,36,16,24.1,100.47,,,NA,5.036
21-05-2023 21:00,5,21,21:00,12.7,-0.6,40,36,13,24.1,100.61,,,NA,4.842
21-05-2023 22:00,5,21,22:00,11.8,-2.7,36,1,23,24.1,100.67,,,Clear,4.981
21-05-2023 23:00,5,21,23:00,10.2,-2.3,41,36,16,24.1,100.75,,,NA,4.876
22-05-2023 00:00,5,22,00:00,8.8,-2.3,46,1,17,24.1,100.81,,,NA,4.872
22-05-2023 01:00,5,22,01:00,7.9,-2.3,48,1,18,24.1,100.87,,,Clear,4.95
22-05-2023 02:00,5,22,02:00,6.4,-2.3,54,3,15,24.1,100.93,,,NA,4.793
22-05-2023 03:00,5,22,03:00,5.9,-1.9,57,1,18,24.1,101,,,NA,4.895
22-05-2023 04:00,5,22,04:00,5.4,-2.7,56,2,20,24.1,101.04,,,Clear,4.894
22-05-2023 05:00,5,22,05:00,4.7,-1.8,62,3,15,24.1,101.13,,,NA,4.866
22-05-2023 06:00,5,22,06:00,5.9,-0.9,61,3,16,24.1,101.21,,,NA,4.911
22-05-2023 07:00,5,22,07:00,7.2,-1.4,54,7,21,24.1,101.29,,,Clear,4.849
22-05-2023 08:00,5,22,08:00,8.8,-0.6,52,6,19,24.1,101.32,,,NA,4.897
22-05-2023 09:00,5,22,09:00,10.2,-0.4,48,5,16,24.1,101.33,,,NA,4.88
22-05-2023 10:00,5,22,10:00,11.7,-0.5,43,4,8,24.1,101.32,,,Clear,4.865
22-05-2023 11:00,5,22,11:00,12.2,-0.1,43,6,14,24.1,101.31,,,NA,4.89
22-05-2023 12:00,5,22,12:00,13.3,-0.5,39,35,6,24.1,101.26,,,NA,4.865
22-05-2023 13:00,5,22,13:00,14.8,-0.6,35,11,9,24.1,101.22,,,Clear,4.898
22-05-2023 14:00,5,22,14:00,15.8,0.2,34,3,11,24.1,101.18,,,NA,4.954
22-05-2023 15:00,5,22,15:00,15.9,-0.2,33,36,2,24.1,101.13,,,NA,4.88
22-05-2023 16:00,5,22,16:00,16.3,-1.2,30,8,7,24.1,101.1,,,Clear,4.933
22-05-2023 17:00,5,22,17:00,16.5,-3,26,27,3,24.1,101.08,,,NA,4.997
22-05-2023 18:00,5,22,18:00,16.2,-0.3,32,18,7,24.1,101.11,,,NA,4.896
22-05-2023 19:00,5,22,19:00,13.6,1.4,43,16,8,24.1,101.12,,,Mainly Clear,4.935
22-05-2023 20:00,5,22,20:00,12,0.4,45,16,8,24.1,101.14,,,NA,4.908
22-05-2023 21:00,5,22,21:00,11.5,0.6,47,17,9,24.1,101.21,,,NA,4.941
22-05-2023 22:00,5,22,22:00,8.8,0.5,56,15,9,24.1,101.19,,,Clear,4.896
22-05-2023 23:00,5,22,23:00,9.3,-0.2,51,14,9,24.1,101.17,,,NA,5.014
23-05-2023 00:00,5,23,00:00,6.6,0.3,64,17,3,24.1,101.16,,,NA,4.964
23-05-2023 01:00,5,23,01:00,5.9,1,70,3,4,24.1,101.16,,,Clear,4.926
23-05-2023 02:00,5,23,02:00,5.6,1.2,73,5,4,24.1,101.17,,,NA,4.916
23-05-2023 03:00,5,23,03:00,3.8,2,88,4,7,24.1,101.17,,,NA,4.964
23-05-2023 04:00,5,23,04:00,3.9,2,87,6,5,24.1,101.2,,,Mainly Clear,4.906
23-05-2023 05:00,5,23,05:00,4.1,2.7,91,5,8,24.1,101.22,,,NA,4.975
23-05-2023 06:00,5,23,06:00,7.2,5,86,7,6,24.1,101.23,,,NA,4.901
23-05-2023 07:00,5,23,07:00,10.2,3.6,63,8,7,24.1,101.26,,,Mainly Clear,4.931
23-05-2023 08:00,5,23,08:00,12.9,2.2,48,7,6,24.1,101.24,,,NA,4.921
23-05-2023 09:00,5,23,09:00,14.7,1.4,40,13,10,24.1,101.21,,,NA,4.91
23-05-2023 10:00,5,23,10:00,17,-0.2,31,12,10,24.1,101.17,,,Mainly Clear,4.954
23-05-2023 11:00,5,23,11:00,18.2,-0.2,28,20,4,24.1,101.12,,,NA,4.909
23-05-2023 12:00,5,23,12:00,19.9,0.2,27,19,8,24.1,101.05,,,NA,4.976
23-05-2023 13:00,5,23,13:00,20.6,1.3,27,18,6,24.1,100.95,,,Mostly Cloudy,4.88
23-05-2023 14:00,5,23,14:00,21.9,2.1,27,19,5,24.1,100.84,,,NA,5.017
23-05-2023 15:00,5,23,15:00,23,3.5,28,19,14,24.1,100.74,,,NA,4.95
23-05-2023 16:00,5,23,16:00,23.5,4.3,28,19,17,24.1,100.63,,,Mostly Cloudy,4.92
23-05-2023 17:00,5,23,17:00,22.9,4.5,30,19,16,24.1,100.58,,,NA,5
23-05-2023 18:00,5,23,18:00,21.8,4.8,33,20,18,24.1,100.51,,,NA,4.871
23-05-2023 19:00,5,23,19:00,19.5,5.4,39,21,10,24.1,100.49,,,Mostly Cloudy,4.914
23-05-2023 20:00,5,23,20:00,16.5,5.9,49,17,7,24.1,100.43,,,NA,4.934
23-05-2023 21:00,5,23,21:00,15.9,5.5,50,19,9,24.1,100.43,,,NA,4.889
23-05-2023 22:00,5,23,22:00,15.7,4.6,47,20,14,24.1,100.39,,,Mostly Cloudy,4.948
23-05-2023 23:00,5,23,23:00,14.9,3.9,47,20,9,24.1,100.33,,,NA,4.916
24-05-2023 00:00,5,24,00:00,15.6,4,46,23,16,24.1,100.29,,,NA,4.888
24-05-2023 01:00,5,24,01:00,13.7,5.5,57,28,9,24.1,100.26,,,Cloudy,4.953
24-05-2023 02:00,5,24,02:00,13.6,6.9,64,30,13,24.1,100.25,,,NA,4.881
24-05-2023 03:00,5,24,03:00,15.3,8.2,62,34,15,24.1,100.28,,,NA,4.92
24-05-2023 04:00,5,24,04:00,14.1,8.5,69,31,8,24.1,100.25,,,Cloudy,4.839
24-05-2023 05:00,5,24,05:00,14.3,8.7,69,32,11,24.1,100.3,,,NA,4.795
24-05-2023 06:00,5,24,06:00,13.1,10.4,84,32,11,16.1,100.35,,,Rain,4.781
24-05-2023 07:00,5,24,07:00,11.9,10.8,93,31,15,4.8,100.44,,,Rain,4.862
24-05-2023 08:00,5,24,08:00,10.7,9.7,93,36,16,4.8,100.5,,,"Rain,Fog",4.948
24-05-2023 09:00,5,24,09:00,9,8.1,94,33,28,24.1,100.57,,,Rain,4.944
24-05-2023 10:00,5,24,10:00,7.7,6.4,92,35,24,24.1,100.63,,,Rain,5.035
24-05-2023 11:00,5,24,11:00,7.8,5.2,84,34,29,24.1,100.73,,,NA,4.911
24-05-2023 12:00,5,24,12:00,10.4,3.8,63,36,30,24.1,100.72,,,NA,5
24-05-2023 13:00,5,24,13:00,11.6,1.6,50,34,34,24.1,100.72,,,Clear,4.895
24-05-2023 14:00,5,24,14:00,12.7,2.2,49,34,33,24.1,100.74,,,NA,4.969
24-05-2023 15:00,5,24,15:00,12.5,0.9,45,33,34,24.1,100.77,,,NA,4.869
24-05-2023 16:00,5,24,16:00,12.6,0.3,43,33,25,24.1,100.79,,,Clear,4.959
24-05-2023 17:00,5,24,17:00,12.1,-0.6,41,1,24,24.1,100.83,,,NA,4.785
24-05-2023 18:00,5,24,18:00,10.6,-0.7,45,36,28,24.1,100.89,,,NA,4.872
24-05-2023 19:00,5,24,19:00,9.7,-1.2,47,35,22,24.1,100.93,,,Mainly Clear,4.822
24-05-2023 20:00,5,24,20:00,8.6,-1,51,34,22,24.1,100.97,,,NA,4.849
24-05-2023 21:00,5,24,21:00,8.1,-0.7,54,33,19,24.1,101.03,,,NA,4.84
24-05-2023 22:00,5,24,22:00,6.8,0.4,64,33,21,24.1,101.06,,,Clear,4.886
24-05-2023 23:00,5,24,23:00,6.3,0.6,66,33,21,24.1,101.08,,,NA,4.882
25-05-2023 00:00,5,25,00:00,6.3,0.4,66,34,21,24.1,101.11,,,NA,4.902
25-05-2023 01:00,5,25,01:00,5.6,0.3,69,34,18,24.1,101.09,,,Clear,4.878
25-05-2023 02:00,5,25,02:00,5.1,-0.1,69,35,24,24.1,101.09,,,NA,4.888
25-05-2023 03:00,5,25,03:00,4.7,-0.1,71,35,18,24.1,101.09,,,NA,4.996
25-05-2023 04:00,5,25,04:00,4.2,-0.2,73,35,16,24.1,101.11,,,Clear,4.873
25-05-2023 05:00,5,25,05:00,4.2,0,74,33,16,24.1,101.15,,,NA,4.982
25-05-2023 06:00,5,25,06:00,5.2,0.1,70,35,22,24.1,101.19,,,NA,4.898
25-05-2023 07:00,5,25,07:00,6.7,0.3,64,35,19,24.1,101.22,,,Clear,4.888
25-05-2023 08:00,5,25,08:00,9,0.9,57,35,16,24.1,101.24,,,NA,4.977
25-05-2023 09:00,5,25,09:00,10.1,1.3,54,32,15,24.1,101.23,,,NA,4.88
25-05-2023 10:00,5,25,10:00,11.8,2.1,51,28,12,24.1,101.2,,,Clear,4.97
25-05-2023 11:00,5,25,11:00,14.1,-1.6,34,33,26,24.1,101.18,,,NA,4.951
25-05-2023 12:00,5,25,12:00,14.7,-1.6,32,34,20,24.1,101.14,,,NA,4.879
25-05-2023 13:00,5,25,13:00,15.5,-1.5,31,36,16,24.1,101.1,,,Clear,4.973
25-05-2023 14:00,5,25,14:00,16.5,-1.1,30,2,17,24.1,101.06,,,NA,4.965
25-05-2023 15:00,5,25,15:00,16.7,-1.2,29,33,14,24.1,101.01,,,NA,4.966
25-05-2023 16:00,5,25,16:00,17.5,-0.5,29,31,23,24.1,100.96,,,Clear,4.904
25-05-2023 17:00,5,25,17:00,17.2,-1,29,34,18,24.1,100.91,,,NA,4.96
25-05-2023 18:00,5,25,18:00,16.8,-0.5,31,36,17,24.1,100.91,,,NA,4.951
25-05-2023 19:00,5,25,19:00,15.5,-1,32,1,13,24.1,100.95,,,Clear,4.884
25-05-2023 20:00,5,25,20:00,14.8,-1.5,32,36,7,24.1,100.99,,,NA,4.932
25-05-2023 21:00,5,25,21:00,12.8,-0.3,40,33,8,24.1,101.02,,,NA,4.857
25-05-2023 22:00,5,25,22:00,10.6,0.7,50,31,9,24.1,101.04,,,Clear,4.915
25-05-2023 23:00,5,25,23:00,9.1,2,61,30,7,24.1,101.06,,,NA,4.955
26-05-2023 00:00,5,26,00:00,7.7,2.6,70,32,12,24.1,101.07,,,NA,4.904
26-05-2023 01:00,5,26,01:00,7.4,3.5,76,32,9,24.1,101.07,,,Clear,4.915
26-05-2023 02:00,5,26,02:00,6.1,3.3,82,33,12,24.1,101.08,,,NA,5
26-05-2023 03:00,5,26,03:00,5,1.4,77,33,10,24.1,101.1,,,NA,4.906
26-05-2023 04:00,5,26,04:00,4.5,2.1,85,31,12,24.1,101.14,,,Clear,4.928
26-05-2023 05:00,5,26,05:00,5.1,2.3,82,30,8,24.1,101.21,,,NA,4.956
26-05-2023 06:00,5,26,06:00,8,4.2,77,30,8,24.1,101.27,,,NA,4.871
26-05-2023 07:00,5,26,07:00,11.3,4.7,64,31,8,24.1,101.34,,,Clear,4.001
26-05-2023 08:00,5,26,08:00,14.7,3.2,46,33,13,24.1,101.38,,,NA,4.912
26-05-2023 09:00,5,26,09:00,16.9,1.2,35,36,15,24.1,101.36,,,NA,4.934
26-05-2023 10:00,5,26,10:00,17.7,0.5,31,32,18,24.1,101.33,,,Clear,4.989
26-05-2023 11:00,5,26,11:00,18.4,0.7,30,30,19,24.1,101.3,,,NA,4.96
26-05-2023 12:00,5,26,12:00,19.3,-1,25,33,17,24.1,101.23,,,NA,4.9
26-05-2023 13:00,5,26,13:00,19.4,-1.4,24,30,7,24.1,101.21,,,Clear,5.02
26-05-2023 14:00,5,26,14:00,20.3,0.9,27,35,6,24.1,101.17,,,NA,4.985
26-05-2023 15:00,5,26,15:00,19.9,2.7,32,34,14,24.1,101.15,,,NA,5.008
26-05-2023 16:00,5,26,16:00,20.1,4.3,35,25,10,24.1,101.12,,,Mostly Cloudy,4.964
26-05-2023 17:00,5,26,17:00,20.6,3.7,32,25,14,24.1,101.09,,,NA,4.965
26-05-2023 18:00,5,26,18:00,21.1,1.6,27,28,17,24.1,101.05,,,NA,5.005
26-05-2023 19:00,5,26,19:00,17.9,3.4,38,27,8,24.1,101.04,,,Mostly Cloudy,4.922
26-05-2023 20:00,5,26,20:00,17.8,2.2,35,21,5,24.1,101.05,,,NA,4.991
26-05-2023 21:00,5,26,21:00,15.9,3.4,43,19,9,24.1,101.08,,,NA,4.96
26-05-2023 22:00,5,26,22:00,11.5,4.2,61,19,9,24.1,101.14,,,Mostly Cloudy,4.954
26-05-2023 23:00,5,26,23:00,13,4.5,56,21,10,24.1,101.12,,,NA,5.004
27-05-2023 00:00,5,27,00:00,11.3,5.3,66,21,10,24.1,101.12,,,NA,4.961
27-05-2023 01:00,5,27,01:00,11.3,5.4,67,22,8,24.1,101.12,,,Clear,5.007
27-05-2023 02:00,5,27,02:00,9.6,5.5,75,20,9,24.1,101.18,,,NA,4.98
27-05-2023 03:00,5,27,03:00,8.8,5.4,79,19,11,24.1,101.19,,,NA,4.93
27-05-2023 04:00,5,27,04:00,7.9,5.2,83,20,12,24.1,101.18,,,Clear,4.969
27-05-2023 05:00,5,27,05:00,8,5.2,83,22,8,24.1,101.22,,,NA,4.953
27-05-2023 06:00,5,27,06:00,9.6,6.2,80,20,7,24.1,101.27,,,NA,4.975
27-05-2023 07:00,5,27,07:00,12.7,7.2,69,28,8,24.1,101.29,,,Clear,4.94
27-05-2023 08:00,5,27,08:00,16.3,6.3,51,26,9,24.1,101.29,,,NA,4.934
27-05-2023 09:00,5,27,09:00,19.4,5.5,40,29,10,24.1,101.27,,,NA,4.961
27-05-2023 10:00,5,27,10:00,21.6,6,36,28,7,24.1,101.25,,,Clear,4.986
27-05-2023 11:00,5,27,11:00,23.9,5.3,30,24,13,24.1,101.2,,,NA,4.981
27-05-2023 12:00,5,27,12:00,25.5,2.1,21,29,15,24.1,101.14,,,NA,4.903
27-05-2023 13:00,5,27,13:00,26.4,5.8,26,23,11,24.1,101.07,26,,Clear,5.001
27-05-2023 14:00,5,27,14:00,27.5,5,23,26,17,24.1,100.99,27,,NA,4.966
27-05-2023 15:00,5,27,15:00,27.8,5.8,24,25,21,24.1,100.93,27,,NA,4.882
27-05-2023 16:00,5,27,16:00,28,4.7,22,26,16,24.1,100.87,27,,Clear,5.025
27-05-2023 17:00,5,27,17:00,27.4,6.1,25,20,13,24.1,100.81,27,,NA,4.877
27-05-2023 18:00,5,27,18:00,26.3,5.8,27,21,12,24.1,100.78,26,,NA,4.964
27-05-2023 19:00,5,27,19:00,23.9,8.8,38,21,18,24.1,100.79,25,,Clear,4.859
27-05-2023 20:00,5,27,20:00,20.7,9.9,49,20,10,24.1,100.81,,,NA,4.996
27-05-2023 21:00,5,27,21:00,19.1,9.3,53,19,11,24.1,100.84,,,NA,4.845
27-05-2023 22:00,5,27,22:00,17.2,8.3,55,20,10,24.1,100.83,,,Clear,4.987
27-05-2023 23:00,5,27,23:00,16.6,7.3,54,23,12,24.1,100.86,,,NA,4.993
28-05-2023 00:00,5,28,00:00,14.6,7,60,24,8,24.1,100.83,,,NA,4.884
28-05-2023 01:00,5,28,01:00,14.1,7,62,22,13,24.1,100.81,,,Clear,4.998
28-05-2023 02:00,5,28,02:00,12.8,6.9,67,23,10,24.1,100.8,,,NA,4.954
28-05-2023 03:00,5,28,03:00,11.7,6.9,72,21,10,24.1,100.76,,,NA,4.934
28-05-2023 04:00,5,28,04:00,10.5,6.4,76,19,5,24.1,100.74,,,Clear,4.945
28-05-2023 05:00,5,28,05:00,10.6,6.8,77,20,12,24.1,100.71,,,NA,4.891
28-05-2023 06:00,5,28,06:00,13,8.1,72,21,9,24.1,100.7,,,NA,4.981
28-05-2023 07:00,5,28,07:00,17.1,5.9,47,26,13,24.1,100.66,,,Clear,4.882
28-05-2023 08:00,5,28,08:00,19.2,4.8,38,28,19,24.1,100.65,,,NA,5.016
28-05-2023 09:00,5,28,09:00,20.8,5.3,36,29,16,24.1,100.6,,,NA,4.931
28-05-2023 10:00,5,28,10:00,23.4,7.2,35,25,15,24.1,100.55,,,Clear,4.937
28-05-2023 11:00,5,28,11:00,25.3,7.1,31,26,14,24.1,100.51,25,,NA,5.021
28-05-2023 12:00,5,28,12:00,27.4,8.6,30,24,17,24.1,100.44,28,,NA,4.893
28-05-2023 13:00,5,28,13:00,29,9.1,28,28,10,24.1,100.36,30,,Clear,5.016
28-05-2023 14:00,5,28,14:00,29.6,4,19,29,21,24.1,100.27,29,,NA,4.942
28-05-2023 15:00,5,28,15:00,29.9,4.9,20,28,18,24.1,100.22,29,,NA,4.986
28-05-2023 16:00,5,28,16:00,30.2,6.7,22,29,13,24.1,100.13,30,,Clear,4.938
28-05-2023 17:00,5,28,17:00,29.5,6.1,22,28,20,24.1,100.1,29,,NA,4.984
28-05-2023 18:00,5,28,18:00,28.7,6.4,24,26,16,24.1,100.06,28,,NA,4.924
28-05-2023 19:00,5,28,19:00,26.1,8.5,32,27,10,24.1,100.06,27,,Clear,4.752
28-05-2023 20:00,5,28,20:00,26.2,10.1,36,1,29,24.1,100.13,28,,NA,4.829
28-05-2023 21:00,5,28,21:00,24.9,12.3,45,1,28,24.1,100.2,27,,NA,4.804
28-05-2023 22:00,5,28,22:00,23.1,11.2,47,1,17,24.1,100.26,25,,Clear,4.864
28-05-2023 23:00,5,28,23:00,20.5,7.9,44,4,12,24.1,100.3,,,NA,4.796
29-05-2023 00:00,5,29,00:00,19.3,4.7,38,3,18,24.1,100.36,,,NA,4.91
29-05-2023 01:00,5,29,01:00,17.9,4.2,40,4,31,24.1,100.4,,,Clear,4.906
29-05-2023 02:00,5,29,02:00,15.5,4.1,46,5,15,24.1,100.48,,,NA,4.803
29-05-2023 03:00,5,29,03:00,13.2,4.3,55,5,16,24.1,100.52,,,NA,4.865
29-05-2023 04:00,5,29,04:00,14.2,3.6,49,6,25,24.1,100.54,,,Clear,4.799
29-05-2023 05:00,5,29,05:00,13.6,3.4,50,6,19,24.1,100.62,,,NA,4.802
29-05-2023 06:00,5,29,06:00,14.8,3.8,47,7,25,24.1,100.67,,,NA,4.872
29-05-2023 07:00,5,29,07:00,16.1,4,44,6,25,24.1,100.7,,,Clear,4.74
29-05-2023 08:00,5,29,08:00,17.4,3,38,8,30,24.1,100.77,,,NA,4.844
29-05-2023 09:00,5,29,09:00,18.9,3.8,37,9,32,24.1,100.78,,,NA,4.761
29-05-2023 10:00,5,29,10:00,20.4,4.5,35,7,30,24.1,100.77,,,Mainly Clear,4.816
29-05-2023 11:00,5,29,11:00,21.4,4.6,33,4,18,24.1,100.76,,,NA,4.756
29-05-2023 12:00,5,29,12:00,22.1,3.1,28,7,29,24.1,100.71,,,NA,4.801
29-05-2023 13:00,5,29,13:00,23.1,4.6,30,7,27,24.1,100.66,,,Mainly Clear,4.819
29-05-2023 14:00,5,29,14:00,23.6,2.8,25,8,27,24.1,100.6,,,NA,4.781
29-05-2023 15:00,5,29,15:00,23.9,3.2,26,7,33,24.1,100.56,,,NA,4.761
29-05-2023 16:00,5,29,16:00,23.7,0.1,21,7,15,24.1,100.52,,,Mainly Clear,4.799
29-05-2023 17:00,5,29,17:00,23.4,1.7,24,5,23,24.1,100.51,,,NA,4.856
29-05-2023 18:00,5,29,18:00,22.3,1.4,25,6,27,24.1,100.51,,,NA,4.848
29-05-2023 19:00,5,29,19:00,20.3,1.9,29,8,14,24.1,100.52,,,Mainly Clear,4.896
29-05-2023 20:00,5,29,20:00,17.5,1.7,34,8,10,24.1,100.54,,,NA,4.889
29-05-2023 21:00,5,29,21:00,15.5,1.5,38,9,12,24.1,100.58,,,NA,4.918
29-05-2023 22:00,5,29,22:00,13.7,1.5,43,8,11,24.1,100.59,,,Clear,4.917
29-05-2023 23:00,5,29,23:00,12.2,1.2,47,4,16,24.1,100.61,,,NA,4.899
30-05-2023 00:00,5,30,00:00,10.8,1.3,52,4,17,24.1,100.57,,,NA,4.929
30-05-2023 01:00,5,30,01:00,10.4,1.6,54,5,17,24.1,100.56,,,Clear,4.913
30-05-2023 02:00,5,30,02:00,9.8,2.2,59,4,14,24.1,100.54,,,NA,4.874
30-05-2023 03:00,5,30,03:00,8.3,2.8,68,4,16,24.1,100.53,,,NA,4.945
30-05-2023 04:00,5,30,04:00,8.3,2.9,69,5,13,24.1,100.57,,,Mainly Clear,4.936
30-05-2023 05:00,5,30,05:00,9.3,3.8,68,5,16,24.1,100.62,,,NA,4.892
30-05-2023 06:00,5,30,06:00,12.8,4.2,56,7,15,24.1,100.66,,,NA,4.969
30-05-2023 07:00,5,30,07:00,14.9,5.4,53,9,10,24.1,100.71,,,Clear,4.915
30-05-2023 08:00,5,30,08:00,17.9,8,52,12,13,24.1,100.7,,,NA,4.875
30-05-2023 09:00,5,30,09:00,20.4,9.6,49,21,9,24.1,100.69,,,NA,4.887
30-05-2023 10:00,5,30,10:00,21.2,10.1,49,36,1,24.1,100.68,,,Clear,4.897
30-05-2023 11:00,5,30,11:00,22.9,10.9,46,13,5,24.1,100.65,25,,NA,4.943
30-05-2023 12:00,5,30,12:00,24.4,11.5,44,19,12,24.1,100.59,26,,NA,4.99
30-05-2023 13:00,5,30,13:00,25,9.2,36,24,8,24.1,100.54,26,,Clear,5.008
30-05-2023 14:00,5,30,14:00,26.4,9.6,34,18,7,24.1,100.49,27,,NA,5.033
30-05-2023 15:00,5,30,15:00,27.3,10.2,34,16,7,24.1,100.45,29,,NA,5.076
30-05-2023 16:00,5,30,16:00,27.4,8.5,30,22,12,24.1,100.43,28,,Clear,4.899
30-05-2023 17:00,5,30,17:00,27.2,7.9,29,25,7,24.1,100.4,28,,NA,5.023
30-05-2023 18:00,5,30,18:00,26.3,7.7,30,22,10,24.1,100.4,27,,NA,4.933
30-05-2023 19:00,5,30,19:00,24.7,7.5,33,20,7,24.1,100.39,25,,Clear,5.01
30-05-2023 20:00,5,30,20:00,20.9,7.5,42,17,5,24.1,100.4,,,NA,4.984
30-05-2023 21:00,5,30,21:00,20.9,8.9,46,20,8,24.1,100.47,,,NA,4.946
30-05-2023 22:00,5,30,22:00,19.3,9.7,53,22,8,24.1,100.5,,,Clear,4.991
30-05-2023 23:00,5,30,23:00,19,9.1,52,21,8,24.1,100.5,,,NA,5.017
31-05-2023 00:00,5,31,00:00,15.8,9.2,65,20,9,24.1,100.5,,,NA,4.953
31-05-2023 01:00,5,31,01:00,15.4,9.6,68,22,10,24.1,100.48,,,Clear,5.021
31-05-2023 02:00,5,31,02:00,14.9,10,72,36,3,24.1,100.5,,,NA,5.037
31-05-2023 03:00,5,31,03:00,11.9,9.1,83,18,7,24.1,100.52,,,NA,4.913
31-05-2023 04:00,5,31,04:00,12.2,9.5,83,19,7,24.1,100.57,,,Clear,5.036
31-05-2023 05:00,5,31,05:00,13.2,9.7,80,20,10,24.1,100.62,,,NA,5.026
31-05-2023 06:00,5,31,06:00,15.6,10.5,71,25,4,24.1,100.65,,,NA,5.029
31-05-2023 07:00,5,31,07:00,19.1,11,59,24,9,24.1,100.68,,,Clear,5.039
31-05-2023 08:00,5,31,08:00,22.4,10.2,45,24,9,24.1,100.7,,,NA,5.019
31-05-2023 09:00,5,31,09:00,24.7,10.3,40,24,7,24.1,100.68,26,,NA,1.256
31-05-2023 11:00,5,31,11:00,28,12.1,37,24,5,24.1,100.65,30,,NA,0.431
31-05-2023 12:00,5,31,12:00,30.2,11.3,31,36,2,24.1,100.61,32,,NA,4.587
31-05-2023 15:00,5,31,15:00,32,10.2,26,30,14,24.1,100.45,33,,NA,3.046
31-05-2023 16:00,5,31,16:00,31.8,10.7,27,30,11,24.1,100.42,33,,Clear,5.044
31-05-2023 17:00,5,31,17:00,31.9,7.3,21,31,13,24.1,100.39,32,,NA,4.945
31-05-2023 18:00,5,31,18:00,30.5,10.9,29,24,7,24.1,100.38,32,,NA,5.007
31-05-2023 19:00,5,31,19:00,27.7,11.4,36,27,4,24.1,100.38,30,,Clear,4.958
31-05-2023 20:00,5,31,20:00,25.3,12.2,43,36,3,24.1,100.39,28,,NA,4.961
31-05-2023 21:00,5,31,21:00,24.3,13.1,49,20,9,24.1,100.46,27,,NA,5.049
31-05-2023 22:00,5,31,22:00,22.8,14.2,58,19,10,24.1,100.5,26,,Clear,5.016
31-05-2023 23:00,5,31,23:00,21.5,14.3,63,21,7,24.1,100.52,25,,NA,5.023
01-06-2023 00:00,6,1,00:00,19.4,14.3,72,19,8,24.1,100.52,,,NA,5.018
01-06-2023 01:00,6,1,01:00,18.5,14.4,77,19,8,24.1,100.5,,,Clear,5.054
01-06-2023 02:00,6,1,02:00,18.5,14.2,76,24,8,24.1,100.49,,,NA,5.035
01-06-2023 03:00,6,1,03:00,17.1,14.4,84,36,1,24.1,100.51,,,NA,5.118
01-06-2023 04:00,6,1,04:00,15.5,13.2,86,24,5,24.1,100.52,,,Mainly Clear,5.026
01-06-2023 05:00,6,1,05:00,15.9,14,88,20,7,24.1,100.57,,,NA,5.024
01-06-2023 06:00,6,1,06:00,19,15.3,79,26,6,24.1,100.59,,,NA,5.033
01-06-2023 07:00,6,1,07:00,22.1,15.4,65,24,5,24.1,100.59,26,,Mainly Clear,5.074
01-06-2023 08:00,6,1,08:00,24.8,16.3,59,25,7,24.1,100.61,30,,NA,5.076
01-06-2023 09:00,6,1,09:00,28.4,14.3,41,34,8,24.1,100.6,32,,NA,4.978
01-06-2023 10:00,6,1,10:00,29.8,14.5,39,35,8,24.1,100.6,33,,Mainly Clear,4.916
01-06-2023 11:00,6,1,11:00,31.2,14.2,35,29,8,24.1,100.58,35,,NA,4.847
01-06-2023 12:00,6,1,12:00,32,14.8,35,36,1,24.1,100.51,36,,NA,4.842
01-06-2023 13:00,6,1,13:00,33.4,14.6,32,18,6,24.1,100.44,37,,Mostly Cloudy,4.941
01-06-2023 14:00,6,1,14:00,33.4,12.3,27,36,3,24.1,100.36,36,,NA,4.998
01-06-2023 15:00,6,1,15:00,34.1,12.4,26,25,19,24.1,100.3,37,,NA,5.112
01-06-2023 16:00,6,1,16:00,33.9,12.4,27,29,19,24.1,100.26,36,,Mainly Clear,5.045
01-06-2023 17:00,6,1,17:00,33.1,11.3,26,33,19,24.1,100.24,35,,NA,5.062
01-06-2023 18:00,6,1,18:00,32.2,11,27,30,15,24.1,100.26,34,,NA,5.029
01-06-2023 19:00,6,1,19:00,30,11.2,31,28,10,24.1,100.27,32,,Mainly Clear,5.003
01-06-2023 20:00,6,1,20:00,28,13.1,39,5,34,24.1,100.34,31,,NA,5.055
01-06-2023 21:00,6,1,21:00,24.7,13.4,49,6,21,24.1,100.39,28,,NA,5.019
01-06-2023 22:00,6,1,22:00,21.5,13.7,61,36,3,24.1,100.36,25,,Clear,5.055
01-06-2023 23:00,6,1,23:00,22.1,13.6,58,36,3,24.1,100.33,25,,NA,5.049
02-06-2023 00:00,6,2,00:00,22.5,14.6,60,4,12,24.1,100.38,26,,NA,5.033
02-06-2023 01:00,6,2,01:00,22.1,14.6,62,36,11,24.1,100.31,26,,Clear,4.98
02-06-2023 02:00,6,2,02:00,20.1,14.6,70,25,8,24.1,100.25,,,NA,4.988
02-06-2023 03:00,6,2,03:00,20.1,14.6,70,29,4,24.1,100.21,,,NA,4.902
02-06-2023 04:00,6,2,04:00,21.9,14.9,64,35,13,24.1,100.22,26,,Mainly Clear,4.847
02-06-2023 05:00,6,2,05:00,21.5,15.3,67,35,16,24.1,100.28,26,,NA,4.813
02-06-2023 06:00,6,2,06:00,22.3,15.9,67,1,9,24.1,100.29,27,,NA,4.844
02-06-2023 07:00,6,2,07:00,23.6,15.9,61,35,14,24.1,100.29,28,,Mostly Cloudy,4.908
02-06-2023 08:00,6,2,08:00,25.7,16.9,58,34,12,24.1,100.3,31,,NA,4.932
02-06-2023 09:00,6,2,09:00,26,16.7,56,32,14,24.1,100.3,31,,NA,4.931
02-06-2023 10:00,6,2,10:00,29.8,14.9,40,1,18,24.1,100.27,34,,Mostly Cloudy,5.023
02-06-2023 11:00,6,2,11:00,30.1,14.7,38,4,11,24.1,100.23,34,,NA,5.067
02-06-2023 12:00,6,2,12:00,31.7,12.4,30,33,20,24.1,100.2,34,,NA,5.068
02-06-2023 13:00,6,2,13:00,32.1,13.8,32,30,15,24.1,100.14,35,,Mostly Cloudy,5.015
02-06-2023 14:00,6,2,14:00,31.2,16.1,40,33,20,24.1,100.07,36,,NA,4.968
02-06-2023 15:00,6,2,15:00,31.7,17,41,35,22,24.1,100.04,37,,NA,4.969
02-06-2023 16:00,6,2,16:00,32.1,16.5,38,35,20,24.1,100.02,37,,Mostly Cloudy,4.977
02-06-2023 17:00,6,2,17:00,29.6,17.4,47,7,21,24.1,99.98,35,,NA,5.049
02-06-2023 18:00,6,2,18:00,28.6,16.3,47,34,20,24.1,100,33,,NA,5.105
02-06-2023 19:00,6,2,19:00,26.9,17.2,54,32,16,24.1,99.99,32,,Mostly Cloudy,5.061
02-06-2023 20:00,6,2,20:00,25.6,16,55,33,12,24.1,100.05,30,,NA,5.072
02-06-2023 21:00,6,2,21:00,25,13.2,47,2,26,24.1,100.12,28,,NA,5.11
02-06-2023 22:00,6,2,22:00,19.7,13,65,8,45,24.1,100.32,,,Mostly Cloudy,5.027
02-06-2023 23:00,6,2,23:00,16.9,11.4,70,7,34,24.1,100.45,,,NA,5.016
03-06-2023 00:00,6,3,00:00,15.6,10.4,71,8,41,24.1,100.54,,,NA,5.061
03-06-2023 01:00,6,3,01:00,14.5,9.8,73,6,32,24.1,100.56,,,Mainly Clear,5.08
03-06-2023 02:00,6,3,02:00,13.6,9.1,74,7,29,24.1,100.61,,,NA,5.049
03-06-2023 03:00,6,3,03:00,12.8,9.1,78,6,26,24.1,100.64,,,NA,5
03-06-2023 04:00,6,3,04:00,11.7,8.7,82,4,16,24.1,100.65,,,Mainly Clear,5.032
03-06-2023 05:00,6,3,05:00,12.3,8,75,5,22,24.1,100.69,,,NA,5.036
03-06-2023 06:00,6,3,06:00,13.6,7.9,68,4,29,24.1,100.77,,,NA,5.072
03-06-2023 07:00,6,3,07:00,14.3,6.4,59,5,35,24.1,100.85,,,Mainly Clear,5.059
03-06-2023 08:00,6,3,08:00,15.6,6.6,55,7,37,24.1,100.87,,,NA,5.044
03-06-2023 09:00,6,3,09:00,17.2,7.2,51,6,30,24.1,100.91,,,NA,4.96
03-06-2023 10:00,6,3,10:00,18,6.2,45,7,32,24.1,100.93,,,Mainly Clear,4.968
03-06-2023 11:00,6,3,11:00,19.8,3.6,34,6,35,24.1,100.94,,,NA,5.008
03-06-2023 12:00,6,3,12:00,19.6,4.8,37,5,28,24.1,100.93,,,NA,4.938
03-06-2023 13:00,6,3,13:00,20.4,4.1,34,5,31,24.1,100.9,,,Mainly Clear,4.981
03-06-2023 14:00,6,3,14:00,21.3,2.5,29,8,35,24.1,100.88,,,NA,5.008
03-06-2023 15:00,6,3,15:00,21.1,2.2,28,9,36,24.1,100.84,,,NA,4.927
03-06-2023 16:00,6,3,16:00,21,1.7,27,8,36,24.1,100.81,,,Mainly Clear,4.916
03-06-2023 17:00,6,3,17:00,20.3,0.2,26,13,18,24.1,100.79,,,NA,4.97
03-06-2023 18:00,6,3,18:00,19.4,0.7,28,11,15,24.1,100.79,,,NA,4.855
03-06-2023 19:00,6,3,19:00,16.8,2.8,39,15,7,24.1,100.8,,,Mainly Clear,4.874
03-06-2023 20:00,6,3,20:00,15.9,0.7,35,15,9,24.1,100.82,,,NA,4.968
03-06-2023 21:00,6,3,21:00,13.3,2.2,47,10,4,24.1,100.86,,,NA,4.927
03-06-2023 22:00,6,3,22:00,14.4,0.9,40,9,8,24.1,100.86,,,Clear,4.907
03-06-2023 23:00,6,3,23:00,12.6,3.5,54,6,13,24.1,100.92,,,NA,4.923
04-06-2023 00:00,6,4,00:00,11,2.4,55,7,15,24.1,100.89,,,NA,4.942
04-06-2023 01:00,6,4,01:00,9.7,-1.8,44,6,13,24.1,100.87,,,Clear,4.926
04-06-2023 02:00,6,4,02:00,9.1,-1.4,48,1,9,24.1,100.86,,,NA,4.927
04-06-2023 03:00,6,4,03:00,7.7,-1.1,54,4,13,24.1,100.82,,,NA,4.909
04-06-2023 04:00,6,4,04:00,8.2,-1.9,49,2,8,24.1,100.81,,,Mostly Cloudy,4.882
04-06-2023 05:00,6,4,05:00,6.5,-1.6,56,30,3,24.1,100.82,,,NA,4.922
04-06-2023 06:00,6,4,06:00,11,1.2,51,34,11,24.1,100.85,,,NA,4.912
04-06-2023 07:00,6,4,07:00,13.5,3.7,51,2,10,24.1,100.85,,,Mainly Clear,4.911
04-06-2023 08:00,6,4,08:00,15.2,1.5,39,5,18,24.1,100.84,,,NA,4.946
04-06-2023 09:00,6,4,09:00,16.8,1.3,35,1,15,24.1,100.8,,,NA,4.966
04-06-2023 10:00,6,4,10:00,17.7,-1.5,27,34,9,24.1,100.74,,,Mainly Clear,4.948
04-06-2023 11:00,6,4,11:00,19.8,-1.1,24,8,18,24.1,100.69,,,NA,4.944
04-06-2023 12:00,6,4,12:00,21.2,1,26,2,32,24.1,100.63,,,NA,4.901
04-06-2023 13:00,6,4,13:00,21.8,2,27,6,30,24.1,100.56,,,Mainly Clear,4.919
04-06-2023 14:00,6,4,14:00,22.1,2.3,27,1,14,24.1,100.5,,,NA,4.998
04-06-2023 15:00,6,4,15:00,22.7,3.9,29,7,17,24.1,100.46,,,NA,4.893
04-06-2023 16:00,6,4,16:00,21.5,4.2,32,13,16,24.1,100.43,,,Mainly Clear,4.98
04-06-2023 17:00,6,4,17:00,21.9,5.1,33,13,27,24.1,100.41,,,NA,4.907
04-06-2023 18:00,6,4,18:00,20.3,6.6,41,11,30,24.1,100.42,,,NA,4.873
04-06-2023 19:00,6,4,19:00,18.1,6.9,48,13,9,24.1,100.45,,,Clear,4.959
04-06-2023 20:00,6,4,20:00,14.5,6.5,58,13,12,24.1,100.44,,,NA,4.949
04-06-2023 21:00,6,4,21:00,14.5,6.5,58,13,6,24.1,100.48,,,NA,4.892
04-06-2023 22:00,6,4,22:00,13,6.3,64,13,4,24.1,100.44,,,Clear,4.93
04-06-2023 23:00,6,4,23:00,12.7,6.4,66,31,3,24.1,100.38,,,NA,4.944
05-06-2023 00:00,6,5,00:00,9.9,5.7,75,30,4,24.1,100.35,,,NA,4.941
05-06-2023 01:00,6,5,01:00,7.7,5.3,85,36,2,24.1,100.34,,,Mostly Cloudy,4.992
05-06-2023 02:00,6,5,02:00,11.3,7.5,78,32,5,24.1,100.29,,,NA,4.995
05-06-2023 03:00,6,5,03:00,11.4,8.2,81,29,3,24.1,100.25,,,NA,4.88
05-06-2023 04:00,6,5,04:00,11.3,8.9,86,36,2,24.1,100.24,,,Cloudy,5.012
05-06-2023 05:00,6,5,05:00,8.4,7.1,92,9,5,24.1,100.23,,,NA,4.982
05-06-2023 06:00,6,5,06:00,11,9,87,20,6,24.1,100.24,,,NA,4.924
05-06-2023 07:00,6,5,07:00,12.8,9.8,82,23,5,24.1,100.22,,,Cloudy,5.034
05-06-2023 08:00,6,5,08:00,15.6,8.8,64,26,7,24.1,100.18,,,NA,4.905
05-06-2023 09:00,6,5,09:00,17.1,8.2,56,30,8,16.1,100.11,,,NA,5.037
05-06-2023 10:00,6,5,10:00,19.4,7.7,46,1,9,12.9,100.06,,,Cloudy,5.011
05-06-2023 11:00,6,5,11:00,19.6,8,47,7,7,12.9,100.01,,,NA,4.897
05-06-2023 12:00,6,5,12:00,20.3,9.5,49,9,7,12.9,99.96,,,NA,5.048
05-06-2023 13:00,6,5,13:00,20.7,9.4,48,29,10,12.9,99.91,,,Cloudy,5.252
05-06-2023 14:00,6,5,14:00,20,9.4,50,28,10,9.7,99.86,,,Smoke,5.016
05-06-2023 15:00,6,5,15:00,21.4,4.5,33,28,9,9.7,99.81,,,Smoke,5.053
05-06-2023 16:00,6,5,16:00,21.8,7.3,39,29,8,8.1,99.77,,,Smoke,4.985
05-06-2023 17:00,6,5,17:00,21.8,7,38,26,8,6.4,99.72,,,Smoke,4.945
05-06-2023 18:00,6,5,18:00,21,7.3,41,28,8,6.4,99.68,,,Smoke,5.014
05-06-2023 19:00,6,5,19:00,19,8.7,51,26,5,8.1,99.67,,,Smoke,4.923
05-06-2023 20:00,6,5,20:00,18.4,9.2,55,25,5,6.4,99.64,,,Smoke,4.967
05-06-2023 21:00,6,5,21:00,19.6,10.2,54,34,18,6.4,99.68,,,Smoke,5.012
05-06-2023 22:00,6,5,22:00,18,8.3,53,1,9,8.1,99.6,,,Smoke,4.903
05-06-2023 23:00,6,5,23:00,16.1,9.2,63,31,10,6.4,99.58,,,Smoke,5.033
06-06-2023 00:00,6,6,00:00,16.1,10.3,68,33,15,8.1,99.57,,,Smoke,5.029
06-06-2023 01:00,6,6,01:00,14,10.2,78,31,15,6.4,99.49,,,Smoke,5.029
06-06-2023 02:00,6,6,02:00,15.6,10.2,70,34,24,3.2,99.44,,,Smoke,5.056
06-06-2023 03:00,6,6,03:00,14.5,10.1,74,32,16,3.2,99.39,,,Smoke,5.045
06-06-2023 04:00,6,6,04:00,12.8,9.6,80,31,12,3.2,99.41,,,Smoke,5.008
06-06-2023 05:00,6,6,05:00,13.9,9.5,75,35,15,3.2,99.43,,,Smoke,5.063
06-06-2023 06:00,6,6,06:00,13.8,9.3,74,33,18,3.2,99.45,,,Smoke,5.017
06-06-2023 07:00,6,6,07:00,14.1,8.6,69,33,19,3.2,99.43,,,Smoke,5.031
06-06-2023 08:00,6,6,08:00,15.3,8.6,64,34,22,3.2,99.4,,,Smoke,4.975
06-06-2023 09:00,6,6,09:00,17.1,8.9,58,35,19,4.8,99.37,,,Smoke,4.933
06-06-2023 10:00,6,6,10:00,19,8.7,51,36,17,4.8,99.35,,,Smoke,5.06
06-06-2023 11:00,6,6,11:00,19.4,7.2,45,35,23,4.8,99.33,,,Smoke,4.992
06-06-2023 12:00,6,6,12:00,20.1,8.6,47,34,26,4.8,99.28,,,Smoke,4.952
06-06-2023 13:00,6,6,13:00,19.9,8,46,33,25,4.8,99.23,,,Smoke,4.94
06-06-2023 14:00,6,6,14:00,20.8,7.5,42,34,28,4.8,99.18,,,Smoke,4.864
06-06-2023 15:00,6,6,15:00,17.7,6.3,47,5,27,6.4,99.23,,,"Thunderstorms,Smoke",5.001
06-06-2023 16:00,6,6,16:00,15.2,9.6,69,30,10,9.7,99.3,,,"Rain Showers,Smoke",4.987
06-06-2023 17:00,6,6,17:00,15.9,9.8,67,29,14,6.4,99.3,,,Smoke,4.874
06-06-2023 18:00,6,6,18:00,15.9,10.7,71,30,15,4.8,99.27,,,Smoke,4.993
06-06-2023 19:00,6,6,19:00,14.7,11,78,30,13,4.8,99.26,,,Smoke,5.011
06-06-2023 20:00,6,6,20:00,13.4,10.7,83,32,10,4.8,99.25,,,Smoke,5.009
06-06-2023 21:00,6,6,21:00,13.8,10.5,80,30,9,6.4,99.28,,,Smoke,4.977
06-06-2023 22:00,6,6,22:00,13.7,9.1,74,30,15,6.4,99.24,,,Smoke,4.972
06-06-2023 23:00,6,6,23:00,13.6,6.5,62,32,19,4.8,99.2,,,Smoke,5.017
07-06-2023 00:00,6,7,00:00,12.5,5.2,61,33,21,1.6,99.15,,,Smoke,5.004
07-06-2023 01:00,6,7,01:00,12.3,4.1,57,33,20,1.6,99.11,,,Smoke,4.982
07-06-2023 02:00,6,7,02:00,11,4,62,32,16,1.6,99.09,,,Smoke,4.872
07-06-2023 03:00,6,7,03:00,11.4,3.5,58,32,18,1.6,99.06,,,Smoke,4.904
07-06-2023 04:00,6,7,04:00,10.5,3.4,61,32,16,1.2,99.06,,,Smoke,4.911
07-06-2023 05:00,6,7,05:00,11.5,3,56,32,16,1.2,99.07,,,Smoke,4.875
07-06-2023 06:00,6,7,06:00,12.3,3.1,53,32,19,1.6,99.08,,,Smoke,4.876
07-06-2023 07:00,6,7,07:00,13.3,3.2,50,34,29,1.6,99.06,,,Smoke,4.893
07-06-2023 08:00,6,7,08:00,14.1,3.7,49,34,32,3.2,99.08,,,Smoke,4.802
07-06-2023 09:00,6,7,09:00,13.4,4.7,56,32,18,6.4,99.07,,,Smoke,4.847
07-06-2023 10:00,6,7,10:00,14.8,5.1,52,32,21,4.8,99.05,,,Smoke,4.852
07-06-2023 11:00,6,7,11:00,15.4,6,53,34,13,6.4,99.03,,,Smoke,4.841
07-06-2023 12:00,6,7,12:00,15.5,5.4,51,2,32,6.4,99.04,,,Smoke,4.872
07-06-2023 13:00,6,7,13:00,14.9,5.5,53,32,23,6.4,99.07,,,Smoke,4.809
07-06-2023 14:00,6,7,14:00,15.4,5.8,52,36,15,6.4,99.09,,,Smoke,4.889
07-06-2023 15:00,6,7,15:00,15.4,5.6,52,35,23,9.7,99.11,,,Smoke,4.901
07-06-2023 16:00,6,7,16:00,15.8,6.1,52,35,23,9.7,99.12,,,Smoke,4.815
07-06-2023 17:00,6,7,17:00,15.5,6.2,54,36,16,9.7,99.14,,,Smoke,4.925
07-06-2023 18:00,6,7,18:00,14.1,8,66,35,22,16.1,99.19,,,Rain Showers,4.884
07-06-2023 19:00,6,7,19:00,13.2,8.8,75,35,13,16.1,99.21,,,Rain Showers,4.855
07-06-2023 20:00,6,7,20:00,12.6,9.2,80,30,9,16.1,99.23,,,NA,4.9
07-06-2023 21:00,6,7,21:00,13.3,8.7,74,33,14,24.1,99.26,,,NA,4.968
07-06-2023 22:00,6,7,22:00,12.7,8.5,76,2,10,24.1,99.26,,,Cloudy,4.951
07-06-2023 23:00,6,7,23:00,12.3,8.6,78,36,14,24.1,99.25,,,Rain Showers,4.881
08-06-2023 00:00,6,8,00:00,12.3,8.5,77,33,10,24.1,99.23,,,NA,4.925
08-06-2023 01:00,6,8,01:00,12.1,8.6,79,34,14,24.1,99.21,,,Cloudy,4.934
08-06-2023 02:00,6,8,02:00,11.4,8.5,82,36,12,24.1,99.21,,,NA,4.976
08-06-2023 03:00,6,8,03:00,11.6,8.7,82,36,11,24.1,99.23,,,NA,4.934
08-06-2023 04:00,6,8,04:00,11.5,8.7,83,2,9,24.1,99.26,,,Mostly Cloudy,4.89
08-06-2023 05:00,6,8,05:00,11.6,8.8,83,1,8,24.1,99.29,,,NA,5.004
08-06-2023 06:00,6,8,06:00,12.8,8.9,77,3,14,24.1,99.34,,,NA,4.927
08-06-2023 07:00,6,8,07:00,13.4,9,75,1,14,24.1,99.36,,,Mostly Cloudy,4.926
08-06-2023 08:00,6,8,08:00,13.6,8.6,72,35,14,24.1,99.39,,,NA,4.986
08-06-2023 09:00,6,8,09:00,14.4,8.6,68,1,9,24.1,99.41,,,NA,4.938
08-06-2023 10:00,6,8,10:00,14.4,8.3,66,6,13,24.1,99.39,,,Mostly Cloudy,4.951
08-06-2023 11:00,6,8,11:00,16.5,8.4,59,35,9,24.1,99.4,,,NA,4.832
08-06-2023 12:00,6,8,12:00,15.2,7.7,61,2,6,24.1,99.4,,,NA,4.954
08-06-2023 13:00,6,8,13:00,16.1,8.3,60,33,5,24.1,99.36,,,Mostly Cloudy,4.972
08-06-2023 14:00,6,8,14:00,16.1,8.6,61,5,4,24.1,99.4,,,Rain Showers,4.854
08-06-2023 15:00,6,8,15:00,16.3,10.6,69,13,11,24.1,99.38,,,NA,4.981
08-06-2023 16:00,6,8,16:00,16.5,9.5,63,36,2,24.1,99.35,,,Mostly Cloudy,4.967
08-06-2023 17:00,6,8,17:00,16.9,9.5,61,26,11,24.1,99.36,,,NA,4.921
08-06-2023 18:00,6,8,18:00,13.7,12,89,4,8,24.1,99.41,,,Rain Showers,4.914
08-06-2023 19:00,6,8,19:00,14.2,12.6,90,29,4,24.1,99.43,,,Mostly Cloudy,4.958
08-06-2023 20:00,6,8,20:00,13.2,11.8,91,29,8,24.1,99.46,,,NA,4.95
08-06-2023 21:00,6,8,21:00,13.3,11.9,92,32,8,24.1,99.48,,,NA,5.011
08-06-2023 22:00,6,8,22:00,13.1,11.3,89,35,8,24.1,99.47,,,Cloudy,4.98
08-06-2023 23:00,6,8,23:00,12,10.8,93,1,11,24.1,99.46,,,NA,4.976
09-06-2023 00:00,6,9,00:00,10.2,9.3,94,3,8,24.1,99.41,,,NA,4.979
09-06-2023 01:00,6,9,01:00,9.6,9.2,97,3,12,24.1,99.41,,,Mainly Clear,4.957
09-06-2023 02:00,6,9,02:00,9.8,9.6,99,4,12,24.1,99.43,,,NA,5.01
09-06-2023 03:00,6,9,03:00,10.3,10,98,5,9,24.1,99.44,,,NA,4.991
09-06-2023 04:00,6,9,04:00,10.6,10.1,96,5,8,24.1,99.45,,,Cloudy,4.969
09-06-2023 05:00,6,9,05:00,10.7,10,96,6,10,24.1,99.46,,,NA,5.025
09-06-2023 06:00,6,9,06:00,11.1,10.1,94,6,11,24.1,99.49,,,NA,4.992
09-06-2023 07:00,6,9,07:00,12.3,10.6,89,7,14,24.1,99.5,,,Mostly Cloudy,5
09-06-2023 08:00,6,9,08:00,13.2,10.6,84,6,10,24.1,99.51,,,NA,5.005
09-06-2023 09:00,6,9,09:00,14.2,10.1,76,6,10,24.1,99.52,,,NA,4.942
09-06-2023 10:00,6,9,10:00,16.1,10.7,70,8,7,24.1,99.49,,,Mostly Cloudy,4.909
09-06-2023 11:00,6,9,11:00,16.1,9.5,65,8,8,24.1,99.45,,,NA,4.98
09-06-2023 12:00,6,9,12:00,16.7,9.9,64,26,6,24.1,99.42,,,NA,4.972
09-06-2023 13:00,6,9,13:00,17.8,9.8,59,36,10,24.1,99.39,,,Mostly Cloudy,5
09-06-2023 14:00,6,9,14:00,17.1,9.8,62,9,8,24.1,99.34,,,Rain Showers,4.976
09-06-2023 15:00,6,9,15:00,17.9,8.7,54,30,8,24.1,99.32,,,NA,4.92
09-06-2023 16:00,6,9,16:00,18.1,9.3,56,29,11,24.1,99.32,,,Mostly Cloudy,4.565
09-06-2023 17:00,6,9,17:00,19.1,8.5,50,28,8,24.1,99.3,,,NA,4.951
09-06-2023 18:00,6,9,18:00,18.4,8.2,51,36,1,24.1,99.33,,,NA,4.94
09-06-2023 19:00,6,9,19:00,16.9,10.7,67,3,5,24.1,99.36,,,Rain Showers,4.922
09-06-2023 20:00,6,9,20:00,14.2,11.7,85,26,6,24.1,99.39,,,NA,4.941
09-06-2023 21:00,6,9,21:00,15,12,82,33,4,24.1,99.43,,,NA,4.955
09-06-2023 22:00,6,9,22:00,14.4,12.5,88,5,5,24.1,99.41,,,Rain Showers,4.998
09-06-2023 23:00,6,9,23:00,13.1,12,93,6,3,24.1,99.38,,,NA,5.013
10-06-2023 00:00,6,10,00:00,12.1,11.7,98,30,3,24.1,99.35,,,NA,5.003
10-06-2023 01:00,6,10,01:00,10.7,10.6,99,4,5,24.1,99.34,,,Mainly Clear,5.021
10-06-2023 02:00,6,10,02:00,10.8,10.7,99,36,1,24.1,99.32,,,NA,4.942
10-06-2023 03:00,6,10,03:00,10,10,100,31,4,24.1,99.29,,,NA,5.057
10-06-2023 04:00,6,10,04:00,9.3,8.9,97,36,3,24.1,99.32,,,Mostly Cloudy,5.034
10-06-2023 05:00,6,10,05:00,10.5,10.5,100,5,7,24.1,99.34,,,NA,4.974
10-06-2023 06:00,6,10,06:00,12.6,12.5,100,5,6,24.1,99.37,,,NA,4.995
10-06-2023 07:00,6,10,07:00,13.8,12.7,93,5,4,24.1,99.43,,,Mostly Cloudy,4.995
10-06-2023 08:00,6,10,08:00,15.3,12.3,82,3,4,24.1,99.46,,,NA,5.018
10-06-2023 09:00,6,10,09:00,17.5,11.3,67,34,5,24.1,99.46,,,NA,5.033
10-06-2023 10:00,6,10,10:00,18.8,10.8,59,31,6,24.1,99.43,,,Mostly Cloudy,5.035
10-06-2023 11:00,6,10,11:00,20.2,8.5,47,7,3,24.1,99.42,,,NA,5.005
10-06-2023 12:00,6,10,12:00,20.5,9.2,48,28,7,24.1,99.38,,,NA,4.975
10-06-2023 13:00,6,10,13:00,22.1,9.2,44,8,9,24.1,99.37,,,Mostly Cloudy,4.97
10-06-2023 14:00,6,10,14:00,21.6,8.6,43,25,9,24.1,99.34,,,NA,4.979
10-06-2023 15:00,6,10,15:00,22.2,8.4,41,16,7,24.1,99.33,,,NA,4.987
10-06-2023 16:00,6,10,16:00,23.5,6.4,33,15,7,24.1,99.33,,,Mostly Cloudy,4.934
10-06-2023 17:00,6,10,17:00,23.6,8.2,37,15,8,24.1,99.32,,,NA,4.903
10-06-2023 18:00,6,10,18:00,22.9,8.4,39,15,11,24.1,99.36,,,NA,4.984
10-06-2023 19:00,6,10,19:00,21.1,8.9,45,16,6,24.1,99.42,,,Mainly Clear,4.853
10-06-2023 20:00,6,10,20:00,19.1,9.6,54,16,10,24.1,99.47,,,NA,4.998
10-06-2023 21:00,6,10,21:00,18,11.5,65,21,12,24.1,99.53,,,NA,4.86
10-06-2023 22:00,6,10,22:00,16.3,11.3,72,21,8,24.1,99.52,,,Mainly Clear,4.958
10-06-2023 23:00,6,10,23:00,14.3,10.8,80,21,12,24.1,99.56,,,NA,5.03
11-06-2023 00:00,6,11,00:00,14.4,11.4,82,21,8,24.1,99.55,,,NA,4.891
11-06-2023 01:00,6,11,01:00,12.7,11.5,93,22,4,24.1,99.54,,,Mainly Clear,4.944
11-06-2023 02:00,6,11,02:00,12.1,11,93,16,8,24.1,99.56,,,NA,5.002
11-06-2023 03:00,6,11,03:00,11.8,10.9,94,17,4,24.1,99.57,,,NA,5.002
11-06-2023 04:00,6,11,04:00,11.4,10.6,95,12,7,24.1,99.59,,,Mostly Cloudy,4.976
11-06-2023 05:00,6,11,05:00,12.6,12.1,96,15,8,24.1,99.61,,,NA,5.032
11-06-2023 06:00,6,11,06:00,13.8,12.8,94,13,5,19.3,99.68,,,NA,4.981
11-06-2023 07:00,6,11,07:00,16.2,13.4,84,36,3,19.3,99.71,,,Mostly Cloudy,5.026
11-06-2023 08:00,6,11,08:00,18.7,12.8,69,9,6,19.3,99.73,,,NA,5.006
11-06-2023 09:00,6,11,09:00,19.9,11.9,60,36,3,16.1,99.75,,,NA,5.013
11-06-2023 10:00,6,11,10:00,20.7,12.2,58,14,9,16.1,99.73,,,Mostly Cloudy,5.046
11-06-2023 11:00,6,11,11:00,21.7,13.4,59,22,4,19.3,99.75,25,,NA,4.987
11-06-2023 12:00,6,11,12:00,22.2,12.9,55,18,8,19.3,99.7,25,,NA,5.008
11-06-2023 13:00,6,11,13:00,22.5,12.4,52,20,6,19.3,99.69,25,,Cloudy,5.018
11-06-2023 14:00,6,11,14:00,22.8,10.6,46,22,3,19.3,99.68,,,NA,5.065
11-06-2023 15:00,6,11,15:00,22.7,12.6,52,18,8,19.3,99.7,25,,Rain,4.947
11-06-2023 16:00,6,11,16:00,21.2,14,63,23,9,19.3,99.75,25,,Rain,4.971
11-06-2023 17:00,6,11,17:00,20.1,13.3,64,20,7,16.1,99.75,,,Rain,5.022
11-06-2023 18:00,6,11,18:00,19.2,14.1,72,12,11,24.1,99.69,,,NA,5.027
11-06-2023 19:00,6,11,19:00,19.1,12.6,66,11,13,24.1,99.67,,,Cloudy,5.009
11-06-2023 20:00,6,11,20:00,17.8,13,73,13,8,24.1,99.7,,,NA,4.996
11-06-2023 21:00,6,11,21:00,18.2,12.5,69,9,16,24.1,99.71,,,NA,4.975
11-06-2023 22:00,6,11,22:00,18.1,12.3,69,8,10,24.1,99.73,,,Rain,4.967
11-06-2023 23:00,6,11,23:00,17.4,12,70,12,10,24.1,99.7,,,NA,4.974
12-06-2023 00:00,6,12,00:00,17.4,11.8,69,4,6,24.1,99.66,,,NA,5.059
12-06-2023 01:00,6,12,01:00,16.8,11.8,72,6,13,24.1,99.64,,,Cloudy,5.015
12-06-2023 02:00,6,12,02:00,16.5,12.2,75,7,18,24.1,99.57,,,NA,5.001
12-06-2023 03:00,6,12,03:00,16.1,12.8,81,10,18,24.1,99.55,,,Rain Showers,5.056
12-06-2023 04:00,6,12,04:00,16.6,13.3,81,9,30,24.1,99.49,,,Cloudy,5.006
12-06-2023 05:00,6,12,05:00,17.2,13.5,79,9,16,24.1,99.49,,,Rain Showers,5.005
12-06-2023 06:00,6,12,06:00,16.8,14.1,84,9,14,24.1,99.53,,,Rain,5.053
12-06-2023 07:00,6,12,07:00,16.9,14.7,87,7,16,16.1,99.49,,,Rain,4.98
12-06-2023 08:00,6,12,08:00,17,15,88,6,27,16.1,99.41,,,Rain,4.995
12-06-2023 09:00,6,12,09:00,17.8,14.9,83,7,28,24.1,99.38,,,Rain,5.014
12-06-2023 10:00,6,12,10:00,19,14.6,75,7,35,24.1,99.3,,,Cloudy,4.974
12-06-2023 11:00,6,12,11:00,20,14.3,69,9,36,24.1,99.26,,,NA,5.028
12-06-2023 12:00,6,12,12:00,23.2,15,60,9,38,24.1,99.19,27,,NA,4.985
12-06-2023 13:00,6,12,13:00,24.5,15.4,56,9,37,24.1,99.11,29,,Cloudy,4.946
12-06-2023 14:00,6,12,14:00,26.7,15.6,50,11,35,16.1,99.04,31,,NA,5.33
12-06-2023 15:00,6,12,15:00,27,15.8,50,11,34,24.1,99,31,,NA,5.863
12-06-2023 16:00,6,12,16:00,26.8,15.9,51,9,34,24.1,98.95,31,,Mostly Cloudy,5.017
12-06-2023 17:00,6,12,17:00,26.3,16.9,56,7,25,24.1,98.9,32,,NA,5.005
12-06-2023 18:00,6,12,18:00,25.9,16.3,55,12,15,24.1,98.89,31,,NA,5.011
12-06-2023 19:00,6,12,19:00,23.1,17.3,70,36,2,24.1,98.93,29,,Cloudy,5.032
12-06-2023 20:00,6,12,20:00,22.2,17.3,74,6,11,24.1,98.93,28,,NA,4.981
12-06-2023 21:00,6,12,21:00,22.6,15.8,65,11,28,16.1,98.97,27,,NA,5.019
12-06-2023 22:00,6,12,22:00,20.1,16.8,81,11,15,12.9,98.99,25,,Rain,5.016
12-06-2023 23:00,6,12,23:00,19.7,16.4,81,10,15,24.1,98.92,,,NA,4.987
13-06-2023 00:00,6,13,00:00,18.7,17,90,24,3,16.1,98.91,,,NA,4.994
13-06-2023 01:00,6,13,01:00,18.3,17.1,93,19,7,12.9,98.88,,,Rain,5.019
13-06-2023 02:00,6,13,02:00,17.7,16.6,94,16,13,8.1,98.86,,,"Rain,Fog",4.961
13-06-2023 03:00,6,13,03:00,16.9,16.3,96,15,17,3.2,98.85,,,"Moderate Rain,Fog",4.893
13-06-2023 04:00,6,13,04:00,16.7,16.3,97,14,11,3.2,98.85,,,"Moderate Rain,Fog",5.001
13-06-2023 05:00,6,13,05:00,15.6,15.2,97,18,11,6.4,98.9,,,"Moderate Rain,Fog",4.961
13-06-2023 06:00,6,13,06:00,15.2,14.8,97,22,13,12.9,98.92,,,Rain,4.999
13-06-2023 07:00,6,13,07:00,15.3,14.2,93,23,21,24.1,98.99,,,Cloudy,4.98
13-06-2023 08:00,6,13,08:00,15.9,14.5,92,24,14,24.1,99.04,,,NA,5.032
13-06-2023 09:00,6,13,09:00,16.6,14.1,85,25,14,24.1,99.04,,,NA,5.037
13-06-2023 10:00,6,13,10:00,16.4,13.5,83,23,14,24.1,99.09,,,Cloudy,4.849
13-06-2023 11:00,6,13,11:00,16.5,13.3,81,22,16,24.1,99.12,,,NA,5.218
13-06-2023 12:00,6,13,12:00,18.9,12.8,67,24,20,24.1,99.11,,,NA,4.904
13-06-2023 13:00,6,13,13:00,20,12,60,19,14,24.1,99.1,,,Mostly Cloudy,5.024
13-06-2023 14:00,6,13,14:00,20.3,11.8,58,22,10,24.1,99.05,,,NA,4.977
13-06-2023 15:00,6,13,15:00,20.8,12.2,58,20,18,24.1,99.03,,,NA,5.025
13-06-2023 16:00,6,13,16:00,21.1,11.5,54,16,22,24.1,99.03,,,Mainly Clear,4.986
13-06-2023 17:00,6,13,17:00,20.5,11,54,19,14,24.1,99.02,,,NA,5.012
13-06-2023 18:00,6,13,18:00,20.6,10.8,53,19,15,24.1,99.03,,,NA,5.035
13-06-2023 19:00,6,13,19:00,18.8,10.8,59,19,16,24.1,99.03,,,Mainly Clear,5.004
13-06-2023 20:00,6,13,20:00,16.3,10.3,67,18,10,24.1,99.08,,,NA,4.99
13-06-2023 21:00,6,13,21:00,14.8,10,73,16,8,24.1,99.12,,,NA,4.93
13-06-2023 22:00,6,13,22:00,14.2,9.5,73,17,8,24.1,99.1,,,Clear,4.944
13-06-2023 23:00,6,13,23:00,13.9,9.2,73,20,7,24.1,99.03,,,NA,4.987
14-06-2023 00:00,6,14,00:00,12.8,9.1,78,20,6,24.1,99.01,,,NA,5.051
14-06-2023 01:00,6,14,01:00,9.3,8.2,92,19,7,24.1,98.99,,,Mostly Cloudy,4.978
14-06-2023 02:00,6,14,02:00,9.2,7.7,90,10,3,24.1,98.97,,,NA,4.981
14-06-2023 03:00,6,14,03:00,9.3,7.8,90,36,1,24.1,98.92,,,NA,5.034
14-06-2023 04:00,6,14,04:00,8.4,7.6,95,7,5,24.1,98.88,,,Mostly Cloudy,4.943
14-06-2023 05:00,6,14,05:00,9.7,8.8,94,9,10,24.1,98.87,,,NA,4.96
14-06-2023 06:00,6,14,06:00,12.9,10.2,84,7,8,24.1,98.85,,,NA,5.01
14-06-2023 07:00,6,14,07:00,15.2,10.2,72,8,7,24.1,98.86,,,Mostly Cloudy,4.962
14-06-2023 08:00,6,14,08:00,16.8,10.6,66,9,12,24.1,98.84,,,NA,4.997
14-06-2023 09:00,6,14,09:00,17.5,11.2,66,6,12,24.1,98.79,,,NA,4.929
14-06-2023 10:00,6,14,10:00,17.7,11.5,67,5,8,24.1,98.77,,,Cloudy,4.954
14-06-2023 11:00,6,14,11:00,17.6,11.5,67,5,7,16.1,98.74,,,Rain,4.936
14-06-2023 12:00,6,14,12:00,17.9,13.2,74,2,10,24.1,98.71,,,Rain,4.942
14-06-2023 13:00,6,14,13:00,17.2,12.5,74,36,12,16.1,98.69,,,Rain,4.972
14-06-2023 14:00,6,14,14:00,16.5,13.1,80,34,16,16.1,98.65,,,Rain,5.047
14-06-2023 15:00,6,14,15:00,16.2,13.7,85,33,13,12.9,98.65,,,Rain,4.98
14-06-2023 16:00,6,14,16:00,16.5,13,80,35,24,24.1,98.6,,,Cloudy,4.978
14-06-2023 17:00,6,14,17:00,16.4,12.8,79,32,15,24.1,98.56,,,NA,5.016
14-06-2023 18:00,6,14,18:00,16.6,12,74,35,23,24.1,98.56,,,NA,4.961
14-06-2023 19:00,6,14,19:00,16.2,13.4,84,31,10,24.1,98.57,,,Cloudy,4.982
14-06-2023 20:00,6,14,20:00,16.2,15.1,93,30,10,24.1,98.62,,,NA,5.022
14-06-2023 21:00,6,14,21:00,16.1,14.9,92,32,11,24.1,98.65,,,NA,4.977
14-06-2023 22:00,6,14,22:00,15.6,14.4,92,29,4,24.1,98.64,,,Cloudy,4.995
14-06-2023 23:00,6,14,23:00,15.4,14.3,93,28,7,24.1,98.63,,,NA,4.976
15-06-2023 00:00,6,15,00:00,14.8,13.7,93,25,7,24.1,98.6,,,NA,4.967
15-06-2023 01:00,6,15,01:00,14.8,13.4,91,27,10,24.1,98.59,,,Cloudy,5.028
15-06-2023 02:00,6,15,02:00,15.3,13,86,28,11,24.1,98.6,,,NA,4.987
15-06-2023 03:00,6,15,03:00,14.6,13,90,23,7,24.1,98.6,,,NA,4.983
15-06-2023 04:00,6,15,04:00,15.2,12.7,85,28,11,24.1,98.59,,,Mostly Cloudy,5.016
15-06-2023 05:00,6,15,05:00,14.8,13,89,26,11,24.1,98.62,,,NA,4.986
15-06-2023 06:00,6,15,06:00,15.8,13.4,85,28,13,24.1,98.68,,,NA,5.01
15-06-2023 07:00,6,15,07:00,18.5,13.5,72,30,15,24.1,98.75,,,Mostly Cloudy,4.974
15-06-2023 08:00,6,15,08:00,19.3,14.2,72,29,17,24.1,98.77,,,NA,4.958
15-06-2023 09:00,6,15,09:00,20.1,14.3,69,29,15,24.1,98.8,,,NA,5.034
15-06-2023 10:00,6,15,10:00,22.1,14.8,63,28,18,16.1,98.81,26,,Mostly Cloudy,4.983
15-06-2023 11:00,6,15,11:00,22.9,13.1,54,29,19,16.1,98.84,26,,NA,5.007
15-06-2023 12:00,6,15,12:00,24.2,14.2,53,28,23,12.9,98.84,28,,NA,5.085
15-06-2023 13:00,6,15,13:00,25.3,13.4,47,29,21,16.1,98.85,28,,Mainly Clear,4.989
15-06-2023 14:00,6,15,14:00,25.8,12.5,43,30,20,24.1,98.82,28,,NA,4.985
15-06-2023 15:00,6,15,15:00,26.4,10.4,36,28,22,24.1,98.85,28,,NA,5.021
15-06-2023 16:00,6,15,16:00,25.9,9.4,35,30,20,24.1,98.88,27,,Mostly Cloudy,4.913
15-06-2023 17:00,6,15,17:00,25.5,9.2,35,30,20,24.1,98.88,26,,NA,4.901
15-06-2023 18:00,6,15,18:00,24.6,9.9,39,30,17,24.1,98.91,26,,NA,4.99
15-06-2023 19:00,6,15,19:00,23.4,11,45,28,16,24.1,98.99,25,,Mostly Cloudy,4.986
15-06-2023 20:00,6,15,20:00,21.2,14,63,6,13,24.1,99.07,25,,NA,4.961
15-06-2023 21:00,6,15,21:00,19.5,13.2,67,9,9,24.1,99.14,,,NA,5.007
15-06-2023 22:00,6,15,22:00,18.5,13.5,72,11,5,24.1,99.17,,,Mostly Cloudy,4.971
15-06-2023 23:00,6,15,23:00,18,14,77,13,9,24.1,99.21,,,NA,4.972
16-06-2023 00:00,6,16,00:00,17.7,14.2,80,12,4,24.1,99.21,,,NA,5.025
16-06-2023 01:00,6,16,01:00,18.2,14.3,78,32,3,24.1,99.19,,,Mostly Cloudy,5.003
16-06-2023 02:00,6,16,02:00,18.6,13.8,73,34,15,24.1,99.18,,,NA,4.957
16-06-2023 03:00,6,16,03:00,17.9,13.4,74,33,20,24.1,99.17,,,NA,5.019
16-06-2023 04:00,6,16,04:00,17.3,13.4,78,33,13,24.1,99.17,,,Mostly Cloudy,5
16-06-2023 05:00,6,16,05:00,16.3,14.1,87,31,7,24.1,99.23,,,NA,5.039
16-06-2023 06:00,6,16,06:00,16.8,13.4,80,32,14,16.1,99.29,,,NA,5.055
16-06-2023 07:00,6,16,07:00,17.1,13.4,79,33,14,12.9,99.32,,,Cloudy,5.037
16-06-2023 08:00,6,16,08:00,17.4,13.4,77,34,10,9.7,99.35,,,Smoke,4.997
16-06-2023 09:00,6,16,09:00,18.9,13.4,71,32,10,8.1,99.36,,,Smoke,5.053
16-06-2023 10:00,6,16,10:00,19.7,14.5,72,27,10,8.1,99.38,,,Smoke,5.008
16-06-2023 11:00,6,16,11:00,22,14,60,28,11,6.4,99.35,25,,Smoke,5.047
16-06-2023 12:00,6,16,12:00,23.4,13.8,54,30,8,9.7,99.26,27,,Smoke,5.017
16-06-2023 13:00,6,16,13:00,24.8,11.2,42,36,27,12.9,99.22,27,,Mostly Cloudy,5.01
16-06-2023 14:00,6,16,14:00,24.5,11.7,44,34,14,12.9,99.18,27,,NA,5.039
16-06-2023 15:00,6,16,15:00,24.8,10.6,40,36,27,16.1,99.16,26,,NA,4.966
16-06-2023 16:00,6,16,16:00,24.4,10.6,41,32,18,16.1,99.15,26,,Mainly Clear,4.861
16-06-2023 17:00,6,16,17:00,23.6,9.4,40,36,25,16.1,99.18,25,,NA,5.023
16-06-2023 18:00,6,16,18:00,23.1,9.5,42,1,24,16.1,99.21,,,NA,4.952
16-06-2023 19:00,6,16,19:00,21.7,11.5,52,3,24,16.1,99.31,,,Mostly Cloudy,4.956
16-06-2023 20:00,6,16,20:00,20.4,10.8,54,2,28,16.1,99.38,,,NA,4.872
16-06-2023 21:00,6,16,21:00,19.5,10.8,57,1,29,16.1,99.42,,,NA,4.992
16-06-2023 22:00,6,16,22:00,18.1,10.9,63,3,27,16.1,99.44,,,Mostly Cloudy,4.994
16-06-2023 23:00,6,16,23:00,16.8,10.6,67,1,15,16.1,99.43,,,NA,4.954
17-06-2023 00:00,6,17,00:00,16,10.7,70,35,18,24.1,99.39,,,NA,4.956
17-06-2023 01:00,6,17,01:00,15.8,10.7,71,34,14,16.1,99.37,,,Mainly Clear,4.984
17-06-2023 02:00,6,17,02:00,15.1,10.8,75,34,13,16.1,99.34,,,NA,5.03
17-06-2023 03:00,6,17,03:00,14.7,10.8,78,33,15,24.1,99.31,,,NA,5.004
17-06-2023 04:00,6,17,04:00,14.5,11.1,80,32,16,16.1,99.32,,,Mostly Cloudy,4.978
17-06-2023 05:00,6,17,05:00,13.9,11,82,33,15,16.1,99.33,,,NA,4.973
17-06-2023 06:00,6,17,06:00,13.8,11.3,85,33,16,19.3,99.36,,,NA,4.97
17-06-2023 07:00,6,17,07:00,14.2,11.5,84,33,17,19.3,99.38,,,Mostly Cloudy,4.969
17-06-2023 08:00,6,17,08:00,15.3,11.7,79,33,17,19.3,99.39,,,NA,5.01
17-06-2023 09:00,6,17,09:00,16.4,11.8,74,33,27,24.1,99.39,,,NA,4.971
17-06-2023 10:00,6,17,10:00,17.4,12.2,71,1,26,24.1,99.39,,,Cloudy,5.025
17-06-2023 11:00,6,17,11:00,19.7,12.9,64,34,19,24.1,99.39,,,NA,4.995
17-06-2023 12:00,6,17,12:00,20.2,13.1,63,35,18,24.1,99.4,,,NA,4.98
17-06-2023 13:00,6,17,13:00,19.1,12.8,67,36,25,24.1,99.4,,,Cloudy,5.025
17-06-2023 14:00,6,17,14:00,18.9,13,68,35,16,24.1,99.4,,,Rain Showers,5.032
17-06-2023 15:00,6,17,15:00,18.9,12.7,67,1,23,24.1,99.42,,,NA,5.037
17-06-2023 16:00,6,17,16:00,17.4,13.7,79,36,21,24.1,99.47,,,Rain Showers,4.997
17-06-2023 17:00,6,17,17:00,18.2,13.4,73,35,24,24.1,99.49,,,Rain Showers,5.005
17-06-2023 18:00,6,17,18:00,18.1,14.2,78,36,23,24.1,99.52,,,NA,4.988
17-06-2023 19:00,6,17,19:00,17.9,14.2,79,36,13,24.1,99.56,,,Cloudy,5.05
17-06-2023 20:00,6,17,20:00,17.6,14.2,80,36,14,24.1,99.59,,,NA,4.921
17-06-2023 21:00,6,17,21:00,17.6,14.2,80,36,14,24.1,99.64,,,NA,4.998
17-06-2023 22:00,6,17,22:00,17.2,14.3,83,1,9,24.1,99.66,,,Cloudy,5.066
17-06-2023 23:00,6,17,23:00,16.8,14.4,85,7,9,24.1,99.67,,,Drizzle,5.029
18-06-2023 00:00,6,18,00:00,16,14.1,88,7,11,24.1,99.68,,,NA,5.022
18-06-2023 01:00,6,18,01:00,15.4,13.9,91,8,10,24.1,99.7,,,Cloudy,5.07
18-06-2023 02:00,6,18,02:00,14.2,12.9,92,8,8,24.1,99.71,,,NA,5.014
18-06-2023 03:00,6,18,03:00,14.3,13.1,92,7,9,24.1,99.73,,,NA,5.018
18-06-2023 04:00,6,18,04:00,14.4,11.9,85,10,7,24.1,99.77,,,Cloudy,5.06
18-06-2023 05:00,6,18,05:00,14.3,12.1,87,6,7,24.1,99.85,,,NA,4.994
18-06-2023 06:00,6,18,06:00,14.7,12.1,84,9,5,24.1,99.89,,,NA,5.022
18-06-2023 07:00,6,18,07:00,15.6,11.6,77,3,4,24.1,99.95,,,Cloudy,5.06
18-06-2023 08:00,6,18,08:00,16.7,11.6,71,2,4,24.1,99.98,,,NA,5.024
18-06-2023 09:00,6,18,09:00,17.4,12,71,28,7,24.1,99.99,,,NA,5.009
18-06-2023 10:00,6,18,10:00,17.7,12.2,70,36,2,24.1,99.97,,,Cloudy,4.993
18-06-2023 11:00,6,18,11:00,18.8,12.8,68,25,7,24.1,99.95,,,NA,5.038
18-06-2023 12:00,6,18,12:00,19.6,13.1,66,4,9,24.1,99.92,,,NA,4.973
18-06-2023 13:00,6,18,13:00,21.1,13.8,63,36,3,24.1,99.89,,,Mostly Cloudy,5.055
18-06-2023 14:00,6,18,14:00,22.3,13.1,55,15,7,24.1,99.91,25,,NA,4.998
18-06-2023 15:00,6,18,15:00,21.3,13.4,61,15,7,24.1,99.94,,,NA,5.114
18-06-2023 16:00,6,18,16:00,21.2,13.7,61,15,10,24.1,99.97,,,Cloudy,5.025
18-06-2023 17:00,6,18,17:00,21.5,14,62,14,8,24.1,99.95,25,,NA,4.989
18-06-2023 18:00,6,18,18:00,21.5,13.4,60,14,12,24.1,99.93,25,,NA,4.99
18-06-2023 19:00,6,18,19:00,20.2,14.1,67,14,9,24.1,99.99,,,Mainly Clear,5.033
18-06-2023 20:00,6,18,20:00,17,13.5,80,13,10,24.1,100.05,,,NA,5.005
18-06-2023 21:00,6,18,21:00,16.4,13.9,85,12,13,24.1,100.11,,,NA,5.011
18-06-2023 22:00,6,18,22:00,15.8,13.4,86,12,11,24.1,100.18,,,Mostly Cloudy,5.035
18-06-2023 23:00,6,18,23:00,16.3,13.6,84,10,13,24.1,100.21,,,NA,5.071
19-06-2023 00:00,6,19,00:00,16.1,13.5,85,10,14,24.1,100.2,,,NA,5.079
19-06-2023 01:00,6,19,01:00,15.7,13,84,9,13,24.1,100.24,,,Mostly Cloudy,5.048
19-06-2023 02:00,6,19,02:00,15.4,12.3,82,9,12,24.1,100.28,,,NA,5.093
19-06-2023 03:00,6,19,03:00,15,12.4,84,9,14,24.1,100.3,,,NA,5.078
19-06-2023 04:00,6,19,04:00,14.5,12.1,86,7,16,24.1,100.37,,,Mostly Cloudy,5.052
19-06-2023 05:00,6,19,05:00,14.2,12,87,9,18,24.1,100.43,,,NA,5.071
19-06-2023 06:00,6,19,06:00,14.4,12.2,86,10,25,24.1,100.48,,,Rain Showers,5.14
19-06-2023 07:00,6,19,07:00,14,12.8,93,8,15,24.1,100.52,,,Mostly Cloudy,5.082
19-06-2023 08:00,6,19,08:00,14.5,12.2,86,9,10,24.1,100.57,,,NA,5.055
19-06-2023 09:00,6,19,09:00,16.2,12.9,80,7,18,24.1,100.59,,,NA,5.106
19-06-2023 10:00,6,19,10:00,17,12.9,77,11,30,24.1,100.63,,,Mostly Cloudy,5.688
19-06-2023 11:00,6,19,11:00,18.2,13.4,74,6,16,24.1,100.64,,,NA,5.646
19-06-2023 12:00,6,19,12:00,19.4,13,66,8,16,24.1,100.64,,,NA,5.643
19-06-2023 13:00,6,19,13:00,20.8,14.3,66,8,10,24.1,100.61,,,Mostly Cloudy,5.774
19-06-2023 14:00,6,19,14:00,20.8,14.5,67,6,13,24.1,100.57,,,NA,5.863
19-06-2023 15:00,6,19,15:00,21.4,13.8,61,10,9,24.1,100.56,25,,NA,5.674
19-06-2023 16:00,6,19,16:00,22,13.8,59,10,9,24.1,100.54,25,,Mainly Clear,5.678
19-06-2023 17:00,6,19,17:00,22,13.8,59,16,5,24.1,100.55,25,,NA,5.642
19-06-2023 18:00,6,19,18:00,22.1,13.7,59,14,8,24.1,100.54,25,,NA,5.64
19-06-2023 19:00,6,19,19:00,20.6,13.6,64,11,8,24.1,100.58,,,Clear,5.669
19-06-2023 20:00,6,19,20:00,18.4,13.6,73,12,5,24.1,100.64,,,NA,5.65
19-06-2023 21:00,6,19,21:00,17.8,13.6,76,11,7,24.1,100.7,,,NA,5.633
19-06-2023 22:00,6,19,22:00,15,12.6,85,9,10,24.1,100.73,,,Clear,5.65
19-06-2023 23:00,6,19,23:00,14.8,11.6,81,10,8,24.1,100.77,,,NA,5.689
20-06-2023 00:00,6,20,00:00,14.3,11.6,84,10,9,24.1,100.79,,,NA,5.703
20-06-2023 01:00,6,20,01:00,13.7,12,90,3,6,24.1,100.83,,,Clear,5.722
20-06-2023 02:00,6,20,02:00,12.4,11.2,92,3,8,24.1,100.86,,,NA,5.714
20-06-2023 03:00,6,20,03:00,12,11,93,4,9,24.1,100.83,,,NA,5.702
20-06-2023 04:00,6,20,04:00,12.1,11.5,96,4,11,24.1,100.87,,,Clear,5.722
20-06-2023 05:00,6,20,05:00,12.6,12.2,97,4,11,24.1,100.91,,,NA,5.748
20-06-2023 06:00,6,20,06:00,14.4,13.1,92,6,9,24.1,100.95,,,NA,5.772
20-06-2023 07:00,6,20,07:00,16.8,13.3,80,5,10,24.1,100.98,,,Mainly Clear,5.685
20-06-2023 08:00,6,20,08:00,19.7,13.4,67,11,11,24.1,101.05,,,NA,5.714
20-06-2023 09:00,6,20,09:00,21.4,14.1,63,11,11,24.1,101.04,25,,NA,5.729
20-06-2023 10:00,6,20,10:00,23,14.1,57,9,10,24.1,101.04,26,,Mainly Clear,5.725
20-06-2023 11:00,6,20,11:00,24.4,13.8,51,10,6,24.1,101.04,28,,NA,5.689
20-06-2023 12:00,6,20,12:00,24.8,13.6,49,17,7,24.1,101,28,,NA,5.523
20-06-2023 13:00,6,20,13:00,26.1,12.8,43,12,10,24.1,100.95,29,,Mostly Cloudy,5.562
20-06-2023 14:00,6,20,14:00,27.4,12.2,38,5,5,24.1,100.9,30,,NA,5.561
20-06-2023 15:00,6,20,15:00,27.5,12.2,38,20,8,24.1,100.87,30,,NA,5.562
20-06-2023 16:00,6,20,16:00,28.1,12.8,38,24,10,24.1,100.81,31,,Mostly Cloudy,5.461
20-06-2023 17:00,6,20,17:00,27.3,12.4,39,36,10,24.1,100.81,30,,NA,5.513
20-06-2023 18:00,6,20,18:00,23.5,14.6,57,9,17,19.3,100.88,27,,NA,5.567
20-06-2023 19:00,6,20,19:00,23.4,13.4,53,11,15,19.3,100.9,26,,Mainly Clear,5.538
20-06-2023 20:00,6,20,20:00,20.4,13.8,65,9,10,19.3,100.93,,,NA,5.578
20-06-2023 21:00,6,20,21:00,19.1,14.8,76,6,10,19.3,101,,,NA,5.573
20-06-2023 22:00,6,20,22:00,18,14.7,81,6,10,24.1,101.02,,,Mainly Clear,5.533
20-06-2023 23:00,6,20,23:00,16.4,14.5,88,6,13,19.3,101.06,,,NA,5.618
21-06-2023 00:00,6,21,00:00,17.2,15.3,88,6,14,19.3,101.09,,,NA,5.714
21-06-2023 01:00,6,21,01:00,16.6,14.5,87,6,12,19.3,101.09,,,Mostly Cloudy,5.696
21-06-2023 02:00,6,21,02:00,15.1,14.3,94,5,13,19.3,101.1,,,NA,5.73
21-06-2023 03:00,6,21,03:00,14.7,13.5,92,5,13,19.3,101.11,,,NA,5.672
21-06-2023 04:00,6,21,04:00,14.3,13,92,5,11,19.3,101.15,,,Mainly Clear,5.739
21-06-2023 05:00,6,21,05:00,14.9,12.8,87,6,11,24.1,101.18,,,NA,5.744
21-06-2023 06:00,6,21,06:00,16.2,12.8,80,7,14,24.1,101.2,,,NA,5.694
21-06-2023 07:00,6,21,07:00,17.2,12.9,75,8,10,24.1,101.25,,,Mostly Cloudy,5.744
21-06-2023 08:00,6,21,08:00,19.2,13.1,67,9,12,24.1,101.26,,,NA,5.683
21-06-2023 09:00,6,21,09:00,20.4,13.3,64,7,12,24.1,101.25,,,NA,5.745
21-06-2023 10:00,6,21,10:00,23.1,13.6,54,12,11,24.1,101.23,26,,Mostly Cloudy,5.686
21-06-2023 11:00,6,21,11:00,24.7,13.7,50,8,14,24.1,101.2,28,,NA,5.464
21-06-2023 12:00,6,21,12:00,26.1,12.6,42,12,17,24.1,101.13,29,,NA,5.108
21-06-2023 13:00,6,21,13:00,26.9,11.6,38,12,17,24.1,101.05,29,,Mainly Clear,4.986
21-06-2023 14:00,6,21,14:00,27.5,12.9,40,10,13,24.1,101.01,30,,NA,4.934
21-06-2023 15:00,6,21,15:00,26.9,12.4,40,7,25,24.1,100.96,29,,NA,4.87
21-06-2023 16:00,6,21,16:00,25.9,12.1,42,7,30,24.1,100.93,28,,Mainly Clear,4.958
21-06-2023 17:00,6,21,17:00,27,10.9,36,6,16,24.1,100.88,29,,NA,4.925
21-06-2023 18:00,6,21,18:00,26.3,12,41,8,16,24.1,100.87,29,,NA,4.896
21-06-2023 19:00,6,21,19:00,24.8,12.7,47,5,11,24.1,100.89,27,,Clear,4.875
21-06-2023 20:00,6,21,20:00,22.2,13.1,56,6,12,24.1,100.91,25,,NA,4.913
21-06-2023 21:00,6,21,21:00,20.5,12.9,62,6,13,24.1,100.95,,,NA,4.997
21-06-2023 22:00,6,21,22:00,19.9,12.6,62,6,12,24.1,100.93,,,Clear,4.852
21-06-2023 23:00,6,21,23:00,17.6,12.3,71,5,14,24.1,100.92,,,NA,4.933
22-06-2023 00:00,6,22,00:00,18.2,12.2,68,6,13,24.1,100.89,,,NA,4.982
22-06-2023 01:00,6,22,01:00,17.6,12.4,72,8,10,24.1,100.85,,,Clear,5.01
22-06-2023 02:00,6,22,02:00,16,12.2,78,10,8,24.1,100.84,,,NA,5.188
22-06-2023 03:00,6,22,03:00,15.6,12.5,82,11,8,24.1,100.86,,,NA,5.099
22-06-2023 04:00,6,22,04:00,15.4,12.6,83,17,10,24.1,100.9,,,Clear,5.117
22-06-2023 05:00,6,22,05:00,15.2,12.5,84,18,7,24.1,100.9,,,NA,5.151
22-06-2023 06:00,6,22,06:00,17.6,13.3,76,19,6,24.1,100.93,,,NA,5.052
22-06-2023 07:00,6,22,07:00,20.1,13.1,64,20,14,24.1,100.98,,,Clear,5.086
22-06-2023 08:00,6,22,08:00,22.2,13.3,57,19,12,24.1,100.96,25,,NA,5.135
22-06-2023 09:00,6,22,09:00,23.9,14.4,54,23,11,24.1,100.97,28,,NA,5.144
22-06-2023 10:00,6,22,10:00,24.6,13.6,50,25,9,24.1,100.92,28,,Clear,5.751
22-06-2023 11:00,6,22,11:00,25.9,13.8,47,18,5,24.1,100.87,29,,NA,5.745
22-06-2023 12:00,6,22,12:00,26.4,12.8,42,19,10,24.1,100.8,29,,NA,5.689
22-06-2023 13:00,6,22,13:00,27.3,13.6,42,8,5,24.1,100.71,30,,Clear,5.684
22-06-2023 14:00,6,22,14:00,28.5,13.6,39,15,10,24.1,100.63,32,,NA,5.727
22-06-2023 15:00,6,22,15:00,28.9,12.8,36,12,14,24.1,100.55,32,,NA,5.612
22-06-2023 16:00,6,22,16:00,29.2,13.2,37,12,9,24.1,100.48,32,,Mainly Clear,5.684
22-06-2023 17:00,6,22,17:00,28.6,12.5,36,17,8,24.1,100.46,31,,NA,5.673
22-06-2023 18:00,6,22,18:00,27.7,12,37,15,8,24.1,100.42,30,,NA,5.715
22-06-2023 19:00,6,22,19:00,26.2,13.6,45,11,6,24.1,100.41,29,,Mainly Clear,5.657
22-06-2023 20:00,6,22,20:00,24.1,13.5,51,10,9,24.1,100.42,27,,NA,5.755
22-06-2023 21:00,6,22,21:00,21.1,13.5,61,10,9,24.1,100.44,,,NA,5.668
22-06-2023 22:00,6,22,22:00,19.7,14.1,70,19,5,24.1,100.44,,,Mainly Clear,5.627
22-06-2023 23:00,6,22,23:00,18.1,13.1,72,14,8,24.1,100.39,,,NA,5.677
23-06-2023 00:00,6,23,00:00,19.5,13.1,66,17,8,24.1,100.38,,,NA,5.721
23-06-2023 01:00,6,23,01:00,16.2,13.6,84,23,5,24.1,100.36,,,Mainly Clear,5.754
23-06-2023 02:00,6,23,02:00,16.8,13.3,80,25,5,24.1,100.34,,,NA,5.728
23-06-2023 03:00,6,23,03:00,15.6,13.2,85,5,9,24.1,100.31,,,NA,5.74
23-06-2023 04:00,6,23,04:00,15.2,13.5,90,6,8,24.1,100.3,,,Mainly Clear,5.662
23-06-2023 05:00,6,23,05:00,15.4,13.6,89,17,3,24.1,100.31,,,NA,5.761
23-06-2023 06:00,6,23,06:00,18.1,14.5,79,36,2,24.1,100.34,,,NA,5.707
23-06-2023 07:00,6,23,07:00,21,14.8,68,6,4,24.1,100.32,25,,Mostly Cloudy,5.779
23-06-2023 08:00,6,23,08:00,24.4,15.3,57,6,4,24.1,100.28,29,,NA,5.751
23-06-2023 09:00,6,23,09:00,26.2,14,46,12,3,24.1,100.25,30,,NA,5.701
23-06-2023 10:00,6,23,10:00,27.6,14.3,44,5,8,24.1,100.22,31,,Mostly Cloudy,5.665
23-06-2023 11:00,6,23,11:00,28.1,14.1,42,18,8,24.1,100.21,32,,NA,5.946
23-06-2023 12:00,6,23,12:00,29.8,14.8,39,9,5,24.1,100.14,34,,NA,5.702
23-06-2023 13:00,6,23,13:00,29.1,14.7,41,8,7,24.1,100.06,33,,Mostly Cloudy,5.706
23-06-2023 14:00,6,23,14:00,29,13.8,39,30,3,24.1,100.01,32,,NA,5.664
23-06-2023 15:00,6,23,15:00,29.9,15,40,19,8,24.1,99.96,34,,NA,5.632
23-06-2023 16:00,6,23,16:00,29.1,14.8,41,18,11,24.1,99.92,33,,Mostly Cloudy,5.691
23-06-2023 17:00,6,23,17:00,27.2,17.3,54,18,12,24.1,99.89,33,,NA,5.615
23-06-2023 18:00,6,23,18:00,27,17,54,18,9,24.1,99.87,32,,NA,5.64
23-06-2023 19:00,6,23,19:00,25.7,17.5,60,16,7,24.1,99.86,31,,Mostly Cloudy,5.691
23-06-2023 20:00,6,23,20:00,24.3,17,63,18,6,24.1,99.85,30,,NA,5.616
23-06-2023 21:00,6,23,21:00,24.2,16.7,62,20,5,24.1,99.87,29,,NA,5.713
23-06-2023 22:00,6,23,22:00,22.8,17.1,70,25,6,24.1,99.85,28,,Cloudy,5.71
23-06-2023 23:00,6,23,23:00,22.4,17.3,72,0,1,24.1,99.86,28,,NA,5.713
24-06-2023 00:00,6,24,00:00,22.8,17.6,72,28,5,24.1,99.83,29,,NA,5.747
24-06-2023 01:00,6,24,01:00,22.8,17.6,72,30,3,24.1,99.77,29,,Cloudy,5.666
24-06-2023 02:00,6,24,02:00,19.9,18.7,93,12,3,3.2,99.82,,,"Heavy Rain Showers,Fog",5.722
24-06-2023 03:00,6,24,03:00,19.7,18.7,94,35,9,12.9,99.79,,,Rain Showers,5.666
24-06-2023 04:00,6,24,04:00,19.5,19,97,2,13,16.1,99.76,,,Rain Showers,5.742
24-06-2023 05:00,6,24,05:00,19.5,19,97,2,12,16.1,99.75,,,Rain Showers,5.74
24-06-2023 06:00,6,24,06:00,19.7,19.2,97,5,8,24.1,99.77,,,Rain Showers,5.695
24-06-2023 07:00,6,24,07:00,19.8,19.4,98,6,8,24.1,99.78,,,Rain Showers,5.72
24-06-2023 08:00,6,24,08:00,20.3,19.6,95,4,11,24.1,99.76,28,,NA,5.679
24-06-2023 09:00,6,24,09:00,21.6,20.3,93,5,8,24.1,99.73,29,,NA,5.725
24-06-2023 10:00,6,24,10:00,23.6,20.2,81,8,11,24.1,99.71,31,,Mostly Cloudy,5.75
24-06-2023 11:00,6,24,11:00,23.6,19.3,76,5,10,24.1,99.66,31,,NA,5.733
24-06-2023 12:00,6,24,12:00,24.1,20.2,79,36,1,24.1,99.6,32,,NA,5.774
24-06-2023 13:00,6,24,13:00,24.7,20,75,13,6,24.1,99.58,32,,Mostly Cloudy,5.738
24-06-2023 14:00,6,24,14:00,25.9,19.5,67,11,10,24.1,99.53,33,,NA,5.738
24-06-2023 15:00,6,24,15:00,27.5,20,63,5,7,24.1,99.49,35,,NA,5.75
24-06-2023 16:00,6,24,16:00,26,19.8,68,23,4,24.1,99.44,33,,Mostly Cloudy,5.699
24-06-2023 17:00,6,24,17:00,26.7,20.1,67,18,11,24.1,99.42,34,,NA,5.632
24-06-2023 18:00,6,24,18:00,26.1,19.8,68,22,9,24.1,99.45,34,,NA,5.597
24-06-2023 19:00,6,24,19:00,25.1,20.4,75,21,9,24.1,99.48,33,,Mostly Cloudy,5.695
24-06-2023 20:00,6,24,20:00,23.3,20,81,22,8,24.1,99.53,31,,NA,5.678
24-06-2023 21:00,6,24,21:00,23.1,18.7,76,34,13,24.1,99.59,30,,NA,5.604
24-06-2023 22:00,6,24,22:00,21.3,19,86,27,7,16.1,99.55,28,,Rain,5.738
24-06-2023 23:00,6,24,23:00,21.3,19.1,87,36,9,24.1,99.55,28,,NA,5.737
25-06-2023 00:00,6,25,00:00,20.7,18.3,86,35,8,24.1,99.55,27,,NA,5.775
25-06-2023 01:00,6,25,01:00,18.6,17.9,96,23,8,24.1,99.57,,,Mostly Cloudy,5.737
25-06-2023 02:00,6,25,02:00,17.9,17.5,97,22,7,12.9,99.59,,,NA,5.644
25-06-2023 03:00,6,25,03:00,17.7,17.2,97,28,6,9.7,99.6,,,Smoke,5.695
25-06-2023 04:00,6,25,04:00,17.6,17.1,97,30,5,9.7,99.64,,,"Fog,Smoke",5.712
25-06-2023 05:00,6,25,05:00,19.3,18.3,94,35,9,9.7,99.67,,,"Fog,Smoke",5.788
25-06-2023 06:00,6,25,06:00,19.5,18.4,93,1,11,4.8,99.73,,,"Fog,Smoke",5.774
25-06-2023 07:00,6,25,07:00,20.6,18.9,90,5,13,1.6,99.74,27,,Smoke,5.691
25-06-2023 08:00,6,25,08:00,21.7,18.7,83,7,13,1.2,99.75,28,,Smoke,5.662
25-06-2023 09:00,6,25,09:00,23,18.1,74,7,16,1.2,99.77,29,,Smoke,5.798
25-06-2023 10:00,6,25,10:00,23.2,17.8,71,10,18,1.2,99.77,29,,Smoke,5.821
25-06-2023 11:00,6,25,11:00,23.9,17.8,68,8,13,1.2,99.78,30,,Smoke,5.731
25-06-2023 12:00,6,25,12:00,24.8,18.8,69,12,12,1.6,99.73,31,,Smoke,5.678
25-06-2023 13:00,6,25,13:00,25.8,18.3,63,7,10,1.6,99.69,32,,Smoke,5.72
25-06-2023 14:00,6,25,14:00,25.6,18.4,64,10,8,2.4,99.68,32,,Smoke,5.783
25-06-2023 15:00,6,25,15:00,25.7,18.4,63,12,9,2.4,99.65,32,,Smoke,5.714
25-06-2023 16:00,6,25,16:00,26.1,17.8,60,6,13,2.4,99.61,32,,Smoke,5.684
25-06-2023 17:00,6,25,17:00,25.2,15.8,55,7,31,2.4,99.55,30,,Smoke,5.655
25-06-2023 18:00,6,25,18:00,24.6,15.4,56,9,14,2.4,99.59,29,,Smoke,5.746
25-06-2023 19:00,6,25,19:00,23,14.6,59,9,16,2.4,99.57,27,,Smoke,5.741
25-06-2023 20:00,6,25,20:00,20.8,15.3,70,5,12,3.2,99.59,25,,Smoke,5.668
25-06-2023 21:00,6,25,21:00,20.8,13.7,63,7,13,3.2,99.62,,,Smoke,5.661
25-06-2023 22:00,6,25,22:00,20.7,12.4,59,8,13,3.2,99.59,,,Smoke,5.819
25-06-2023 23:00,6,25,23:00,20.5,12,58,9,16,3.2,99.52,,,Smoke,5.696
26-06-2023 00:00,6,26,00:00,19.8,12.2,61,8,28,3.2,99.42,,,Smoke,5.726
26-06-2023 01:00,6,26,01:00,19.5,12.9,65,7,19,3.2,99.37,,,Smoke,5.716
26-06-2023 02:00,6,26,02:00,18.9,13.3,70,7,16,3.2,99.36,,,Smoke,5.741
26-06-2023 03:00,6,26,03:00,18.4,13.4,72,7,35,4.8,99.32,,,Smoke,5.715
26-06-2023 04:00,6,26,04:00,18.1,14.3,78,7,32,4.8,99.3,,,"Rain Showers,Smoke",5.846
26-06-2023 05:00,6,26,05:00,18,15.1,83,7,34,3.2,99.29,,,Smoke,5.696
26-06-2023 06:00,6,26,06:00,19,16.1,83,8,35,4.8,99.27,,,Smoke,5.738
26-06-2023 07:00,6,26,07:00,20.4,17.2,82,9,34,3.2,99.27,26,,Smoke,5.69
26-06-2023 08:00,6,26,08:00,20.9,17.5,81,9,33,4,99.26,27,,Smoke,5.839
26-06-2023 09:00,6,26,09:00,23.5,18.4,73,8,25,4.8,99.23,30,,Smoke,5.712
26-06-2023 10:00,6,26,10:00,24.3,19.2,73,7,31,4.8,99.19,31,,Smoke,5.87
26-06-2023 11:00,6,26,11:00,26.9,20.5,67,10,16,4.8,99.11,35,,Smoke,5.665
26-06-2023 12:00,6,26,12:00,26.6,20,67,14,14,9.7,99.09,34,,Smoke,5.866
26-06-2023 13:00,6,26,13:00,26.2,20.9,72,12,16,12.9,99.04,35,,Mostly Cloudy,5.726
26-06-2023 14:00,6,26,14:00,25.4,21.4,78,30,20,12.9,99.01,34,,"Thunderstorms,Rain Showers",5.724
26-06-2023 15:00,6,26,15:00,20.6,19,90,28,13,16.1,99,27,,"Thunderstorms,Rain",5.762
26-06-2023 16:00,6,26,16:00,22.4,19.7,84,6,35,16.1,98.91,30,,Thunderstorms,5.69
26-06-2023 17:00,6,26,17:00,21,19.4,91,3,9,12.9,98.92,28,,"Thunderstorms,Rain Showers",5.809
26-06-2023 18:00,6,26,18:00,20.8,18.8,88,7,37,16.1,98.91,27,,NA,5.644
26-06-2023 19:00,6,26,19:00,19.9,19.2,96,5,14,24.1,98.96,,,Thunderstorms,5.812
26-06-2023 20:00,6,26,20:00,20.1,19.4,95,30,17,24.1,99.03,27,,NA,5.819
26-06-2023 21:00,6,26,21:00,19.7,19.1,96,4,9,12.9,99.07,,,"Thunderstorms,Rain Showers",5.838
26-06-2023 22:00,6,26,22:00,19.4,19.1,98,6,27,24.1,99.02,,,Cloudy,5.832
26-06-2023 23:00,6,26,23:00,19.7,19.2,97,6,16,24.1,99.02,,,NA,5.791
27-06-2023 00:00,6,27,00:00,19.2,18.9,98,9,4,24.1,99,,,NA,5.825
27-06-2023 01:00,6,27,01:00,19.1,19,99,8,7,24.1,98.96,,,Mostly Cloudy,5.816
27-06-2023 02:00,6,27,02:00,18.3,18.2,99,10,4,24.1,98.93,,,NA,5.715
27-06-2023 03:00,6,27,03:00,18.2,18.1,99,12,5,24.1,98.94,,,NA,5.71
27-06-2023 04:00,6,27,04:00,18,17.9,99,5,7,24.1,98.9,,,Mostly Cloudy,5.654
27-06-2023 05:00,6,27,05:00,18.4,18.4,100,9,10,24.1,98.99,,,NA,5.674
27-06-2023 06:00,6,27,06:00,19.1,18.8,98,11,8,16.1,99.02,,,NA,5.654
27-06-2023 07:00,6,27,07:00,19.9,19.1,95,10,9,24.1,99.03,,,Mostly Cloudy,5.694
27-06-2023 08:00,6,27,08:00,20.3,19.1,93,10,9,24.1,99.03,27,,NA,5.76
27-06-2023 09:00,6,27,09:00,21.6,19.1,86,9,10,24.1,98.96,28,,NA,5.778
27-06-2023 10:00,6,27,10:00,23,18.1,74,13,14,24.1,99,29,,Mostly Cloudy,5.803
27-06-2023 11:00,6,27,11:00,24,18.3,70,13,12,24.1,98.98,30,,NA,5.834
27-06-2023 12:00,6,27,12:00,24.3,19.2,73,16,7,24.1,98.96,31,,NA,5.813
27-06-2023 13:00,6,27,13:00,25.6,19.1,67,16,14,24.1,98.89,32,,Mostly Cloudy,5.816
27-06-2023 14:00,6,27,14:00,24.3,18.8,71,14,9,24.1,98.86,31,,NA,5.764
27-06-2023 15:00,6,27,15:00,24.3,20.1,77,27,12,24.1,98.85,32,,NA,5.76
27-06-2023 16:00,6,27,16:00,25.3,19.7,71,24,9,24.1,98.83,33,,Mostly Cloudy,5.755
27-06-2023 17:00,6,27,17:00,20.3,19.1,92,16,13,1.6,98.88,27,,"Thunderstorms,Moderate Rain Showers",5.756
27-06-2023 18:00,6,27,18:00,22.9,19.9,83,9,14,24.1,98.88,30,,NA,5.722
27-06-2023 19:00,6,27,19:00,21,19.6,91,11,8,24.1,98.88,28,,Mainly Clear,5.783
27-06-2023 20:00,6,27,20:00,20.2,19.6,96,11,7,24.1,98.92,27,,NA,5.778
27-06-2023 21:00,6,27,21:00,21.6,20,90,35,10,24.1,99,29,,NA,5.78
27-06-2023 22:00,6,27,22:00,20.4,19.8,97,5,8,24.1,99.01,28,,Mostly Cloudy,5.779
27-06-2023 23:00,6,27,23:00,20.1,19.8,98,11,5,24.1,99.01,28,,NA,5.781
28-06-2023 00:00,6,28,00:00,20,19.8,99,19,7,9.7,99,27,,"Rain Showers,Fog",5.83
28-06-2023 01:00,6,28,01:00,19.5,19,97,14,9,16.1,99,,,Mostly Cloudy,5.754
28-06-2023 02:00,6,28,02:00,19.5,18.4,93,19,16,16.1,99.01,,,NA,5.804
28-06-2023 03:00,6,28,03:00,17.1,16.6,97,28,23,12.9,99.07,,,Rain,5.615
28-06-2023 04:00,6,28,04:00,15.9,15.4,97,26,18,12.9,99.12,,,Rain,5.82
28-06-2023 05:00,6,28,05:00,15.2,14.6,96,27,18,12.9,99.18,,,Rain,5.806
28-06-2023 06:00,6,28,06:00,15.2,14.4,95,28,21,16.1,99.26,,,NA,5.801
28-06-2023 07:00,6,28,07:00,15.4,14.3,93,28,24,16.1,99.32,,,Cloudy,5.794
28-06-2023 08:00,6,28,08:00,15.3,14,92,29,23,24.1,99.4,,,NA,5.81
28-06-2023 09:00,6,28,09:00,15.8,14.4,91,28,14,24.1,99.48,,,NA,5.815
28-06-2023 10:00,6,28,10:00,15.1,13.8,92,26,22,16.1,99.52,,,Rain,5.815
28-06-2023 11:00,6,28,11:00,16.1,13.9,87,28,21,24.1,99.53,,,NA,5.838
28-06-2023 12:00,6,28,12:00,16.2,13.8,86,29,19,24.1,99.58,,,NA,5.821
28-06-2023 13:00,6,28,13:00,16.1,13.9,86,28,20,24.1,99.64,,,Cloudy,5.83
28-06-2023 14:00,6,28,14:00,15.9,14.4,91,30,16,6.4,99.66,,,"Rain,Fog",5.843
28-06-2023 15:00,6,28,15:00,16.3,14.5,89,29,17,9.7,99.67,,,"Rain,Fog",5.831
28-06-2023 16:00,6,28,16:00,17.4,14.6,84,30,16,16.1,99.68,,,Cloudy,5.83
28-06-2023 17:00,6,28,17:00,17.9,14.9,82,29,14,16.1,99.72,,,NA,5.848
28-06-2023 18:00,6,28,18:00,17.8,15.4,86,26,9,12.9,99.77,,,NA,5.819
28-06-2023 19:00,6,28,19:00,18.1,15.8,87,27,9,9.7,99.8,,,Smoke,5.815
28-06-2023 20:00,6,28,20:00,17.7,15.5,87,29,9,9.7,99.83,,,Smoke,5.876
28-06-2023 21:00,6,28,21:00,18.1,15.6,85,31,13,12.9,99.9,,,NA,5.889
28-06-2023 22:00,6,28,22:00,18.3,15.2,82,31,19,12.9,99.94,,,Cloudy,5.853
28-06-2023 23:00,6,28,23:00,18,15.2,83,31,15,12.9,99.92,,,NA,5.857
29-06-2023 00:00,6,29,00:00,17.9,15.1,83,31,10,12.9,99.94,,,NA,5.893
29-06-2023 01:00,6,29,01:00,18.1,15.3,84,29,10,12.9,99.94,,,Cloudy,5.902
29-06-2023 02:00,6,29,02:00,18.4,15.6,83,30,15,12.9,99.93,,,NA,5.929
29-06-2023 03:00,6,29,03:00,18.3,15.7,85,29,16,12.9,99.97,,,NA,5.913
29-06-2023 04:00,6,29,04:00,18.2,15.7,85,30,13,9.7,100,,,Smoke,5.994
29-06-2023 05:00,6,29,05:00,17.8,15.7,88,29,12,4.8,100.05,,,Smoke,5.967
29-06-2023 06:00,6,29,06:00,18.3,15.4,83,31,13,6.4,100.12,,,Smoke,5.876
29-06-2023 07:00,6,29,07:00,19.8,15.6,76,30,22,6.4,100.16,,,Smoke,5.856
29-06-2023 08:00,6,29,08:00,20.8,15.9,73,30,16,6.4,100.19,25,,Smoke,5.865
29-06-2023 09:00,6,29,09:00,22,16.4,70,28,12,6.4,100.2,27,,Smoke,5.847
29-06-2023 10:00,6,29,10:00,23.2,17,68,30,14,8.1,100.21,28,,Smoke,5.907
29-06-2023 11:00,6,29,11:00,24.4,17.2,64,29,20,9.7,100.22,30,,Smoke,5.898
29-06-2023 12:00,6,29,12:00,25.6,15.4,53,29,13,9.7,100.19,30,,Smoke,5.822
29-06-2023 13:00,6,29,13:00,26.2,15.5,51,29,16,9.7,100.18,30,,Smoke,5.847
29-06-2023 14:00,6,29,14:00,26.4,14,46,29,18,8.1,100.17,30,,Smoke,5.812
29-06-2023 15:00,6,29,15:00,26.1,13.8,46,29,8,6.4,100.12,29,,Smoke,5.84
29-06-2023 16:00,6,29,16:00,26.2,13.8,46,26,12,6.4,100.13,29,,Smoke,5.792
29-06-2023 17:00,6,29,17:00,25.7,12.9,45,25,14,6.4,100.13,28,,Smoke,5.796
29-06-2023 18:00,6,29,18:00,24.7,16,58,25,7,6.4,100.14,29,,Smoke,5.837
29-06-2023 19:00,6,29,19:00,22.6,15.7,65,26,9,6.4,100.18,27,,Smoke,5.83
29-06-2023 20:00,6,29,20:00,21.9,14.5,62,23,6,6.4,100.23,26,,Smoke,5.844
29-06-2023 21:00,6,29,21:00,19.8,14.1,69,18,7,6.4,100.28,,,Smoke,5.825
29-06-2023 22:00,6,29,22:00,18.6,14.1,75,19,9,8.1,100.29,,,Smoke,5.798
29-06-2023 23:00,6,29,23:00,17.9,14.7,82,18,10,9.7,100.28,,,Smoke,5.86
30-06-2023 00:00,6,30,00:00,17.3,15.2,88,21,9,6.4,100.26,,,Smoke,5.805
30-06-2023 01:00,6,30,01:00,17.1,15.2,88,20,8,6.4,100.22,,,Smoke,5.86
30-06-2023 02:00,6,30,02:00,16.7,15.1,90,23,6,9.7,100.23,,,Smoke,5.831
30-06-2023 03:00,6,30,03:00,15,14.8,98,20,9,6.4,100.26,,,Smoke,5.868
30-06-2023 04:00,6,30,04:00,13.4,13.2,99,14,9,6.4,100.24,,,Smoke,5.856
30-06-2023 05:00,6,30,05:00,14.8,14.6,99,20,9,3.2,100.3,,,Smoke,5.883
30-06-2023 06:00,6,30,06:00,15.7,15,96,19,8,4.8,100.36,,,Smoke,5.856
30-06-2023 07:00,6,30,07:00,18.3,15.5,84,19,4,6.4,100.36,,,Smoke,5.886
30-06-2023 08:00,6,30,08:00,21.3,15.9,71,8,5,6.4,100.37,26,,Smoke,5.87
30-06-2023 09:00,6,30,09:00,22.6,15,62,15,10,9.7,100.34,27,,Smoke,5.86
30-06-2023 10:00,6,30,10:00,22.4,16.4,68,16,9,9.7,100.37,27,,Smoke,5.911
30-06-2023 11:00,6,30,11:00,22,16.4,70,13,9,9.7,100.36,27,,Smoke,5.883
30-06-2023 12:00,6,30,12:00,22.2,16.6,70,11,6,9.7,100.35,27,,"Rain Showers,Smoke",6.056
30-06-2023 13:00,6,30,13:00,23.7,15.6,60,9,14,8.1,100.31,28,,Smoke,5.864
30-06-2023 14:00,6,30,14:00,24.5,15.3,56,15,10,8.1,100.27,29,,Smoke,5.858
30-06-2023 15:00,6,30,15:00,24.9,14.1,50,14,9,8.1,100.24,28,,Smoke,5.855
30-06-2023 16:00,6,30,16:00,25.7,15.5,53,11,8,8.1,100.21,30,,Smoke,5.83
30-06-2023 17:00,6,30,17:00,25.7,15.2,52,12,11,6.4,100.16,30,,Smoke,5.857
30-06-2023 18:00,6,30,18:00,25.4,15.8,55,12,10,6.4,100.11,30,,Smoke,5.863
30-06-2023 19:00,6,30,19:00,23.9,17.3,66,11,10,6.4,100.13,29,,Smoke,5.813
30-06-2023 20:00,6,30,20:00,21.7,17.2,75,10,9,6.4,100.16,27,,Smoke,5.837
30-06-2023 21:00,6,30,21:00,20.5,16,75,9,10,6.4,100.16,25,,Smoke,5.75
30-06-2023 22:00,6,30,22:00,20.4,16.9,80,10,12,6.4,100.12,26,,Smoke,5.838
30-06-2023 23:00,6,30,23:00,20.3,17.6,84,10,13,6.4,100.07,26,,Smoke,5.856
01-07-2023 00:00,7,1,00:00,19.7,17.8,89,11,13,6.4,100.04,,,Smoke,5.93
01-07-2023 01:00,7,1,01:00,19.4,17.9,91,13,13,6.4,100.01,,,Smoke,5.897
01-07-2023 02:00,7,1,02:00,19.6,17.6,88,12,8,8.1,99.98,,,Smoke,5.96
01-07-2023 03:00,7,1,03:00,19.1,17.4,89,10,8,6.4,99.95,,,Smoke,5.929
01-07-2023 04:00,7,1,04:00,18.9,17.8,94,10,8,8.1,99.93,,,"Thunderstorms,Rain Showers,Smoke",5.859
01-07-2023 05:00,7,1,05:00,18.6,17.4,93,12,10,6.4,99.93,,,Smoke,5.838
01-07-2023 06:00,7,1,06:00,19.6,17.5,87,15,5,6.4,99.95,,,Smoke,5.666
01-07-2023 07:00,7,1,07:00,20.7,18.4,86,13,5,4.8,99.94,27,,Smoke,5.832
01-07-2023 08:00,7,1,08:00,21.6,18.9,84,19,9,4.8,99.95,28,,Smoke,5.855
01-07-2023 09:00,7,1,09:00,24.5,20.6,79,19,9,3.2,99.9,33,,Smoke,5.842
01-07-2023 10:00,7,1,10:00,25.1,21.1,78,22,11,3.2,99.89,34,,Smoke,5.871
01-07-2023 11:00,7,1,11:00,26.4,20.9,71,20,16,3.2,99.85,35,,Smoke,5.828
01-07-2023 12:00,7,1,12:00,26.9,21.7,73,17,14,4.8,99.82,36,,Smoke,5.832
01-07-2023 13:00,7,1,13:00,27,21.2,70,18,15,4.8,99.76,36,,Smoke,5.925
01-07-2023 14:00,7,1,14:00,26.4,20.7,70,17,10,4.8,99.69,35,,Smoke,5.861
01-07-2023 15:00,7,1,15:00,25.9,20.5,71,20,14,6.4,99.68,34,,"Thunderstorms,Smoke",5.838
01-07-2023 16:00,7,1,16:00,20.3,18.1,87,29,3,19.3,99.77,26,,"Thunderstorms,Rain Showers",5.779
01-07-2023 17:00,7,1,17:00,21.7,20,90,10,7,19.3,99.67,29,,NA,5.853
01-07-2023 18:00,7,1,18:00,21.1,19.8,92,6,13,16.1,99.65,29,,NA,5.864
01-07-2023 19:00,7,1,19:00,20.8,19.9,95,5,10,24.1,99.7,28,,Mostly Cloudy,5.922
01-07-2023 20:00,7,1,20:00,20.7,19.9,95,11,12,24.1,99.69,28,,NA,5.919
01-07-2023 21:00,7,1,21:00,20,19.3,95,11,14,24.1,99.66,27,,NA,5.94
01-07-2023 22:00,7,1,22:00,19.9,18.9,94,14,16,12.9,99.68,,,Mostly Cloudy,5.917
01-07-2023 23:00,7,1,23:00,19.5,19,97,14,9,12.9,99.69,,,NA,5.969
02-07-2023 00:00,7,2,00:00,19.9,19.5,97,10,3,12.9,99.69,,,NA,6.057
02-07-2023 01:00,7,2,01:00,19.7,19.4,98,12,4,12.9,99.65,,,Cloudy,5.947
02-07-2023 02:00,7,2,02:00,19.8,19.4,97,5,6,12.9,99.61,,,NA,5.895
02-07-2023 03:00,7,2,03:00,19.7,19.5,99,19,5,24.1,99.56,,,NA,6.062
02-07-2023 04:00,7,2,04:00,19.2,18.8,97,13,7,12.9,99.58,,,Mostly Cloudy,5.989
02-07-2023 05:00,7,2,05:00,19.1,19,99,36,2,12.9,99.62,,,NA,5.951
02-07-2023 06:00,7,2,06:00,19.7,19.6,99,8,4,1.6,99.62,,,Fog,5.825
02-07-2023 07:00,7,2,07:00,20.4,20,97,9,5,3.2,99.63,28,,Fog,5.88
02-07-2023 08:00,7,2,08:00,21.2,20.2,94,36,2,4.8,99.64,29,,Fog,5.873
02-07-2023 09:00,7,2,09:00,21.4,20.2,93,36,2,6.4,99.66,29,,Fog,5.861
02-07-2023 10:00,7,2,10:00,22.6,20.8,90,1,6,8.1,99.66,31,,Fog,5.837
02-07-2023 11:00,7,2,11:00,23.4,20.9,85,31,3,8.1,99.69,32,,Fog,5.833
02-07-2023 12:00,7,2,12:00,25.3,20.7,76,35,3,8.1,99.68,33,,"Smoke,Haze",5.821
02-07-2023 13:00,7,2,13:00,25.8,21.3,76,3,7,8.1,99.61,34,,Haze,5.845
02-07-2023 14:00,7,2,14:00,26.3,21.1,72,35,7,8.1,99.58,35,,Haze,5.864
02-07-2023 15:00,7,2,15:00,26.3,20.1,68,31,6,8.1,99.54,34,,Haze,5.846
02-07-2023 16:00,7,2,16:00,26.4,20.3,68,18,5,9.7,99.53,34,,Haze,5.831
02-07-2023 17:00,7,2,17:00,26.1,21.1,74,26,5,16.1,99.53,35,,NA,5.709
02-07-2023 18:00,7,2,18:00,25.7,21.7,78,21,4,16.1,99.54,35,,NA,5.668
02-07-2023 19:00,7,2,19:00,24.5,21.6,84,22,5,24.1,99.55,33,,Mostly Cloudy,5.664
02-07-2023 20:00,7,2,20:00,22.6,20.6,88,15,5,24.1,99.56,31,,NA,5.69
02-07-2023 21:00,7,2,21:00,21.4,19.9,91,14,4,24.1,99.61,29,,NA,5.685
02-07-2023 22:00,7,2,22:00,20.4,19.4,94,36,1,16.1,99.59,27,,Mainly Clear,5.666
02-07-2023 23:00,7,2,23:00,20.2,19.4,95,11,5,16.1,99.61,27,,NA,5.721
03-07-2023 00:00,7,3,00:00,18.4,18.1,98,36,3,16.1,99.59,,,NA,5.683
03-07-2023 01:00,7,3,01:00,19.1,19.1,100,12,4,9.7,99.61,,,Fog,5.739
03-07-2023 02:00,7,3,02:00,19.4,19.4,100,5,9,0.2,99.61,,,Fog,5.712
03-07-2023 03:00,7,3,03:00,19.2,19.2,100,6,8,0.2,99.61,,,Fog,5.717
03-07-2023 04:00,7,3,04:00,19.1,19.1,100,5,11,0.4,99.63,,,Fog,5.716
03-07-2023 05:00,7,3,05:00,19.2,19.2,100,6,10,0.4,99.67,,,Fog,5.709
03-07-2023 06:00,7,3,06:00,19.4,19.4,100,6,8,0.8,99.7,,,Fog,5.693
03-07-2023 07:00,7,3,07:00,20,20,100,7,8,1.6,99.73,28,,Fog,5.707
03-07-2023 08:00,7,3,08:00,20.6,20.2,98,4,8,3.2,99.73,28,,Fog,5.712
03-07-2023 09:00,7,3,09:00,21.4,19.8,91,13,7,6.4,99.76,29,,Fog,5.705
03-07-2023 10:00,7,3,10:00,24.1,20.9,82,11,4,8.1,99.78,32,,Fog,5.686
03-07-2023 11:00,7,3,11:00,25.4,20.9,76,7,9,8.1,99.77,34,,Haze,5.709
03-07-2023 12:00,7,3,12:00,26.2,21.1,73,36,3,8.1,99.73,35,,Haze,5.679
03-07-2023 13:00,7,3,13:00,27.7,21.3,67,11,3,8.1,99.71,36,,Haze,5.696
03-07-2023 14:00,7,3,14:00,27.7,20.5,64,8,9,9.7,99.7,36,,Haze,5.703
03-07-2023 15:00,7,3,15:00,27.6,19.7,62,17,6,19.3,99.66,35,,NA,5.701
03-07-2023 16:00,7,3,16:00,27.5,20.4,65,35,12,19.3,99.68,35,,Mostly Cloudy,5.679
03-07-2023 17:00,7,3,17:00,27.2,20.1,65,6,3,19.3,99.63,35,,NA,5.663
03-07-2023 18:00,7,3,18:00,26.6,21,71,5,12,24.1,99.7,35,,NA,5.683
03-07-2023 19:00,7,3,19:00,25.8,21.9,79,4,9,24.1,99.73,35,,Mostly Cloudy,5.658
03-07-2023 20:00,7,3,20:00,25.7,20.3,71,25,4,24.1,99.75,34,,NA,5.691
03-07-2023 21:00,7,3,21:00,23.2,20.1,83,18,7,24.1,99.74,31,,NA,5.686
03-07-2023 22:00,7,3,22:00,20.6,19.5,93,20,5,24.1,99.79,28,,Mainly Clear,5.668
03-07-2023 23:00,7,3,23:00,20.1,19.4,96,17,7,24.1,99.81,27,,NA,5.693
04-07-2023 00:00,7,4,00:00,20.6,20,96,18,6,24.1,99.86,28,,NA,5.683
04-07-2023 01:00,7,4,01:00,19.3,18.9,97,21,4,24.1,99.84,,,Clear,5.727
04-07-2023 02:00,7,4,02:00,19.3,19.2,100,22,4,24.1,99.85,,,NA,5.68
04-07-2023 03:00,7,4,03:00,18.2,18.2,100,36,2,24.1,99.84,,,NA,5.714
04-07-2023 04:00,7,4,04:00,18.6,18.6,100,36,3,12.9,99.85,,,Clear,5.723
04-07-2023 05:00,7,4,05:00,18.8,18.8,100,3,6,12.9,99.89,,,NA,5.72
04-07-2023 06:00,7,4,06:00,21,20.8,99,36,3,16.1,99.91,29,,NA,5.711
04-07-2023 07:00,7,4,07:00,23.5,20.1,81,29,3,16.1,99.95,31,,Clear,5.719
04-07-2023 08:00,7,4,08:00,25,21,78,15,3,16.1,99.99,33,,NA,5.717
04-07-2023 09:00,7,4,09:00,27.1,21.2,69,36,1,24.1,99.99,36,,NA,5.785
04-07-2023 10:00,7,4,10:00,28.2,21.1,65,22,7,16.1,99.97,37,,Mainly Clear,5.72
04-07-2023 11:00,7,4,11:00,29.5,19.6,55,15,5,16.1,99.98,37,,NA,5.659
04-07-2023 12:00,7,4,12:00,29.7,18.6,51,22,4,24.1,99.93,36,,NA,5.599
04-07-2023 13:00,7,4,13:00,29.5,18.7,52,19,3,16.1,99.89,36,,Mostly Cloudy,5.664
04-07-2023 14:00,7,4,14:00,30.7,19.3,50,14,7,16.1,99.9,38,,NA,5.629
04-07-2023 15:00,7,4,15:00,26.6,19.5,65,9,13,16.1,99.96,34,,NA,5.658
04-07-2023 16:00,7,4,16:00,25.8,20.4,72,6,30,16.1,99.89,34,,Mostly Cloudy,5.806
04-07-2023 17:00,7,4,17:00,26.8,20.6,69,3,7,16.1,99.86,35,,NA,5.737
04-07-2023 18:00,7,4,18:00,27.6,21.5,69,24,11,24.1,99.78,36,,NA,5.689
04-07-2023 19:00,7,4,19:00,25.8,21.9,79,10,28,24.1,99.95,35,,Mostly Cloudy,5.639
04-07-2023 20:00,7,4,20:00,23.4,20.8,85,13,10,24.1,99.94,32,,NA,5.692
04-07-2023 21:00,7,4,21:00,22,20.7,92,11,9,24.1,99.97,30,,NA,5.743
04-07-2023 22:00,7,4,22:00,21.7,20.7,94,6,8,24.1,100,30,,Mainly Clear,5.742
04-07-2023 23:00,7,4,23:00,20.5,19.7,95,7,6,24.1,100,28,,NA,5.722
05-07-2023 00:00,7,5,00:00,20.5,20,97,30,3,24.1,100.01,28,,NA,5.685
05-07-2023 01:00,7,5,01:00,20.2,19.8,97,5,13,24.1,100.02,28,,Clear,5.673
05-07-2023 02:00,7,5,02:00,19.6,19.5,99,5,4,24.1,100.01,,,NA,5.68
05-07-2023 03:00,7,5,03:00,18.9,18.8,99,36,2,24.1,100,,,NA,5.676
05-07-2023 04:00,7,5,04:00,19.2,19.2,100,26,5,16.1,100.03,,,Mainly Clear,5.697
05-07-2023 05:00,7,5,05:00,18.4,18.4,100,20,5,1.2,100.08,,,Fog,5.702
05-07-2023 06:00,7,5,06:00,20.3,20.2,100,24,7,12.9,100.08,28,,NA,5.683
05-07-2023 07:00,7,5,07:00,23.1,21.4,90,25,11,16.1,100.1,32,,Mainly Clear,5.682
05-07-2023 08:00,7,5,08:00,25.6,19.9,71,28,14,16.1,100.11,33,,NA,5.788
05-07-2023 09:00,7,5,09:00,27.2,20.1,65,29,11,24.1,100.09,35,,NA,5.821
05-07-2023 10:00,7,5,10:00,28.8,19.1,55,30,4,16.1,100.09,36,,Mainly Clear,5.806
05-07-2023 11:00,7,5,11:00,29.9,20.3,56,30,8,16.1,100.1,38,,NA,5.79
05-07-2023 12:00,7,5,12:00,31.4,19.9,50,29,7,24.1,100.09,39,,NA,5.737
05-07-2023 13:00,7,5,13:00,31.9,19.1,46,28,19,16.1,100.05,39,,Mostly Cloudy,5.786
05-07-2023 14:00,7,5,14:00,32.8,20.1,46,29,16,16.1,100.02,40,,NA,5.858
05-07-2023 15:00,7,5,15:00,32.5,19.8,46,25,17,16.1,99.99,40,,NA,5.842
05-07-2023 16:00,7,5,16:00,32.8,18.1,41,27,9,16.1,99.95,39,,Mostly Cloudy,5.838
05-07-2023 17:00,7,5,17:00,32.3,19.2,45,24,9,24.1,99.91,39,,NA,5.835
05-07-2023 18:00,7,5,18:00,31.4,17.6,43,24,12,24.1,99.93,37,,NA,5.86
05-07-2023 19:00,7,5,19:00,29.2,18,50,24,11,24.1,99.91,35,,Mainly Clear,5.876
05-07-2023 20:00,7,5,20:00,27.7,17.2,52,21,7,24.1,99.91,33,,NA,5.817
05-07-2023 21:00,7,5,21:00,25.1,17.2,61,17,8,24.1,99.97,31,,NA,5.729
05-07-2023 22:00,7,5,22:00,24.2,19.1,73,18,8,24.1,99.97,31,,Mainly Clear,5.618
05-07-2023 23:00,7,5,23:00,23.4,19.2,77,20,10,24.1,100,30,,NA,5.475
06-07-2023 00:00,7,6,00:00,22.4,19.3,83,29,7,24.1,100.02,29,,NA,5.499
06-07-2023 01:00,7,6,01:00,21.9,19.5,86,19,10,24.1,100.02,29,,Mainly Clear,5.527
06-07-2023 02:00,7,6,02:00,21.4,19,86,19,12,24.1,100.01,28,,NA,5.52
06-07-2023 03:00,7,6,03:00,20.7,18.8,89,20,10,24.1,100.01,27,,NA,5.505
06-07-2023 04:00,7,6,04:00,20,18.6,92,18,11,24.1,99.98,26,,Mainly Clear,5.529
06-07-2023 05:00,7,6,05:00,20,18.8,93,20,10,24.1,100,27,,NA,5.551
06-07-2023 06:00,7,6,06:00,21.6,19.2,86,22,7,24.1,100,29,,NA,5.544
06-07-2023 07:00,7,6,07:00,24.6,18.9,70,22,12,24.1,100,31,,Mostly Cloudy,5.564
06-07-2023 08:00,7,6,08:00,26.3,19.6,66,23,7,24.1,99.97,34,,NA,5.528
06-07-2023 09:00,7,6,09:00,28.3,20.5,62,23,10,24.1,99.92,36,,NA,5.542
06-07-2023 10:00,7,6,10:00,29.7,20.6,58,21,13,24.1,99.88,38,,Mainly Clear,5.542
06-07-2023 11:00,7,6,11:00,30.9,19.6,51,22,11,24.1,99.85,38,,NA,5.489
06-07-2023 12:00,7,6,12:00,31.7,19,46,18,14,24.1,99.78,38,,NA,5.581
06-07-2023 13:00,7,6,13:00,32.8,17.5,39,21,13,24.1,99.7,38,,Mostly Cloudy,5.592
06-07-2023 14:00,7,6,14:00,33,17.4,39,20,14,24.1,99.62,39,,NA,5.595
06-07-2023 15:00,7,6,15:00,33.4,16.3,35,20,19,24.1,99.59,38,,NA,5.578
06-07-2023 16:00,7,6,16:00,32.5,17.1,39,22,23,24.1,99.54,38,,Mostly Cloudy,5.55
06-07-2023 17:00,7,6,17:00,31.3,17.5,43,21,18,24.1,99.53,37,,NA,5.596
06-07-2023 18:00,7,6,18:00,29.5,18.1,49,21,11,24.1,99.54,36,,NA,5.532
06-07-2023 19:00,7,6,19:00,25.3,19.5,70,31,24,24.1,99.62,32,,Mostly Cloudy,5.573
06-07-2023 20:00,7,6,20:00,24.7,18.8,69,34,15,24.1,99.61,31,,NA,5.463
06-07-2023 21:00,7,6,21:00,24.4,18.8,71,33,8,24.1,99.62,31,,NA,5.525
06-07-2023 22:00,7,6,22:00,22.5,19,80,20,6,24.1,99.62,29,,Mostly Cloudy,5.49
06-07-2023 23:00,7,6,23:00,22.3,19.6,85,28,6,24.1,99.59,30,,NA,5.498
07-07-2023 00:00,7,7,00:00,21.8,19.5,87,26,10,24.1,99.6,29,,NA,5.5
07-07-2023 01:00,7,7,01:00,20.8,19.5,92,23,7,24.1,99.56,28,,Mostly Cloudy,5.505
07-07-2023 02:00,7,7,02:00,20.7,19.6,93,24,8,24.1,99.59,28,,NA,5.531
07-07-2023 03:00,7,7,03:00,20.8,19.6,93,25,10,24.1,99.62,28,,"Thunderstorms,Rain Showers",5.518
07-07-2023 04:00,7,7,04:00,20.3,19.5,95,24,7,24.1,99.62,27,,Mostly Cloudy,5.536
07-07-2023 05:00,7,7,05:00,20.8,19.9,95,24,7,24.1,99.62,28,,Rain Showers,5.554
07-07-2023 06:00,7,7,06:00,21,20.1,94,28,7,24.1,99.67,29,,NA,5.548
07-07-2023 07:00,7,7,07:00,22.4,20.1,87,29,18,24.1,99.69,30,,Mostly Cloudy,5.567
07-07-2023 08:00,7,7,08:00,23.8,19.6,77,27,18,24.1,99.74,31,,NA,5.544
07-07-2023 09:00,7,7,09:00,23.4,19.7,80,27,12,24.1,99.76,31,,NA,5.544
07-07-2023 10:00,7,7,10:00,24.2,18.6,70,26,16,24.1,99.76,31,,Mostly Cloudy,5.524
07-07-2023 11:00,7,7,11:00,24,19.1,74,26,15,24.1,99.76,31,,NA,5.513
07-07-2023 12:00,7,7,12:00,25.4,19.4,69,28,14,24.1,99.73,32,,NA,5.506
07-07-2023 13:00,7,7,13:00,26.4,18.5,61,30,18,24.1,99.68,33,,Mostly Cloudy,5.512
07-07-2023 14:00,7,7,14:00,27.8,19.6,60,27,18,24.1,99.66,35,,NA,5.513
07-07-2023 15:00,7,7,15:00,28.4,18.4,54,27,18,24.1,99.64,35,,NA,5.396
07-07-2023 16:00,7,7,16:00,29,17.5,49,29,14,24.1,99.62,35,,Mainly Clear,5.439
07-07-2023 17:00,7,7,17:00,28.7,17.6,50,27,14,24.1,99.64,34,,NA,5.49
07-07-2023 18:00,7,7,18:00,27.8,17.8,54,28,15,24.1,99.67,34,,NA,5.435
07-07-2023 19:00,7,7,19:00,25.5,19,67,26,9,24.1,99.64,32,,Mainly Clear,5.418
07-07-2023 20:00,7,7,20:00,24.4,18.2,68,26,7,24.1,99.64,31,,NA,5.483
07-07-2023 21:00,7,7,21:00,23.9,18.3,71,19,12,24.1,99.73,30,,NA,5.539
07-07-2023 22:00,7,7,22:00,22.8,19.9,83,21,10,24.1,99.72,30,,Mainly Clear,5.51
07-07-2023 23:00,7,7,23:00,22,19.8,87,22,9,24.1,99.72,29,,NA,5.549
08-07-2023 00:00,7,8,00:00,21,19.6,92,22,6,24.1,99.72,28,,NA,5.525
08-07-2023 01:00,7,8,01:00,21,19.6,92,29,9,24.1,99.75,28,,Mainly Clear,5.512
08-07-2023 02:00,7,8,02:00,21.4,19.9,91,29,7,24.1,99.72,29,,NA,5.499
08-07-2023 03:00,7,8,03:00,19.5,19,97,18,8,24.1,99.69,,,NA,5.508
08-07-2023 04:00,7,8,04:00,19.6,19.1,97,16,10,24.1,99.74,,,Mostly Cloudy,5.557
08-07-2023 05:00,7,8,05:00,19.8,19.4,98,15,10,24.1,99.75,,,NA,5.559
08-07-2023 06:00,7,8,06:00,19.8,19.5,99,18,8,2.4,99.75,,,Fog,5.412
08-07-2023 07:00,7,8,07:00,19.9,19.6,98,22,12,9.7,99.79,,,Fog,5.561
08-07-2023 08:00,7,8,08:00,22.8,17.3,71,20,9,24.1,99.78,28,,NA,5.533
08-07-2023 09:00,7,8,09:00,25.1,16,56,20,15,24.1,99.76,30,,NA,5.537
08-07-2023 10:00,7,8,10:00,25.9,13.9,47,19,15,24.1,99.75,29,,Mainly Clear,5.532
08-07-2023 11:00,7,8,11:00,26.3,12.1,41,16,22,24.1,99.77,29,,NA,5.5
08-07-2023 12:00,7,8,12:00,27.2,13.4,42,18,22,24.1,99.73,30,,NA,5.513
08-07-2023 13:00,7,8,13:00,27,12.1,39,19,14,24.1,99.68,29,,Mainly Clear,5.505
08-07-2023 14:00,7,8,14:00,27.5,13.7,42,22,17,24.1,99.65,31,,NA,5.484
08-07-2023 15:00,7,8,15:00,27.4,13.8,42,18,12,24.1,99.62,31,,NA,5.493
08-07-2023 16:00,7,8,16:00,27.6,12.1,38,19,14,24.1,99.58,30,,Clear,5.499
08-07-2023 17:00,7,8,17:00,26.4,12.9,43,22,13,24.1,99.55,29,,NA,5.411
08-07-2023 18:00,7,8,18:00,24.7,9.2,37,20,17,24.1,99.54,26,,NA,5.444
08-07-2023 19:00,7,8,19:00,22.9,11.5,48,18,9,24.1,99.55,25,,Mostly Cloudy,5.475
08-07-2023 20:00,7,8,20:00,21.6,11.8,53,22,7,24.1,99.57,,,NA,5.5
08-07-2023 21:00,7,8,21:00,21.1,12.9,59,19,7,24.1,99.6,,,NA,5.482
08-07-2023 22:00,7,8,22:00,19.7,14,69,19,7,24.1,99.56,,,Mostly Cloudy,5.442
08-07-2023 23:00,7,8,23:00,19.6,15.5,77,19,9,24.1,99.62,,,NA,5.406
09-07-2023 00:00,7,9,00:00,19.7,15.8,78,22,8,24.1,99.62,,,NA,5.389
09-07-2023 01:00,7,9,01:00,19.5,15.9,80,20,7,24.1,99.62,,,Mostly Cloudy,5.523
09-07-2023 02:00,7,9,02:00,18.6,16.1,85,18,10,24.1,99.62,,,NA,5.527
09-07-2023 03:00,7,9,03:00,18,15.9,87,21,10,24.1,99.61,,,NA,5.524
09-07-2023 04:00,7,9,04:00,17.5,16.1,91,21,8,24.1,99.63,,,Mostly Cloudy,5.509
09-07-2023 05:00,7,9,05:00,17.1,15.7,92,22,8,24.1,99.67,,,NA,5.506
09-07-2023 06:00,7,9,06:00,19.1,16.6,85,26,7,24.1,99.67,,,NA,5.484
09-07-2023 07:00,7,9,07:00,19.7,16.5,82,26,10,24.1,99.72,,,Mostly Cloudy,5.525
09-07-2023 08:00,7,9,08:00,20.7,16.3,75,25,8,24.1,99.74,26,,NA,5.507
09-07-2023 09:00,7,9,09:00,21.7,16,70,19,5,24.1,99.7,26,,NA,5.532
09-07-2023 10:00,7,9,10:00,22.5,15.8,65,36,3,24.1,99.69,27,,Mostly Cloudy,5.541
09-07-2023 11:00,7,9,11:00,23.3,16.3,64,36,1,24.1,99.69,28,,NA,5.517
09-07-2023 12:00,7,9,12:00,24.1,14.5,54,,0,24.1,99.67,28,,NA,5.518
09-07-2023 13:00,7,9,13:00,25.3,15.1,53,34,5,24.1,99.62,29,,Cloudy,5.516
09-07-2023 14:00,7,9,14:00,26.5,15.9,52,36,3,24.1,99.57,31,,NA,5.465
09-07-2023 15:00,7,9,15:00,26.5,15.4,50,25,5,24.1,99.56,31,,NA,5.38
09-07-2023 16:00,7,9,16:00,26.3,16.4,54,4,13,24.1,99.54,31,,Cloudy,5.364
09-07-2023 17:00,7,9,17:00,25.9,16.6,56,5,4,24.1,99.52,31,,NA,5.353
09-07-2023 18:00,7,9,18:00,25,16.7,60,6,9,24.1,99.56,30,,NA,5.369
09-07-2023 19:00,7,9,19:00,24.3,17.5,65,5,9,24.1,99.57,30,,Cloudy,5.296
09-07-2023 20:00,7,9,20:00,23.7,17.8,69,5,7,24.1,99.56,30,,NA,5.315
09-07-2023 21:00,7,9,21:00,22.9,18.2,75,14,5,24.1,99.6,29,,NA,5.326
09-07-2023 22:00,7,9,22:00,21.8,18.6,82,11,9,24.1,99.58,28,,Cloudy,5.366
09-07-2023 23:00,7,9,23:00,20.9,18.9,88,11,9,12.9,99.57,28,,Rain Showers,5.376
10-07-2023 00:00,7,10,00:00,20.1,19.4,96,6,9,12.9,99.55,27,,NA,5.407
10-07-2023 01:00,7,10,01:00,19.9,19.1,96,7,7,24.1,99.53,,,Cloudy,5.385
10-07-2023 02:00,7,10,02:00,19.4,19,98,4,9,24.1,99.56,,,NA,5.421
10-07-2023 03:00,7,10,03:00,19.6,19.3,98,4,9,12.9,99.53,,,NA,5.388
10-07-2023 04:00,7,10,04:00,19.4,19.1,98,5,4,12.9,99.55,,,Mostly Cloudy,5.408
10-07-2023 05:00,7,10,05:00,19.8,19.5,98,3,11,12.9,99.53,,,NA,5.401
10-07-2023 06:00,7,10,06:00,20.2,19.7,97,3,3,12.9,99.6,28,,NA,5.394
10-07-2023 07:00,7,10,07:00,21.1,19.6,91,34,8,16.1,99.63,28,,Cloudy,5.384
10-07-2023 08:00,7,10,08:00,22.1,19.4,84,36,1,24.1,99.68,29,,NA,5.4
10-07-2023 09:00,7,10,09:00,23.8,19.1,75,33,12,24.1,99.65,31,,NA,5.445
10-07-2023 10:00,7,10,10:00,24.1,20.1,78,29,13,24.1,99.65,32,,Mostly Cloudy,5.462
10-07-2023 11:00,7,10,11:00,24.5,19.3,72,30,3,24.1,99.62,32,,NA,5.447
10-07-2023 12:00,7,10,12:00,24.5,19.2,72,13,4,24.1,99.59,31,,NA,5.427
10-07-2023 13:00,7,10,13:00,24.8,19.6,72,9,6,24.1,99.58,32,,Mostly Cloudy,5.418
10-07-2023 14:00,7,10,14:00,26.6,19.9,66,36,3,24.1,99.55,34,,NA,5.662
10-07-2023 15:00,7,10,15:00,26.8,18.8,61,31,4,24.1,99.54,33,,NA,5.626
10-07-2023 16:00,7,10,16:00,25.8,19.2,66,10,13,24.1,99.53,33,,Mostly Cloudy,5.596
10-07-2023 17:00,7,10,17:00,24.2,20.4,79,17,4,24.1,99.55,32,,Rain,5.584
10-07-2023 18:00,7,10,18:00,23,20.8,87,11,10,24.1,99.55,31,,NA,4.555
10-07-2023 19:00,7,10,19:00,21.6,20.5,94,17,10,24.1,99.56,30,,Mostly Cloudy,5.612
10-07-2023 20:00,7,10,20:00,21.2,20.5,96,17,8,24.1,99.57,29,,NA,5.649
10-07-2023 21:00,7,10,21:00,19.8,19.4,98,13,9,24.1,99.61,,,NA,5.581
10-07-2023 22:00,7,10,22:00,19.1,18.9,99,14,8,24.1,99.57,,,Mostly Cloudy,5.584
10-07-2023 23:00,7,10,23:00,18.9,18.6,98,16,7,24.1,99.54,,,NA,5.617
11-07-2023 00:00,7,11,00:00,18.3,18.2,99,14,4,24.1,99.52,,,NA,5.693
11-07-2023 01:00,7,11,01:00,18,17.9,100,21,7,24.1,99.47,,,Mostly Cloudy,5.562
11-07-2023 02:00,7,11,02:00,18.3,18.3,100,36,2,24.1,99.47,,,NA,5.555
11-07-2023 03:00,7,11,03:00,18.2,18.2,100,25,5,24.1,99.48,,,NA,5.428
11-07-2023 04:00,7,11,04:00,18.5,18,97,24,3,24.1,99.5,,,Cloudy,5.344
11-07-2023 05:00,7,11,05:00,18.7,17.2,91,21,8,24.1,99.51,,,NA,5.347
11-07-2023 06:00,7,11,06:00,18.9,17.5,92,21,9,24.1,99.52,,,NA,5.359
11-07-2023 07:00,7,11,07:00,19.1,17.2,89,19,11,24.1,99.47,,,Mostly Cloudy,5.372
11-07-2023 08:00,7,11,08:00,21.8,17.8,78,21,11,24.1,99.45,28,,NA,5.331
11-07-2023 09:00,7,11,09:00,24,17.6,67,23,10,24.1,99.46,30,,NA,5.362
11-07-2023 10:00,7,11,10:00,25.3,17.1,60,23,5,24.1,99.42,31,,Mostly Cloudy,5.356
11-07-2023 11:00,7,11,11:00,27.3,18.3,57,19,17,24.1,99.4,34,,NA,5.373
11-07-2023 12:00,7,11,12:00,28.6,18.5,54,22,22,24.1,99.39,35,,NA,5.569
11-07-2023 13:00,7,11,13:00,28.2,18.5,55,21,17,24.1,99.33,35,,Mainly Clear,6.363
11-07-2023 14:00,7,11,14:00,31.3,17.4,43,18,28,24.1,99.29,37,,NA,6.486
11-07-2023 15:00,7,11,15:00,31.4,14.1,34,19,30,24.1,99.25,35,,NA,6.631
11-07-2023 16:00,7,11,16:00,31.1,15.5,38,21,24,24.1,99.26,35,,Mostly Cloudy,6.392
11-07-2023 17:00,7,11,17:00,25.6,16.3,56,33,32,24.1,99.42,30,,NA,6.473
11-07-2023 18:00,7,11,18:00,21.2,18.9,86,32,18,16.1,99.53,28,,"Thunderstorms,Rain Showers",6.49
11-07-2023 19:00,7,11,19:00,21.7,19.8,89,36,2,24.1,99.54,29,,Mostly Cloudy,6.457
11-07-2023 20:00,7,11,20:00,17.8,16.3,91,27,5,8.1,99.66,,,"Thunderstorms,Moderate Rain Showers",6.265
11-07-2023 21:00,7,11,21:00,18,17.6,97,17,5,12.9,99.64,,,Rain Showers,6.344
11-07-2023 22:00,7,11,22:00,17.7,17.3,97,16,7,24.1,99.61,,,Mostly Cloudy,6.297
11-07-2023 23:00,7,11,23:00,17.3,16.7,96,16,9,24.1,99.63,,,NA,6.434
12-07-2023 00:00,7,12,00:00,17,16.6,97,18,5,24.1,99.65,,,NA,6.488
12-07-2023 01:00,7,12,01:00,16.9,16.6,98,24,8,16.1,99.61,,,Mainly Clear,6.633
12-07-2023 02:00,7,12,02:00,16.6,16.4,99,25,11,24.1,99.63,,,NA,6.517
12-07-2023 03:00,7,12,03:00,16,15.8,98,25,13,24.1,99.65,,,NA,6.498
12-07-2023 04:00,7,12,04:00,15.2,14.7,97,22,9,24.1,99.7,,,Mainly Clear,6.537
12-07-2023 05:00,7,12,05:00,14.3,13.7,96,23,8,24.1,99.76,,,NA,6.459
12-07-2023 06:00,7,12,06:00,15.6,14.5,93,24,10,24.1,99.83,,,NA,6.447
12-07-2023 07:00,7,12,07:00,16.9,14.8,88,25,12,24.1,99.87,,,Clear,6.407
12-07-2023 08:00,7,12,08:00,18.4,14.9,80,25,12,24.1,99.9,,,NA,0.188
12-07-2023 09:00,7,12,09:00,19.3,14.6,74,28,10,24.1,99.91,,,NA,5.449
12-07-2023 10:00,7,12,10:00,21.1,15.4,70,25,11,24.1,99.96,25,,Mostly Cloudy,6.926
12-07-2023 11:00,7,12,11:00,21.6,15.4,68,28,9,24.1,99.94,26,,NA,6.209
12-07-2023 12:00,7,12,12:00,22.7,14.3,58,25,7,24.1,99.88,26,,NA,6.057
12-07-2023 13:00,7,12,13:00,24.2,15.3,57,27,12,24.1,99.91,28,,Mostly Cloudy,6.118
12-07-2023 14:00,7,12,14:00,24.6,15,55,27,11,24.1,99.9,29,,NA,6.073
12-07-2023 15:00,7,12,15:00,25.7,15.8,54,24,9,24.1,99.85,30,,NA,5.93
12-07-2023 16:00,7,12,16:00,25.9,14.7,49,29,12,24.1,99.86,30,,Mainly Clear,6.084
12-07-2023 17:00,7,12,17:00,25.7,13,45,22,4,24.1,99.81,28,,NA,5.918
12-07-2023 18:00,7,12,18:00,25.6,14.5,50,24,5,24.1,99.82,29,,NA,6.056
12-07-2023 19:00,7,12,19:00,24.1,17.8,67,13,4,24.1,99.87,30,,Mostly Cloudy,5.99
12-07-2023 20:00,7,12,20:00,21.6,14.8,65,15,8,24.1,99.89,25,,NA,6.071
12-07-2023 21:00,7,12,21:00,20.1,15.1,73,16,10,24.1,99.91,,,NA,5.965
12-07-2023 22:00,7,12,22:00,19.5,14.2,71,19,8,24.1,99.86,,,Clear,6.045
12-07-2023 23:00,7,12,23:00,18.4,14.2,76,19,9,24.1,99.85,,,NA,6.235
13-07-2023 00:00,7,13,00:00,18.1,14.1,77,18,9,24.1,99.81,,,NA,6.177
13-07-2023 01:00,7,13,01:00,17.8,14.6,81,16,3,24.1,99.77,,,Cloudy,6.324
13-07-2023 02:00,7,13,02:00,19.1,14.3,74,34,5,24.1,99.72,,,NA,6.115
13-07-2023 03:00,7,13,03:00,16.9,14.8,87,13,10,24.1,99.67,,,NA,6.173
13-07-2023 04:00,7,13,04:00,16.8,13.2,79,10,15,24.1,99.63,,,Cloudy,6.231
13-07-2023 05:00,7,13,05:00,16.5,13.1,80,10,8,24.1,99.63,,,NA,6.223
13-07-2023 06:00,7,13,06:00,17.6,13.6,77,7,7,24.1,99.58,,,NA,6.257
13-07-2023 07:00,7,13,07:00,17,14.7,86,9,8,24.1,99.56,,,Rain Showers,6.277
13-07-2023 08:00,7,13,08:00,16.1,14.9,93,9,15,8.1,99.45,,,"Moderate Rain Showers,Fog",6.085
13-07-2023 09:00,7,13,09:00,17.6,16.6,94,9,31,24.1,99.29,,,NA,6.195
13-07-2023 10:00,7,13,10:00,20,17.4,85,9,38,24.1,99.14,26,,Mostly Cloudy,6.2
13-07-2023 11:00,7,13,11:00,23.4,19.3,77,9,31,24.1,99.03,30,,NA,6.115
13-07-2023 12:00,7,13,12:00,21.9,20.1,90,19,26,12.9,98.97,30,,"Thunderstorms,Rain Showers",6.17
13-07-2023 13:00,7,13,13:00,21.4,19.9,91,11,14,24.1,98.87,29,,Mostly Cloudy,6.125
13-07-2023 14:00,7,13,14:00,21.8,20.8,94,24,16,16.1,98.83,30,,"Thunderstorms,Rain Showers",6.178
13-07-2023 15:00,7,13,15:00,24.6,21.2,81,22,16,24.1,98.82,33,,NA,6.146
13-07-2023 16:00,7,13,16:00,23.1,18.4,75,27,22,24.1,98.98,29,,Mostly Cloudy,6.057
13-07-2023 17:00,7,13,17:00,20.5,15.3,72,28,25,24.1,99.14,25,,NA,6.224
13-07-2023 18:00,7,13,18:00,20.4,15.3,72,27,21,24.1,99.25,25,,NA,6.103
13-07-2023 19:00,7,13,19:00,20.1,14.8,71,28,22,24.1,99.34,,,Mostly Cloudy,6.212
13-07-2023 20:00,7,13,20:00,18.7,14.7,77,27,13,24.1,99.43,,,NA,6.098
13-07-2023 21:00,7,13,21:00,17.8,14.7,82,24,5,24.1,99.53,,,NA,6.097
13-07-2023 22:00,7,13,22:00,17.9,15.3,85,21,7,24.1,99.55,,,Mainly Clear,6.204
13-07-2023 23:00,7,13,23:00,16.4,14.7,90,21,9,24.1,99.59,,,NA,6.256
14-07-2023 00:00,7,14,00:00,16.2,14.6,90,20,8,24.1,99.6,,,NA,6.229
14-07-2023 01:00,7,14,01:00,15.2,14.4,95,36,3,24.1,99.62,,,Mainly Clear,6.273
14-07-2023 02:00,7,14,02:00,14.4,14.1,98,14,3,24.1,99.69,,,NA,6.289
14-07-2023 03:00,7,14,03:00,14.6,14.3,98,19,9,24.1,99.72,,,NA,6.235
14-07-2023 04:00,7,14,04:00,13.9,13.7,99,20,10,24.1,99.79,,,Clear,6.301
14-07-2023 05:00,7,14,05:00,14.4,14.3,99,19,9,24.1,99.86,,,NA,6.317
14-07-2023 06:00,7,14,06:00,15.5,15.2,98,16,8,24.1,99.86,,,NA,6.206
14-07-2023 07:00,7,14,07:00,17.8,16.6,93,23,6,24.1,99.9,,,Mainly Clear,6.262
14-07-2023 08:00,7,14,08:00,19.8,16.4,81,15,4,24.1,99.91,,,NA,6.099
14-07-2023 09:00,7,14,09:00,22.3,17,72,10,11,24.1,99.89,28,,NA,6.343
14-07-2023 10:00,7,14,10:00,22.5,17,71,14,12,24.1,99.92,28,,Mostly Cloudy,6.134
14-07-2023 11:00,7,14,11:00,23.1,16.1,64,7,5,24.1,99.93,28,,NA,6.153
14-07-2023 12:00,7,14,12:00,23.8,14.7,56,18,7,24.1,99.93,28,,NA,6.222
14-07-2023 13:00,7,14,13:00,22.9,16.9,69,15,9,24.1,99.94,28,,Mostly Cloudy,6.295
14-07-2023 14:00,7,14,14:00,23.6,16.9,66,19,12,24.1,99.93,29,,NA,6.276
14-07-2023 15:00,7,14,15:00,23.9,17.2,66,17,9,24.1,99.92,29,,NA,6.222
14-07-2023 16:00,7,14,16:00,25.2,15,53,22,6,24.1,99.88,29,,Mainly Clear,6.183
14-07-2023 17:00,7,14,17:00,25.1,15.9,56,15,4,24.1,99.86,30,,NA,6.121
14-07-2023 18:00,7,14,18:00,23.4,17.1,67,13,6,24.1,99.82,29,,NA,6.159
14-07-2023 19:00,7,14,19:00,22,17.7,76,10,9,24.1,99.82,28,,Mainly Clear,6.242
14-07-2023 20:00,7,14,20:00,20.1,17.1,83,10,10,24.1,99.84,25,,NA,6.111
14-07-2023 21:00,7,14,21:00,18.8,16.7,88,9,8,24.1,99.87,,,NA,6.104
14-07-2023 22:00,7,14,22:00,18.4,16.3,88,10,10,24.1,99.89,,,Mainly Clear,6.104
14-07-2023 23:00,7,14,23:00,18.3,14.9,81,17,11,24.1,99.9,,,NA,6.2
15-07-2023 00:00,7,15,00:00,17.5,14.5,83,17,9,24.1,99.95,,,NA,6.289
15-07-2023 01:00,7,15,01:00,16.3,14.2,88,14,6,24.1,99.91,,,Mainly Clear,6.443
15-07-2023 02:00,7,15,02:00,16.2,14.2,87,8,5,24.1,99.88,,,NA,6.243
15-07-2023 03:00,7,15,03:00,14.9,13.7,92,19,6,24.1,99.88,,,NA,6.324
15-07-2023 04:00,7,15,04:00,14.7,14,95,20,5,24.1,99.91,,,Clear,6.206
15-07-2023 05:00,7,15,05:00,13.7,13.2,96,13,4,24.1,99.94,,,NA,6.133
15-07-2023 06:00,7,15,06:00,17.5,15.9,90,6,7,24.1,99.94,,,NA,6.245
15-07-2023 07:00,7,15,07:00,18.5,16.5,88,36,3,24.1,100.02,,,Mostly Cloudy,6.307
15-07-2023 08:00,7,15,08:00,21.4,16.4,73,5,3,19.3,99.98,26,,NA,6.235
15-07-2023 09:00,7,15,09:00,23.7,15.5,60,14,9,24.1,99.99,28,,NA,6.168
15-07-2023 10:00,7,15,10:00,24.5,17,63,15,14,24.1,100.01,30,,Mostly Cloudy,6.217
15-07-2023 11:00,7,15,11:00,25.5,17.9,62,14,13,24.1,100.02,31,,NA,6.13
15-07-2023 12:00,7,15,12:00,26.5,16.9,55,13,10,24.1,99.98,32,,NA,6.223
15-07-2023 13:00,7,15,13:00,26,18.4,63,13,12,24.1,99.93,32,,Cloudy,6.131
15-07-2023 14:00,7,15,14:00,26,18,61,12,12,24.1,99.89,32,,NA,6.221
15-07-2023 15:00,7,15,15:00,25.7,17.4,60,12,12,24.1,99.85,31,,NA,6.164
15-07-2023 16:00,7,15,16:00,26,17.9,61,10,12,24.1,99.77,32,,Cloudy,6.163
15-07-2023 17:00,7,15,17:00,25.5,19,67,11,9,24.1,99.75,32,,NA,6.1
15-07-2023 18:00,7,15,18:00,25,19.5,71,9,8,24.1,99.73,32,,NA,6.105
15-07-2023 19:00,7,15,19:00,24.1,19.9,77,16,4,24.1,99.78,32,,Mostly Cloudy,6.153
15-07-2023 20:00,7,15,20:00,23.8,19.3,75,17,5,24.1,99.79,31,,NA,6.305
15-07-2023 21:00,7,15,21:00,22.6,19.4,82,13,5,24.1,99.76,30,,NA,6.097
15-07-2023 22:00,7,15,22:00,21.9,19.2,84,12,8,24.1,99.72,29,,Mostly Cloudy,6.131
15-07-2023 23:00,7,15,23:00,22.3,18.8,80,19,7,24.1,99.73,29,,NA,6.183
16-07-2023 00:00,7,16,00:00,22.1,19.2,84,10,9,24.1,99.63,29,,NA,6.061
16-07-2023 01:00,7,16,01:00,22,18.8,82,36,3,24.1,99.59,29,,Cloudy,6.281
16-07-2023 02:00,7,16,02:00,21.7,19.4,87,35,12,12.9,99.58,29,,Rain Showers,6.253
16-07-2023 03:00,7,16,03:00,19.2,18.7,97,27,21,3.2,99.66,,,"Thunderstorms,Heavy Rain Showers,Fog",6.089
16-07-2023 04:00,7,16,04:00,19.4,19.1,99,30,8,3.2,99.57,,,"Moderate Rain Showers,Fog",6.191
16-07-2023 05:00,7,16,05:00,19.3,19.1,99,19,12,3.2,99.67,,,"Moderate Rain Showers,Fog",6.188
16-07-2023 06:00,7,16,06:00,19.3,19,98,34,10,6.4,99.54,,,"Rain Showers,Fog",6.117
16-07-2023 07:00,7,16,07:00,19.4,19.2,98,6,14,8.1,99.45,,,"Rain Showers,Fog",6.339
16-07-2023 08:00,7,16,08:00,20.5,19.3,93,7,7,24.1,99.53,28,,NA,6.241
16-07-2023 09:00,7,16,09:00,22.3,19.8,85,4,9,24.1,99.47,30,,NA,6.207
16-07-2023 10:00,7,16,10:00,23.1,19.6,80,36,2,24.1,99.45,30,,Mostly Cloudy,6.31
16-07-2023 11:00,7,16,11:00,23.7,19.5,77,20,5,24.1,99.47,31,,NA,6.15
16-07-2023 12:00,7,16,12:00,23.5,19.6,79,27,9,24.1,99.44,31,,NA,6.095
16-07-2023 13:00,7,16,13:00,25.2,19.7,71,23,6,24.1,99.4,33,,Mostly Cloudy,6.196
16-07-2023 14:00,7,16,14:00,24.8,19.2,71,27,12,24.1,99.35,32,,NA,6.278
16-07-2023 15:00,7,16,15:00,26.1,20.9,73,24,8,24.1,99.32,34,,NA,6.121
16-07-2023 16:00,7,16,16:00,25.9,19.7,69,26,14,24.1,99.31,33,,Mostly Cloudy,6.11
16-07-2023 17:00,7,16,17:00,26.1,19.1,65,24,9,24.1,99.31,33,,NA,6.14
16-07-2023 18:00,7,16,18:00,25.6,20.2,72,23,8,24.1,99.32,33,,NA,6.074
16-07-2023 19:00,7,16,19:00,24.5,19.6,73,22,12,24.1,99.34,32,,Mainly Clear,6.121
16-07-2023 20:00,7,16,20:00,23.4,19.3,78,21,5,24.1,99.35,30,,NA,6.256
16-07-2023 21:00,7,16,21:00,21.8,19.5,87,18,8,24.1,99.38,29,,NA,6.096
16-07-2023 22:00,7,16,22:00,20.8,19.3,91,16,7,24.1,99.37,28,,Mainly Clear,6.049
16-07-2023 23:00,7,16,23:00,20.5,19.8,95,19,9,24.1,99.41,28,,NA,6.186
17-07-2023 00:00,7,17,00:00,20.1,19.5,97,20,10,24.1,99.42,27,,NA,6.219
17-07-2023 01:00,7,17,01:00,19.4,19,97,20,9,24.1,99.44,,,Mainly Clear,6.117
17-07-2023 02:00,7,17,02:00,19.1,18.6,97,19,8,16.1,99.43,,,NA,6.11
17-07-2023 03:00,7,17,03:00,18.7,18.4,98,18,9,16.1,99.42,,,NA,6.234
17-07-2023 04:00,7,17,04:00,18.6,18.3,98,19,4,12.9,99.45,,,Mostly Cloudy,6.184
17-07-2023 05:00,7,17,05:00,19,18.9,99,19,7,9.7,99.46,,,Fog,6.272
17-07-2023 06:00,7,17,06:00,19.6,19.2,97,19,10,6.4,99.47,,,Fog,6.217
17-07-2023 07:00,7,17,07:00,19.9,19.2,95,18,12,6.4,99.48,,,Fog,6.188
17-07-2023 08:00,7,17,08:00,21,19.9,93,20,12,6.4,99.54,28,,Fog,6.203
17-07-2023 09:00,7,17,09:00,22.6,19.3,82,20,19,8.1,99.57,30,,Fog,6.199
17-07-2023 10:00,7,17,10:00,24.1,18.5,70,21,22,8.1,99.6,30,,Haze,6.172
17-07-2023 11:00,7,17,11:00,25.8,17.6,60,21,27,8.1,99.58,32,,Smoke,6.212
17-07-2023 12:00,7,17,12:00,26.2,18.3,61,22,20,8.1,99.59,32,,Smoke,6.141
17-07-2023 13:00,7,17,13:00,27.1,17.3,55,23,28,9.7,99.63,33,,Smoke,6.154
17-07-2023 14:00,7,17,14:00,27.8,17.5,53,20,20,12.9,99.64,33,,NA,6.165
17-07-2023 15:00,7,17,15:00,27.2,16.4,51,21,18,12.9,99.65,32,,NA,6.136
17-07-2023 16:00,7,17,16:00,26.8,17.2,55,20,20,16.1,99.67,32,,Mainly Clear,6.127
17-07-2023 17:00,7,17,17:00,26.4,15.9,52,18,21,19.3,99.68,31,,NA,6.125
17-07-2023 18:00,7,17,18:00,25.4,15.6,54,21,12,24.1,99.71,30,,NA,6.198
17-07-2023 19:00,7,17,19:00,24.2,15.3,57,21,13,24.1,99.74,28,,Clear,6.073
17-07-2023 20:00,7,17,20:00,21.9,15.7,67,18,7,24.1,99.77,26,,NA,6.124
17-07-2023 21:00,7,17,21:00,20.9,15.5,71,18,8,24.1,99.8,25,,NA,6.147
17-07-2023 22:00,7,17,22:00,20.4,16,75,16,8,24.1,99.78,25,,Mostly Cloudy,6.302
17-07-2023 23:00,7,17,23:00,19.8,16.2,80,16,7,24.1,99.82,,,NA,6.168
18-07-2023 00:00,7,18,00:00,20,16.3,79,17,9,12.9,99.82,25,,Thunderstorms,6.201
18-07-2023 01:00,7,18,01:00,18.5,17.4,93,16,7,12.9,99.78,,,Cloudy,6.117
18-07-2023 02:00,7,18,02:00,18.9,18.1,95,25,5,12.9,99.82,,,NA,6.286
18-07-2023 03:00,7,18,03:00,18,17.6,97,17,9,9.7,99.82,,,Fog,6.168
18-07-2023 04:00,7,18,04:00,17.7,17.1,96,17,9,9.7,99.84,,,Fog,6.277
18-07-2023 05:00,7,18,05:00,17.9,17.6,98,19,4,12.9,99.87,,,NA,6.167
18-07-2023 06:00,7,18,06:00,17.8,17.5,98,16,5,12.9,99.95,,,NA,6.154
18-07-2023 07:00,7,18,07:00,18.3,17.8,97,17,5,9.7,99.97,,,Fog,6.183
18-07-2023 08:00,7,18,08:00,19.9,18.5,91,36,2,9.7,99.96,,,Fog,6.291
18-07-2023 09:00,7,18,09:00,22.6,18.5,77,29,8,16.1,99.96,29,,NA,6.274
18-07-2023 10:00,7,18,10:00,23.6,16.5,64,25,3,16.1,99.99,29,,Mostly Cloudy,6.254
18-07-2023 11:00,7,18,11:00,24.9,16.2,58,19,4,24.1,99.99,30,,NA,6.134
18-07-2023 12:00,7,18,12:00,26.2,15.9,52,20,11,24.1,99.96,31,,NA,6.321
18-07-2023 13:00,7,18,13:00,26.8,14.5,46,26,18,24.1,99.92,30,,Mostly Cloudy,6.102
18-07-2023 14:00,7,18,14:00,27,13.6,43,24,9,24.1,99.87,30,,NA,6.26
18-07-2023 15:00,7,18,15:00,27.2,15.3,47,26,8,24.1,99.83,31,,NA,6.15
18-07-2023 16:00,7,18,16:00,26.9,15.5,49,26,9,24.1,99.79,31,,Mostly Cloudy,6.042
18-07-2023 17:00,7,18,17:00,26.3,17.8,59,15,9,24.1,99.77,32,,NA,6.179
18-07-2023 18:00,7,18,18:00,20.7,15.7,73,34,22,24.1,99.83,25,,NA,6.06
18-07-2023 19:00,7,18,19:00,19.1,16.8,86,31,9,24.1,99.9,,,Mostly Cloudy,6.117
18-07-2023 20:00,7,18,20:00,17.8,16.8,94,21,5,24.1,99.9,,,NA,6.246
18-07-2023 21:00,7,18,21:00,17.2,16.4,95,19,8,24.1,99.94,,,NA,6.151
18-07-2023 22:00,7,18,22:00,17.1,16.6,97,27,4,24.1,99.97,,,Mainly Clear,6.137
18-07-2023 23:00,7,18,23:00,17,16.8,99,18,4,24.1,100.04,,,NA,6.315
19-07-2023 00:00,7,19,00:00,16,15.9,99,23,7,24.1,100.07,,,NA,6.41
19-07-2023 01:00,7,19,01:00,15.9,15.8,100,26,8,24.1,100.09,,,Mainly Clear,6.027
19-07-2023 02:00,7,19,02:00,15.6,15.5,99,27,9,24.1,100.09,,,NA,6.145
19-07-2023 03:00,7,19,03:00,15.1,14.5,96,27,11,24.1,100.1,,,NA,6.071
19-07-2023 04:00,7,19,04:00,13.9,13.6,98,25,9,24.1,100.16,,,Mainly Clear,6.164
19-07-2023 05:00,7,19,05:00,13.1,12.9,99,26,11,24.1,100.22,,,NA,5.981
19-07-2023 06:00,7,19,06:00,15.9,14.3,90,29,8,24.1,100.25,,,NA,5.93
19-07-2023 07:00,7,19,07:00,16.9,14.8,88,26,8,24.1,100.3,,,Clear,6.05
19-07-2023 08:00,7,19,08:00,18.8,14.7,77,23,10,24.1,100.37,,,NA,5.902
19-07-2023 09:00,7,19,09:00,20.9,15.5,71,25,11,24.1,100.37,25,,NA,5.844
19-07-2023 10:00,7,19,10:00,22,15.8,68,26,10,24.1,100.35,26,,Clear,5.927
19-07-2023 11:00,7,19,11:00,23.1,15.6,62,23,13,24.1,100.32,27,,NA,5.982
19-07-2023 12:00,7,19,12:00,23.9,13.9,53,24,13,24.1,100.32,27,,NA,5.852
19-07-2023 13:00,7,19,13:00,24.8,15.4,55,23,11,24.1,100.33,29,,Mainly Clear,5.877
19-07-2023 14:00,7,19,14:00,25.6,13.7,47,24,21,24.1,100.34,29,,NA,5.904
19-07-2023 15:00,7,19,15:00,25.8,12.2,42,25,20,24.1,100.32,28,,NA,5.808
19-07-2023 16:00,7,19,16:00,25.9,13,44,24,14,24.1,100.3,29,,Mainly Clear,5.865
19-07-2023 17:00,7,19,17:00,25.5,13,45,28,14,24.1,100.29,28,,NA,5.966
19-07-2023 18:00,7,19,18:00,25.2,13.8,49,30,7,24.1,100.26,28,,NA,5.85
19-07-2023 19:00,7,19,19:00,23.1,14.5,58,27,7,24.1,100.27,27,,Mainly Clear,5.841
19-07-2023 20:00,7,19,20:00,22.2,13.7,58,30,8,24.1,100.27,25,,NA,5.848
19-07-2023 21:00,7,19,21:00,18.2,14.5,79,10,8,24.1,100.32,,,NA,5.814
19-07-2023 22:00,7,19,22:00,17.9,14.7,81,17,11,24.1,100.35,,,Mainly Clear,5.874
19-07-2023 23:00,7,19,23:00,18.5,14.9,79,13,8,24.1,100.34,,,NA,5.967
20-07-2023 00:00,7,20,00:00,18.4,14.3,77,16,10,24.1,100.35,,,NA,5.944
20-07-2023 01:00,7,20,01:00,17.8,14.2,79,17,10,24.1,100.34,,,Mainly Clear,5.86
20-07-2023 02:00,7,20,02:00,16.6,14.7,88,16,10,24.1,100.31,,,NA,5.959
20-07-2023 03:00,7,20,03:00,16,14.7,92,17,8,24.1,100.3,,,NA,5.916
20-07-2023 04:00,7,20,04:00,15.7,14.8,94,19,4,24.1,100.3,,,Mainly Clear,5.904
20-07-2023 05:00,7,20,05:00,15.6,15,96,19,9,24.1,100.27,,,NA,6.05
20-07-2023 06:00,7,20,06:00,16.4,15.4,94,18,5,24.1,100.29,,,NA,5.783
20-07-2023 07:00,7,20,07:00,18.4,16.7,90,19,8,24.1,100.3,,,Mainly Clear,5.736
20-07-2023 08:00,7,20,08:00,20.5,16.6,78,21,4,24.1,100.28,26,,NA,5.861
20-07-2023 09:00,7,20,09:00,22.9,17.3,71,18,8,24.1,100.23,28,,NA,5.776
20-07-2023 10:00,7,20,10:00,24.8,17.7,64,19,11,24.1,100.18,31,,Mostly Cloudy,5.8
20-07-2023 11:00,7,20,11:00,24.3,16.5,61,16,13,24.1,100.12,29,,NA,5.798
20-07-2023 12:00,7,20,12:00,25.9,16.2,55,16,30,24.1,100.05,31,,NA,1.188
20-07-2023 13:00,7,20,13:00,26.1,16.3,54,15,27,24.1,99.99,31,,Mostly Cloudy,4.723
20-07-2023 14:00,7,20,14:00,26,15.5,52,16,16,24.1,99.93,30,,NA,5.67
20-07-2023 15:00,7,20,15:00,26.9,16.1,51,16,16,24.1,99.89,32,,NA,5.601
20-07-2023 16:00,7,20,16:00,26.2,15,50,17,13,24.1,99.83,30,,Mostly Cloudy,5.796
20-07-2023 17:00,7,20,17:00,26,16,54,14,7,24.1,99.72,31,,NA,5.718
20-07-2023 18:00,7,20,18:00,25.2,16.1,56,13,10,24.1,99.66,30,,NA,5.62
20-07-2023 19:00,7,20,19:00,23.2,16.1,64,12,10,24.1,99.63,28,,Mainly Clear,5.606
20-07-2023 20:00,7,20,20:00,20.6,15.3,71,10,12,24.1,99.56,25,,NA,5.687
20-07-2023 21:00,7,20,21:00,20.9,15.3,70,10,13,24.1,99.57,25,,NA,5.625
20-07-2023 22:00,7,20,22:00,20.9,16.5,75,9,16,24.1,99.47,26,,Mostly Cloudy,5.802
20-07-2023 23:00,7,20,23:00,21,16.6,75,10,27,24.1,99.38,26,,NA,5.755
21-07-2023 00:00,7,21,00:00,19.9,16.6,81,7,10,24.1,99.34,,,Rain Showers,5.684
21-07-2023 01:00,7,21,01:00,18.7,17,90,6,30,24.1,99.18,,,Cloudy,5.609
21-07-2023 02:00,7,21,02:00,18,17.5,97,28,13,12.9,99.25,,,Rain Showers,5.757
21-07-2023 03:00,7,21,03:00,18.1,17.8,98,1,21,12.9,99.1,,,Rain Showers,5.75
21-07-2023 04:00,7,21,04:00,17.7,17.4,98,6,35,12.9,99.05,,,Rain Showers,5.786
21-07-2023 05:00,7,21,05:00,18,17.4,96,30,17,9.7,99.05,,,"Rain Showers,Fog",5.691
21-07-2023 06:00,7,21,06:00,18.1,17.7,98,26,9,16.1,99.09,,,NA,5.741
21-07-2023 07:00,7,21,07:00,18.7,18.1,96,19,12,16.1,99.12,,,Mostly Cloudy,5.724
21-07-2023 08:00,7,21,08:00,18.9,17.8,94,19,16,16.1,99.13,,,NA,5.775
21-07-2023 09:00,7,21,09:00,20.6,17.8,84,21,22,24.1,99.13,26,,NA,5.81
21-07-2023 10:00,7,21,10:00,19.7,17.1,85,26,20,24.1,99.13,,,Mostly Cloudy,5.821
21-07-2023 11:00,7,21,11:00,19.8,17,84,28,23,24.1,99.16,,,NA,5.847
21-07-2023 12:00,7,21,12:00,21.1,17.5,80,28,17,24.1,99.17,27,,Rain,5.848
21-07-2023 13:00,7,21,13:00,21,16,73,31,24,24.1,99.18,26,,Mostly Cloudy,5.854
21-07-2023 14:00,7,21,14:00,22.2,17.1,73,30,17,24.1,99.17,28,,NA,5.917
21-07-2023 15:00,7,21,15:00,22.5,16.5,69,31,21,24.1,99.18,27,,NA,5.962
21-07-2023 16:00,7,21,16:00,21.6,16.8,74,32,22,24.1,99.23,27,,Mostly Cloudy,5.865
21-07-2023 17:00,7,21,17:00,20.5,16.6,78,31,17,24.1,99.26,26,,NA,5.822
21-07-2023 18:00,7,21,18:00,19.2,17.9,92,31,18,16.1,99.3,,,Rain Showers,5.811
21-07-2023 19:00,7,21,19:00,17.5,16.4,93,31,12,24.1,99.32,,,Rain Showers,5.77
21-07-2023 20:00,7,21,20:00,17.6,17,96,26,16,24.1,99.34,,,NA,5.888
21-07-2023 21:00,7,21,21:00,17.8,16.8,94,29,22,24.1,99.37,,,NA,5.877
21-07-2023 22:00,7,21,22:00,17.5,16.2,92,29,22,24.1,99.34,,,Cloudy,5.813
21-07-2023 23:00,7,21,23:00,17.4,15.8,90,28,18,24.1,99.31,,,NA,5.867
22-07-2023 00:00,7,22,00:00,17.7,15.6,88,29,20,24.1,99.3,,,Rain Showers,5.868
22-07-2023 01:00,7,22,01:00,17.5,15.6,88,30,22,24.1,99.28,,,Mostly Cloudy,5.771
22-07-2023 02:00,7,22,02:00,16.8,15.1,89,28,19,24.1,99.29,,,NA,5.836
22-07-2023 03:00,7,22,03:00,16.8,14.9,88,29,21,24.1,99.29,,,NA,5.986
22-07-2023 04:00,7,22,04:00,16.7,14.7,88,29,14,24.1,99.34,,,Mainly Clear,5.896
22-07-2023 05:00,7,22,05:00,16.2,14.4,89,28,16,24.1,99.39,,,NA,5.789
22-07-2023 06:00,7,22,06:00,16.4,14.1,86,29,21,24.1,99.42,,,NA,5.783
22-07-2023 07:00,7,22,07:00,18,14.3,79,29,20,24.1,99.47,,,Mainly Clear,5.704
22-07-2023 08:00,7,22,08:00,18.9,14.3,74,29,21,24.1,99.49,,,NA,5.698
22-07-2023 09:00,7,22,09:00,20.2,14.6,70,29,22,24.1,99.5,,,NA,5.856
22-07-2023 10:00,7,22,10:00,21.2,14.4,65,29,22,24.1,99.51,25,,Mainly Clear,5.757
22-07-2023 11:00,7,22,11:00,22.5,15.4,64,29,21,24.1,99.49,27,,NA,5.692
22-07-2023 12:00,7,22,12:00,24,14.5,55,28,22,24.1,99.5,28,,NA,5.806
22-07-2023 13:00,7,22,13:00,24.4,15.1,56,29,20,24.1,99.51,28,,Mainly Clear,5.761
22-07-2023 14:00,7,22,14:00,25,14.2,50,28,22,24.1,99.53,28,,NA,5.766
22-07-2023 15:00,7,22,15:00,25.2,13,46,29,20,24.1,99.53,28,,NA,5.688
22-07-2023 16:00,7,22,16:00,25.4,13.3,47,28,19,24.1,99.56,28,,Mainly Clear,5.667
22-07-2023 17:00,7,22,17:00,24.9,12.3,45,27,18,24.1,99.56,27,,NA,5.668
22-07-2023 18:00,7,22,18:00,23.9,11.6,45,27,18,24.1,99.58,26,,NA,5.696
22-07-2023 19:00,7,22,19:00,21.4,13.5,60,25,11,24.1,99.6,,,Clear,5.73
22-07-2023 20:00,7,22,20:00,20.1,12.3,60,27,9,24.1,99.62,,,NA,5.77
22-07-2023 21:00,7,22,21:00,19.2,12.3,64,29,10,24.1,99.66,,,NA,5.544
22-07-2023 22:00,7,22,22:00,16.7,12.3,75,25,4,24.1,99.68,,,Clear,5.903
22-07-2023 23:00,7,22,23:00,16.5,11.9,74,22,7,24.1,99.69,,,NA,5.899
23-07-2023 00:00,7,23,00:00,14.1,12.2,88,21,7,24.1,99.73,,,NA,5.917
23-07-2023 01:00,7,23,01:00,14.3,12.1,87,19,8,24.1,99.77,,,Clear,5.988
23-07-2023 02:00,7,23,02:00,14.1,12.2,88,23,3,24.1,99.74,,,NA,5.986
23-07-2023 03:00,7,23,03:00,13.2,11.4,88,27,6,24.1,99.75,,,NA,5.965
23-07-2023 04:00,7,23,04:00,14.5,11.5,82,31,5,24.1,99.79,,,Clear,6.162
23-07-2023 05:00,7,23,05:00,12.2,11.2,93,19,8,24.1,99.87,,,NA,5.984
23-07-2023 06:00,7,23,06:00,14.9,13.3,90,22,5,24.1,99.91,,,NA,6.066
23-07-2023 07:00,7,23,07:00,17.9,15.4,85,24,4,24.1,99.94,,,Mainly Clear,6.129
23-07-2023 08:00,7,23,08:00,20.6,15.4,72,27,3,24.1,99.97,25,,NA,6.288
23-07-2023 09:00,7,23,09:00,23,13,53,21,4,24.1,100,26,,NA,6.117
23-07-2023 10:00,7,23,10:00,24.9,13.5,48,14,9,24.1,100.02,28,,Mainly Clear,6.128
23-07-2023 11:00,7,23,11:00,25.7,11,39,18,9,24.1,100,27,,NA,5.877
23-07-2023 12:00,7,23,12:00,26.7,15.4,49,23,5,24.1,99.98,31,,NA,5.819
23-07-2023 13:00,7,23,13:00,26.9,15.1,48,29,9,24.1,99.94,31,,Mostly Cloudy,5.898
23-07-2023 14:00,7,23,14:00,28.4,16.4,48,26,9,24.1,99.92,33,,NA,5.811
23-07-2023 15:00,7,23,15:00,27.7,14.7,44,19,14,24.1,99.91,31,,NA,5.701
23-07-2023 16:00,7,23,16:00,28.2,14.7,43,24,16,24.1,99.87,32,,Mainly Clear,5.938
23-07-2023 17:00,7,23,17:00,27.6,13.4,41,24,14,24.1,99.88,31,,NA,5.803
23-07-2023 18:00,7,23,18:00,26.3,14.4,47,24,12,24.1,99.92,30,,NA,5.713
23-07-2023 19:00,7,23,19:00,24.6,14.8,54,22,9,24.1,99.95,28,,Mainly Clear,5.929
23-07-2023 20:00,7,23,20:00,22.7,15.7,64,20,9,24.1,100,27,,NA,5.737
23-07-2023 21:00,7,23,21:00,21.1,16.3,74,18,9,24.1,100.08,26,,NA,5.799
23-07-2023 22:00,7,23,22:00,20.6,16.4,76,20,8,24.1,100.14,25,,Clear,5.771
23-07-2023 23:00,7,23,23:00,19.6,16.3,81,16,7,24.1,100.18,,,NA,5.861
24-07-2023 00:00,7,24,00:00,19.1,16.5,85,20,8,24.1,100.19,,,NA,5.709
24-07-2023 01:00,7,24,01:00,18.2,16.5,90,21,5,24.1,100.17,,,Clear,5.937
24-07-2023 02:00,7,24,02:00,17.7,16.6,93,20,7,24.1,100.18,,,NA,5.861
24-07-2023 03:00,7,24,03:00,17.1,16.5,96,18,9,24.1,100.22,,,NA,5.787
24-07-2023 04:00,7,24,04:00,16.4,15.8,97,17,9,24.1,100.26,,,Clear,5.859
24-07-2023 05:00,7,24,05:00,16.8,16.3,97,18,9,24.1,100.29,,,NA,5.985
24-07-2023 06:00,7,24,06:00,17.4,16.7,96,17,13,24.1,100.3,,,NA,5.915
24-07-2023 07:00,7,24,07:00,19.8,17.8,88,22,7,24.1,100.32,,,Mainly Clear,5.959
24-07-2023 08:00,7,24,08:00,22.8,18.7,77,22,8,24.1,100.33,29,,NA,5.719
24-07-2023 09:00,7,24,09:00,24.4,17.8,66,19,8,24.1,100.31,30,,NA,5.86
24-07-2023 10:00,7,24,10:00,26.1,18.5,62,21,7,24.1,100.31,32,,Mainly Clear,5.939
24-07-2023 11:00,7,24,11:00,27.2,18.6,59,22,7,24.1,100.28,34,,NA,5.803
24-07-2023 12:00,7,24,12:00,27.1,17.4,55,19,14,24.1,100.23,33,,NA,5.679
24-07-2023 13:00,7,24,13:00,27.6,18,55,16,14,24.1,100.17,34,,Mostly Cloudy,5.741
24-07-2023 14:00,7,24,14:00,28.5,17.8,52,15,11,24.1,100.09,34,,NA,5.649
24-07-2023 15:00,7,24,15:00,28,18.5,56,17,11,24.1,100.05,34,,NA,5.768
24-07-2023 16:00,7,24,16:00,25,18.3,66,12,9,24.1,100.02,31,,Thunderstorms,5.587
24-07-2023 17:00,7,24,17:00,23.5,19.3,77,31,9,16.1,100.03,31,,"Thunderstorms,Rain Showers",5.625
24-07-2023 18:00,7,24,18:00,23.1,18.8,77,35,8,16.1,100.09,30,,NA,5.721
24-07-2023 19:00,7,24,19:00,20.9,19.4,91,3,13,16.1,100.15,28,,"Thunderstorms,Rain Showers",5.638
24-07-2023 20:00,7,24,20:00,19.4,18.4,94,5,12,16.1,100.19,,,Rain Showers,5.666
24-07-2023 21:00,7,24,21:00,18.9,18.5,97,12,5,24.1,100.19,,,NA,5.861
24-07-2023 22:00,7,24,22:00,18.4,18.1,98,18,9,24.1,100.18,,,Mainly Clear,5.741
24-07-2023 23:00,7,24,23:00,18.2,17.9,98,20,7,24.1,100.16,,,NA,5.764
25-07-2023 00:00,7,25,00:00,18.2,17.5,95,31,4,24.1,100.21,,,NA,5.896
25-07-2023 01:00,7,25,01:00,17.8,17.5,98,26,5,24.1,100.22,,,Clear,5.903
25-07-2023 02:00,7,25,02:00,17,16.8,99,22,8,24.1,100.21,,,NA,5.922
25-07-2023 03:00,7,25,03:00,16.9,16.9,99,22,10,24.1,100.22,,,NA,6.182
25-07-2023 04:00,7,25,04:00,16.6,16.6,100,21,9,12.9,100.26,,,Mainly Clear,6.136
25-07-2023 05:00,7,25,05:00,17.2,17.2,100,28,8,8.1,100.27,,,Fog,5.893
25-07-2023 06:00,7,25,06:00,17.4,17.4,100,20,4,4.8,100.29,,,Fog,5.882
25-07-2023 07:00,7,25,07:00,17.9,17.9,100,25,5,9.7,100.33,,,Fog,5.879
25-07-2023 08:00,7,25,08:00,18.4,17.9,97,24,7,12.9,100.39,,,NA,5.853
25-07-2023 09:00,7,25,09:00,21,18.3,85,25,8,16.1,100.41,27,,NA,6.068
25-07-2023 10:00,7,25,10:00,22.5,18.6,78,34,6,24.1,100.44,29,,Mainly Clear,5.929
25-07-2023 11:00,7,25,11:00,23.1,18.3,74,31,4,24.1,100.44,29,,NA,5.844
25-07-2023 12:00,7,25,12:00,24.2,16.6,62,20,5,24.1,100.41,29,,NA,5.938
25-07-2023 13:00,7,25,13:00,25,16.2,57,25,12,24.1,100.38,30,,Mainly Clear,5.974
25-07-2023 14:00,7,25,14:00,25.6,15.7,54,24,9,24.1,100.32,30,,NA,5.899
25-07-2023 15:00,7,25,15:00,26.1,14,46,29,11,24.1,100.26,29,,NA,5.779
25-07-2023 16:00,7,25,16:00,26.6,15.3,49,21,3,24.1,100.2,31,,Mainly Clear,5.88
25-07-2023 17:00,7,25,17:00,25.9,17.1,58,18,7,24.1,100.21,31,,NA,5.747
25-07-2023 18:00,7,25,18:00,25.9,17.1,58,14,7,24.1,100.2,31,,NA,5.911
25-07-2023 19:00,7,25,19:00,23.5,19.4,77,13,6,24.1,100.19,31,,Mainly Clear,5.923
25-07-2023 20:00,7,25,20:00,22.3,18.2,77,15,12,24.1,100.2,28,,NA,5.865
25-07-2023 21:00,7,25,21:00,21.1,18.1,83,16,9,24.1,100.22,27,,NA,5.813
25-07-2023 22:00,7,25,22:00,19.6,18,90,16,8,24.1,100.19,,,Mainly Clear,5.748
25-07-2023 23:00,7,25,23:00,19.2,18,93,16,8,24.1,100.19,,,NA,6.079
26-07-2023 00:00,7,26,00:00,19.4,17.9,91,20,11,24.1,100.16,,,NA,5.847
26-07-2023 01:00,7,26,01:00,18.9,17.8,93,22,8,24.1,100.18,,,Mostly Cloudy,5.906
26-07-2023 02:00,7,26,02:00,17.7,17.1,96,21,13,24.1,100.16,,,NA,5.882
26-07-2023 03:00,7,26,03:00,17.9,17.1,95,22,9,24.1,100.17,,,NA,5.804
26-07-2023 04:00,7,26,04:00,17,16.6,97,27,6,24.1,100.19,,,Mainly Clear,5.888
26-07-2023 05:00,7,26,05:00,17,16.6,97,17,9,24.1,100.17,,,NA,6.024
26-07-2023 06:00,7,26,06:00,17.5,16.9,96,18,9,24.1,100.2,,,NA,5.853
26-07-2023 07:00,7,26,07:00,19.4,18.5,95,16,8,24.1,100.19,,,Mainly Clear,5.965
26-07-2023 08:00,7,26,08:00,21.6,19.7,89,20,15,24.1,100.2,29,,NA,5.894
26-07-2023 09:00,7,26,09:00,23.2,20.4,84,17,12,24.1,100.12,31,,NA,5.811
26-07-2023 10:00,7,26,10:00,25.6,20.8,74,18,19,24.1,100.08,34,,Mostly Cloudy,5.879
26-07-2023 11:00,7,26,11:00,25,20.6,76,21,16,16.1,100.08,33,,NA,6.005
26-07-2023 12:00,7,26,12:00,26.7,21.2,72,22,22,24.1,100.04,35,,NA,5.84
26-07-2023 13:00,7,26,13:00,28.2,21.1,65,22,23,24.1,99.92,37,,Mostly Cloudy,5.854
26-07-2023 14:00,7,26,14:00,27.9,21.8,69,23,14,16.1,99.9,37,,NA,5.805
26-07-2023 15:00,7,26,15:00,25.3,20.3,73,19,21,16.1,99.84,33,,Rain Showers,5.884
26-07-2023 16:00,7,26,16:00,28.1,22.4,71,18,21,24.1,99.8,38,,Mostly Cloudy,5.958
26-07-2023 17:00,7,26,17:00,27,22.1,74,20,16,6.4,99.8,36,,Haze,6.166
26-07-2023 18:00,7,26,18:00,26.9,20.9,69,21,20,6.4,99.76,35,,Haze,5.951
26-07-2023 19:00,7,26,19:00,26.1,19.5,66,21,18,8.1,99.78,33,,Haze,5.907
26-07-2023 20:00,7,26,20:00,24.6,20.3,77,20,13,6.4,99.82,32,,Haze,5.916
26-07-2023 21:00,7,26,21:00,24.4,20.2,77,1,17,8.1,99.9,32,,Haze,5.921
26-07-2023 22:00,7,26,22:00,21.7,18.7,83,6,33,9.7,99.89,28,,Haze,5.884
26-07-2023 23:00,7,26,23:00,21,18.2,84,6,31,16.1,99.86,27,,NA,5.881
27-07-2023 00:00,7,27,00:00,20.7,18.1,85,8,33,16.1,99.74,27,,NA,5.859
27-07-2023 01:00,7,27,01:00,20,18.2,89,13,10,16.1,99.77,26,,Rain Showers,5.774
27-07-2023 02:00,7,27,02:00,19.4,18.5,94,9,14,16.1,99.69,,,Rain Showers,5.758
27-07-2023 03:00,7,27,03:00,19,18.4,96,11,28,8.1,99.59,,,"Moderate Rain Showers,Fog",5.884
27-07-2023 04:00,7,27,04:00,18.9,18.5,98,10,20,4.8,99.56,,,Moderate Rain Showers,5.754
27-07-2023 05:00,7,27,05:00,18.7,18.4,98,8,34,3.2,99.57,,,"Rain,Fog",5.687
27-07-2023 06:00,7,27,06:00,18.5,18.2,98,8,30,8.1,99.57,,,"Rain,Fog",5.76
27-07-2023 07:00,7,27,07:00,18.8,18.6,99,7,11,6.4,99.56,,,"Rain,Fog",5.811
27-07-2023 08:00,7,27,08:00,19.1,18.9,99,4,17,6.4,99.55,,,"Rain,Fog",5.841
27-07-2023 09:00,7,27,09:00,19.1,19,99,4,17,9.7,99.56,,,Fog,5.779
27-07-2023 10:00,7,27,10:00,19.7,19.2,97,2,26,6.4,99.61,,,Fog,5.779
27-07-2023 11:00,7,27,11:00,21.6,20.4,93,3,26,16.1,99.64,30,,NA,5.747
27-07-2023 12:00,7,27,12:00,23.2,20.1,83,2,14,24.1,99.67,31,,NA,5.728
27-07-2023 13:00,7,27,13:00,25,19.5,71,4,9,24.1,99.7,32,,Mostly Cloudy,5.778
27-07-2023 14:00,7,27,14:00,26.1,19.4,66,31,6,24.1,99.71,33,,NA,5.887
27-07-2023 15:00,7,27,15:00,27.1,20.8,68,23,9,24.1,99.72,35,,NA,5.823
27-07-2023 16:00,7,27,16:00,28,20.7,64,28,11,24.1,99.7,36,,Mainly Clear,5.851
27-07-2023 17:00,7,27,17:00,27.2,20.8,67,32,13,24.1,99.71,35,,NA,5.843
27-07-2023 18:00,7,27,18:00,26.6,19.7,65,29,16,24.1,99.74,34,,NA,5.776
27-07-2023 19:00,7,27,19:00,24.6,20.6,78,26,7,24.1,99.78,33,,Clear,5.801
27-07-2023 20:00,7,27,20:00,23.7,20.1,80,23,10,24.1,99.84,31,,NA,5.988
27-07-2023 21:00,7,27,21:00,22.6,20.1,85,21,9,24.1,99.88,30,,NA,5.764
27-07-2023 22:00,7,27,22:00,21.9,19.9,88,20,10,24.1,99.9,29,,Clear,5.797
27-07-2023 23:00,7,27,23:00,21.9,20.4,91,22,12,24.1,99.97,30,,NA,5.765
28-07-2023 00:00,7,28,00:00,21.2,20.4,95,19,7,24.1,99.95,29,,NA,5.737
28-07-2023 01:00,7,28,01:00,20.8,20.5,98,18,10,24.1,99.88,29,,Clear,5.822
28-07-2023 02:00,7,28,02:00,20.9,20.6,98,22,9,24.1,99.9,29,,NA,5.718
28-07-2023 03:00,7,28,03:00,20.4,20.3,99,25,9,16.1,99.93,28,,NA,5.812
28-07-2023 04:00,7,28,04:00,19.8,19.8,100,22,7,9.7,99.94,,,Fog,5.864
28-07-2023 05:00,7,28,05:00,19.4,19.4,100,21,11,4.8,99.92,,,Fog,5.924
28-07-2023 06:00,7,28,06:00,20.1,20.1,100,21,11,9.7,99.94,28,,Fog,5.991
28-07-2023 07:00,7,28,07:00,22.2,20.1,88,22,16,16.1,99.92,30,,Mainly Clear,5.938
28-07-2023 08:00,7,28,08:00,24.2,20.2,78,22,16,16.1,99.96,32,,NA,5.872
28-07-2023 09:00,7,28,09:00,25.3,20.6,75,23,15,16.1,99.98,33,,NA,5.877
28-07-2023 10:00,7,28,10:00,26.6,21.7,74,23,18,16.1,99.99,36,,Mostly Cloudy,5.904
28-07-2023 11:00,7,28,11:00,25.8,20.9,74,24,16,24.1,99.99,34,,NA,5.983
28-07-2023 12:00,7,28,12:00,25.4,21.3,78,25,15,16.1,99.95,34,,NA,5.986
28-07-2023 13:00,7,28,13:00,25.9,21.9,78,24,14,16.1,99.91,35,,Mostly Cloudy,5.895
28-07-2023 14:00,7,28,14:00,28.1,22.5,71,23,21,16.1,99.81,38,,NA,5.895
28-07-2023 15:00,7,28,15:00,22.1,20,88,6,26,24.1,99.82,30,,"Thunderstorms,Rain Showers",5.823
28-07-2023 16:00,7,28,16:00,24.8,21.3,80,20,8,24.1,99.74,33,,Mostly Cloudy,5.886
28-07-2023 17:00,7,28,17:00,24.8,22,84,30,5,16.1,99.74,34,,NA,5.928
28-07-2023 18:00,7,28,18:00,25.3,21.6,80,36,3,16.1,99.66,34,,NA,6.12
28-07-2023 19:00,7,28,19:00,20.3,18.7,91,29,28,1.6,99.81,27,,"Thunderstorms,Heavy Rain Showers",5.908
28-07-2023 20:00,7,28,20:00,20.5,19.7,95,22,7,16.1,99.78,28,,Rain,5.889
28-07-2023 21:00,7,28,21:00,20.9,20.1,95,22,5,16.1,99.86,29,,NA,5.949
28-07-2023 22:00,7,28,22:00,21.2,20.4,95,36,3,16.1,99.88,29,,Mostly Cloudy,5.97
28-07-2023 23:00,7,28,23:00,20.3,20.1,99,29,4,16.1,99.88,28,,NA,5.97
29-07-2023 00:00,7,29,00:00,20,18.2,89,1,31,16.1,99.96,26,,NA,6.124
29-07-2023 01:00,7,29,01:00,18.3,14.5,78,2,26,24.1,99.96,,,Mostly Cloudy,5.994
29-07-2023 02:00,7,29,02:00,17.3,14.1,81,2,31,24.1,99.96,,,NA,6.015
29-07-2023 03:00,7,29,03:00,16.5,13.4,82,1,14,24.1,99.94,,,NA,6.032
29-07-2023 04:00,7,29,04:00,16.9,13.7,81,36,15,24.1,99.97,,,Mostly Cloudy,5.951
29-07-2023 05:00,7,29,05:00,16.4,13,80,2,12,24.1,99.94,,,NA,5.989
29-07-2023 06:00,7,29,06:00,16.5,12.6,78,3,13,24.1,99.99,,,NA,5.89
29-07-2023 07:00,7,29,07:00,16.2,12.4,78,3,13,24.1,100,,,Mostly Cloudy,5.909
29-07-2023 08:00,7,29,08:00,16.7,12.5,76,3,21,24.1,99.96,,,NA,5.875
29-07-2023 09:00,7,29,09:00,18,13.3,74,5,14,24.1,99.94,,,NA,5.834
29-07-2023 10:00,7,29,10:00,17.2,12.7,75,6,13,24.1,99.89,,,Cloudy,5.883
29-07-2023 11:00,7,29,11:00,17.6,12.1,70,4,12,24.1,99.91,,,NA,6.017
29-07-2023 12:00,7,29,12:00,17.6,13,75,5,10,24.1,99.81,,,NA,5.897
29-07-2023 13:00,7,29,13:00,18.1,12.5,70,34,13,24.1,99.82,,,Cloudy,5.893
29-07-2023 14:00,7,29,14:00,17.6,13,74,36,15,24.1,99.75,,,Rain Showers,5.873
29-07-2023 15:00,7,29,15:00,17.3,13,76,1,21,24.1,99.8,,,NA,5.807
29-07-2023 16:00,7,29,16:00,18.1,12.6,70,1,34,24.1,99.85,,,Mostly Cloudy,5.885
29-07-2023 17:00,7,29,17:00,18.8,11.2,61,34,23,24.1,99.83,,,NA,5.971
29-07-2023 18:00,7,29,18:00,18.1,10.7,62,2,31,24.1,99.82,,,NA,5.845
29-07-2023 19:00,7,29,19:00,17.6,10.4,63,35,13,24.1,99.83,,,Mainly Clear,5.873
29-07-2023 20:00,7,29,20:00,15.5,11.2,75,32,10,24.1,99.87,,,NA,5.933
29-07-2023 21:00,7,29,21:00,14.4,10.9,79,32,10,24.1,99.92,,,NA,5.878
29-07-2023 22:00,7,29,22:00,14.1,11.2,83,28,7,24.1,99.95,,,Mainly Clear,5.965
29-07-2023 23:00,7,29,23:00,12.6,11.2,91,26,8,24.1,99.98,,,NA,6.021
30-07-2023 00:00,7,30,00:00,12.4,10.8,90,29,9,24.1,100.01,,,NA,5.98
30-07-2023 01:00,7,30,01:00,11.3,10.6,96,28,10,24.1,100.01,,,Clear,5.903
30-07-2023 02:00,7,30,02:00,10.6,10.2,97,25,3,24.1,100.02,,,NA,5.921
30-07-2023 03:00,7,30,03:00,10,9.8,98,24,5,24.1,100.01,,,NA,5.918
30-07-2023 04:00,7,30,04:00,9.2,9,99,27,11,24.1,100,,,Clear,5.963
30-07-2023 05:00,7,30,05:00,9.7,9.3,97,26,8,24.1,100.02,,,NA,5.894
30-07-2023 06:00,7,30,06:00,12.1,11.6,97,27,11,24.1,100.04,,,NA,5.893
30-07-2023 07:00,7,30,07:00,14.4,12.2,86,29,14,24.1,100.08,,,Clear,5.84
30-07-2023 08:00,7,30,08:00,16.9,12.5,75,28,12,24.1,100.09,,,NA,5.844
30-07-2023 09:00,7,30,09:00,18.9,12.8,67,29,16,24.1,100.1,,,NA,5.982
30-07-2023 10:00,7,30,10:00,20.4,12.3,59,28,17,24.1,100.08,,,Clear,5.957
30-07-2023 11:00,7,30,11:00,21.7,12.4,55,27,15,24.1,100.07,,,NA,5.867
30-07-2023 12:00,7,30,12:00,22.7,13,54,26,16,24.1,100.01,25,,NA,5.805
30-07-2023 13:00,7,30,13:00,23.7,13.4,52,26,20,24.1,99.97,27,,Mainly Clear,5.867
30-07-2023 14:00,7,30,14:00,24.2,11.8,45,30,20,24.1,99.91,26,,NA,5.895
30-07-2023 15:00,7,30,15:00,24.6,12.1,45,25,20,24.1,99.86,27,,NA,5.945
30-07-2023 16:00,7,30,16:00,23.9,12.1,47,23,24,24.1,99.83,26,,Mainly Clear,5.818
30-07-2023 17:00,7,30,17:00,24,12,47,25,19,24.1,99.8,26,,NA,5.76
30-07-2023 18:00,7,30,18:00,22.3,12.4,53,23,25,24.1,99.83,25,,NA,5.831
30-07-2023 19:00,7,30,19:00,20.7,12.6,59,23,13,24.1,99.86,,,Mostly Cloudy,5.942
30-07-2023 20:00,7,30,20:00,19.2,14.7,75,23,10,24.1,99.88,,,NA,5.91
30-07-2023 21:00,7,30,21:00,17.9,13.8,77,21,12,24.1,99.88,,,NA,5.923
30-07-2023 22:00,7,30,22:00,17.4,13.9,79,29,30,16.1,99.94,,,Rain Showers,5.951
30-07-2023 23:00,7,30,23:00,15.3,13.4,89,36,5,24.1,99.94,,,NA,5.996
31-07-2023 00:00,7,31,00:00,12.7,12.3,97,18,7,24.1,99.91,,,NA,6.01
31-07-2023 01:00,7,31,01:00,13.9,13.5,98,19,8,24.1,99.89,,,Mostly Cloudy,5.974
31-07-2023 02:00,7,31,02:00,14.3,13.8,97,26,7,24.1,99.88,,,NA,6.028
31-07-2023 03:00,7,31,03:00,14.4,14,97,29,11,24.1,99.88,,,NA,6.066
31-07-2023 04:00,7,31,04:00,14.3,14.1,98,27,7,24.1,99.9,,,Mostly Cloudy,5.884
31-07-2023 05:00,7,31,05:00,14.2,13.7,97,31,13,24.1,99.97,,,NA,6.081
31-07-2023 06:00,7,31,06:00,14.5,13.6,94,30,11,24.1,100.02,,,NA,6.093
31-07-2023 07:00,7,31,07:00,15.3,13.4,88,32,17,24.1,100.11,,,Mostly Cloudy,6.015
31-07-2023 08:00,7,31,08:00,16.5,13.6,83,33,24,24.1,100.16,,,NA,5.985
31-07-2023 09:00,7,31,09:00,17.8,12.9,73,31,19,24.1,100.2,,,NA,6.001
31-07-2023 10:00,7,31,10:00,19.3,12.6,65,34,27,24.1,100.24,,,Mostly Cloudy,5.824
31-07-2023 11:00,7,31,11:00,20,9.4,50,33,19,24.1,100.27,,,NA,5.878
31-07-2023 12:00,7,31,12:00,19.5,10.7,56,31,23,24.1,100.25,,,NA,5.881
31-07-2023 13:00,7,31,13:00,20,9.6,51,34,23,24.1,100.23,,,Mostly Cloudy,5.851
31-07-2023 14:00,7,31,14:00,21,8.8,45,32,24,24.1,100.23,,,NA,5.994
31-07-2023 15:00,7,31,15:00,19.2,10.4,56,30,23,24.1,100.26,,,NA,5.825
31-07-2023 16:00,7,31,16:00,19.8,9.2,50,28,16,24.1,100.28,,,Mostly Cloudy,5.75
31-07-2023 17:00,7,31,17:00,20.5,8.6,46,32,25,24.1,100.29,,,NA,5.843
31-07-2023 18:00,7,31,18:00,19.6,7.6,45,33,24,24.1,100.33,,,NA,5.747
31-07-2023 19:00,7,31,19:00,17.6,8.2,54,32,23,24.1,100.38,,,Mainly Clear,5.81
31-07-2023 20:00,7,31,20:00,15.6,9,65,30,11,24.1,100.44,,,NA,5.933
31-07-2023 21:00,7,31,21:00,14.7,9.1,69,32,15,24.1,100.51,,,NA,5.834
31-07-2023 22:00,7,31,22:00,14.1,9.4,73,29,9,24.1,100.54,,,Clear,5.846
31-07-2023 23:00,7,31,23:00,13.6,10.2,80,30,7,24.1,100.56,,,NA,5.815
01-08-2023 00:00,8,1,00:00,13.1,10.2,83,30,10,24.1,100.57,,,NA,5.9
01-08-2023 01:00,8,1,01:00,11.2,9.2,88,29,9,24.1,100.58,,,Clear,5.942
01-08-2023 02:00,8,1,02:00,10.1,9.5,96,27,7,24.1,100.6,,,NA,5.936
01-08-2023 03:00,8,1,03:00,10.4,10,97,26,4,24.1,100.64,,,NA,5.884
01-08-2023 04:00,8,1,04:00,10.3,9.4,94,28,7,24.1,100.69,,,Clear,5.926
01-08-2023 05:00,8,1,05:00,10,9.2,95,30,7,24.1,100.74,,,NA,5.993
01-08-2023 06:00,8,1,06:00,11.6,10.8,95,36,2,24.1,100.78,,,NA,5.886
01-08-2023 07:00,8,1,07:00,13.8,12.3,90,29,10,24.1,100.83,,,Mostly Cloudy,5.976
01-08-2023 08:00,8,1,08:00,16,11.8,75,29,9,24.1,100.87,,,NA,5.846
01-08-2023 09:00,8,1,09:00,17.8,10.7,63,30,11,24.1,100.88,,,NA,5.823
01-08-2023 10:00,8,1,10:00,19.6,9.7,52,34,7,24.1,100.89,,,Mainly Clear,5.903
01-08-2023 11:00,8,1,11:00,19.2,8.4,49,28,10,24.1,100.88,,,NA,5.924
01-08-2023 12:00,8,1,12:00,19.1,9.7,54,31,12,24.1,100.86,,,NA,5.836
01-08-2023 13:00,8,1,13:00,20.4,10.3,52,33,6,24.1,100.84,,,Mostly Cloudy,5.933
01-08-2023 14:00,8,1,14:00,21.4,9.9,47,27,13,24.1,100.81,,,NA,5.863
01-08-2023 15:00,8,1,15:00,21.8,9.7,45,29,16,24.1,100.79,,,NA,11.231
01-08-2023 16:00,8,1,16:00,22.1,10,46,30,13,24.1,100.76,,,Mainly Clear,5.845
01-08-2023 17:00,8,1,17:00,21.1,10.5,50,26,14,24.1,100.77,,,NA,5.842
01-08-2023 18:00,8,1,18:00,20.6,9.2,47,30,16,24.1,100.76,,,NA,5.832
01-08-2023 19:00,8,1,19:00,18.9,9.7,55,32,10,24.1,100.8,,,Mainly Clear,5.928
01-08-2023 20:00,8,1,20:00,17.3,9.5,60,24,7,24.1,100.85,,,NA,5.842
01-08-2023 21:00,8,1,21:00,15.2,9.3,68,36,2,24.1,100.9,,,NA,5.853
01-08-2023 22:00,8,1,22:00,15.5,8.8,64,20,4,24.1,100.9,,,Clear,5.756
01-08-2023 23:00,8,1,23:00,13.7,9,73,18,3,24.1,100.91,,,NA,5.962
02-08-2023 00:00,8,2,00:00,11.2,8.3,82,15,4,24.1,100.9,,,NA,5.929
02-08-2023 01:00,8,2,01:00,11.9,9.4,84,23,5,24.1,100.91,,,Clear,5.976
02-08-2023 02:00,8,2,02:00,10,9.2,95,21,5,24.1,100.91,,,NA,6.018
02-08-2023 03:00,8,2,03:00,10.2,9.5,96,36,1,24.1,100.9,,,NA,6.041
02-08-2023 04:00,8,2,04:00,8.6,7.8,95,36,1,24.1,100.91,,,Mainly Clear,5.889
02-08-2023 05:00,8,2,05:00,9.5,8.2,91,7,3,24.1,100.91,,,NA,5.898
02-08-2023 06:00,8,2,06:00,13,11.5,90,6,5,24.1,100.92,,,NA,5.98
02-08-2023 07:00,8,2,07:00,15,12.6,85,11,7,24.1,100.92,,,Mostly Cloudy,5.895
02-08-2023 08:00,8,2,08:00,17.1,12.5,74,15,6,24.1,100.9,,,NA,5.93
02-08-2023 09:00,8,2,09:00,20.4,13.3,63,18,9,24.1,100.87,,,NA,5.874
02-08-2023 10:00,8,2,10:00,21.7,13.7,60,20,12,24.1,100.85,25,,Mostly Cloudy,5.939
02-08-2023 11:00,8,2,11:00,23.2,14.1,56,20,10,24.1,100.8,27,,NA,5.959
02-08-2023 12:00,8,2,12:00,22.5,13.7,57,22,11,24.1,100.76,26,,NA,5.981
02-08-2023 13:00,8,2,13:00,24.7,13,48,20,14,24.1,100.7,27,,Mostly Cloudy,5.774
02-08-2023 14:00,8,2,14:00,24.5,11.9,45,25,15,24.1,100.66,27,,NA,5.816
02-08-2023 15:00,8,2,15:00,24.7,11.5,43,23,13,24.1,100.6,27,,NA,5.77
02-08-2023 16:00,8,2,16:00,25,15.4,55,18,15,24.1,100.53,29,,Mostly Cloudy,5.648
02-08-2023 17:00,8,2,17:00,23.9,14,53,19,20,24.1,100.5,27,,NA,5.76
02-08-2023 18:00,8,2,18:00,22.7,14.4,59,19,21,24.1,100.46,26,,NA,5.813
02-08-2023 19:00,8,2,19:00,20.6,14.3,67,18,11,24.1,100.46,,,Mostly Cloudy,5.677
02-08-2023 20:00,8,2,20:00,19.4,13.7,69,18,11,24.1,100.45,,,NA,5.733
02-08-2023 21:00,8,2,21:00,18.3,13.1,71,18,12,24.1,100.4,,,NA,5.722
02-08-2023 22:00,8,2,22:00,18.2,13,71,19,10,24.1,100.37,,,Mostly Cloudy,5.685
02-08-2023 23:00,8,2,23:00,18.4,12.3,68,18,10,24.1,100.34,,,NA,5.878
03-08-2023 00:00,8,3,00:00,17.1,12.2,73,16,8,24.1,100.28,,,NA,5.834
03-08-2023 01:00,8,3,01:00,17.2,12.3,73,17,14,24.1,100.14,,,Cloudy,5.766
03-08-2023 02:00,8,3,02:00,17.2,12.2,72,17,15,24.1,100.04,,,NA,5.811
03-08-2023 03:00,8,3,03:00,17.6,12.1,70,19,17,24.1,99.95,,,NA,5.795
03-08-2023 04:00,8,3,04:00,16,14.7,92,21,19,12.9,100,,,"Thunderstorms,Rain Showers",5.856
03-08-2023 05:00,8,3,05:00,16.2,15.4,95,17,13,24.1,99.99,,,NA,5.994
03-08-2023 06:00,8,3,06:00,17.1,16.5,96,18,12,24.1,99.96,,,NA,5.904
03-08-2023 07:00,8,3,07:00,18.8,17.8,93,21,16,24.1,99.97,,,Mostly Cloudy,5.911
03-08-2023 08:00,8,3,08:00,19.7,18.1,90,21,15,24.1,99.96,,,NA,5.961
03-08-2023 09:00,8,3,09:00,20.8,18.4,86,22,24,24.1,99.89,27,,NA,5.959
03-08-2023 10:00,8,3,10:00,21.8,18.7,82,23,23,24.1,99.88,28,,Mostly Cloudy,5.883
03-08-2023 11:00,8,3,11:00,22.6,18.6,78,21,22,24.1,99.87,29,,NA,5.972
03-08-2023 12:00,8,3,12:00,23.9,19.3,75,23,23,24.1,99.82,31,,NA,5.851
03-08-2023 13:00,8,3,13:00,23.4,19.5,78,22,22,24.1,99.77,31,,Mostly Cloudy,5.892
03-08-2023 14:00,8,3,14:00,25.8,19.9,70,20,20,24.1,99.72,33,,NA,5.845
03-08-2023 15:00,8,3,15:00,25.3,19.8,71,20,21,24.1,99.65,33,,NA,5.806
03-08-2023 16:00,8,3,16:00,24.8,20.2,75,21,15,24.1,99.6,33,,Mostly Cloudy,5.925
03-08-2023 17:00,8,3,17:00,23.6,19.6,78,20,17,16.1,99.54,31,,Thunderstorms,6.015
03-08-2023 18:00,8,3,18:00,19,16,82,20,30,24.1,99.64,,,Thunderstorms,5.988
03-08-2023 19:00,8,3,19:00,20.2,18,87,21,20,24.1,99.51,26,,Mostly Cloudy,5.949
03-08-2023 20:00,8,3,20:00,20.4,18.3,87,22,17,24.1,99.58,27,,Thunderstorms,5.924
03-08-2023 21:00,8,3,21:00,19.7,17.2,86,28,13,24.1,99.64,,,NA,5.89
03-08-2023 22:00,8,3,22:00,18.8,16.6,87,23,8,24.1,99.57,,,Cloudy,5.982
03-08-2023 23:00,8,3,23:00,17,16.1,94,16,9,24.1,99.55,,,NA,5.876
04-08-2023 00:00,8,4,00:00,17.4,16.6,95,22,9,24.1,99.52,,,NA,5.951
04-08-2023 01:00,8,4,01:00,17.2,16.5,95,20,10,24.1,99.53,,,Mostly Cloudy,6.017
04-08-2023 02:00,8,4,02:00,16.9,16.4,96,21,10,24.1,99.58,,,NA,6.004
04-08-2023 03:00,8,4,03:00,16.7,16.2,97,20,6,24.1,99.53,,,NA,6.007
04-08-2023 04:00,8,4,04:00,16.3,15.9,98,20,10,24.1,99.56,,,Mostly Cloudy,6.083
04-08-2023 05:00,8,4,05:00,16.6,16.1,96,22,7,24.1,99.62,,,NA,5.846
04-08-2023 06:00,8,4,06:00,16.8,16.3,97,21,7,24.1,99.63,,,NA,5.867
04-08-2023 07:00,8,4,07:00,17.6,16.8,95,23,8,24.1,99.64,,,Mostly Cloudy,5.917
04-08-2023 08:00,8,4,08:00,18.3,16.8,90,24,9,24.1,99.66,,,NA,6.033
04-08-2023 09:00,8,4,09:00,20.9,17.1,78,32,5,24.1,99.69,26,,NA,6.282
04-08-2023 10:00,8,4,10:00,22.1,16.9,72,31,8,24.1,99.69,27,,Mainly Clear,6.242
04-08-2023 11:00,8,4,11:00,23.4,16,63,31,13,24.1,99.69,28,,NA,6.274
04-08-2023 12:00,8,4,12:00,23.1,16.1,64,34,14,24.1,99.72,28,,NA,6.209
04-08-2023 13:00,8,4,13:00,25.2,14.3,50,31,22,24.1,99.74,29,,Mainly Clear,6.227
04-08-2023 14:00,8,4,14:00,25.3,15.5,54,34,16,24.1,99.76,30,,NA,6.195
04-08-2023 15:00,8,4,15:00,25.4,15.6,54,33,26,24.1,99.75,30,,NA,6.272
04-08-2023 16:00,8,4,16:00,24.3,14.4,53,36,21,24.1,99.79,28,,Mostly Cloudy,6.168
04-08-2023 17:00,8,4,17:00,24.3,13.8,51,36,18,24.1,99.81,28,,NA,6.235
04-08-2023 18:00,8,4,18:00,23.6,12.9,51,33,16,24.1,99.86,26,,NA,6.17
04-08-2023 19:00,8,4,19:00,21.9,13.2,57,3,7,24.1,99.88,25,,Mainly Clear,6.111
04-08-2023 20:00,8,4,20:00,20.8,14.9,68,36,29,24.1,99.99,25,,NA,6.132
04-08-2023 21:00,8,4,21:00,18.2,16.5,90,33,7,24.1,100.05,,,NA,6.176
04-08-2023 22:00,8,4,22:00,17.7,16.8,94,31,11,24.1,100.08,,,Mainly Clear,6.24
04-08-2023 23:00,8,4,23:00,17,15.3,90,31,11,24.1,100.11,,,NA,6.323
05-08-2023 00:00,8,5,00:00,17.6,15,85,33,17,24.1,100.14,,,NA,6.366
05-08-2023 01:00,8,5,01:00,16.6,14.6,87,32,17,24.1,100.16,,,Clear,6.308
05-08-2023 02:00,8,5,02:00,15.9,13.5,85,35,24,24.1,100.14,,,NA,6.306
05-08-2023 03:00,8,5,03:00,14.3,12.5,89,32,12,24.1,100.19,,,NA,6.302
05-08-2023 04:00,8,5,04:00,13.2,11.6,89,29,7,24.1,100.23,,,Clear,6.243
05-08-2023 05:00,8,5,05:00,13.1,12.2,94,30,12,24.1,100.29,,,NA,6.368
05-08-2023 06:00,8,5,06:00,14.6,13.3,92,28,11,24.1,100.3,,,NA,6.194
05-08-2023 07:00,8,5,07:00,16.6,13.7,83,31,12,24.1,100.33,,,Clear,6.217
05-08-2023 08:00,8,5,08:00,17.4,14.2,81,27,7,24.1,100.37,,,NA,6.185
05-08-2023 09:00,8,5,09:00,19,14.9,77,25,9,24.1,100.38,,,NA,6.194
05-08-2023 10:00,8,5,10:00,20.2,14.1,67,30,17,24.1,100.38,,,Mainly Clear,6.301
05-08-2023 11:00,8,5,11:00,21.3,14.7,66,31,15,24.1,100.35,25,,NA,6.367
05-08-2023 12:00,8,5,12:00,22.4,14.1,59,33,16,24.1,100.33,26,,NA,6.232
05-08-2023 13:00,8,5,13:00,23.2,13.7,54,33,13,24.1,100.34,26,,Mostly Cloudy,6.229
05-08-2023 14:00,8,5,14:00,23.9,12.6,48,34,8,24.1,100.33,26,,NA,6.229
05-08-2023 15:00,8,5,15:00,23.2,12.2,49,4,6,24.1,100.3,26,,NA,6.158
05-08-2023 16:00,8,5,16:00,25.2,13.4,47,5,6,24.1,100.31,28,,Mostly Cloudy,6.02
05-08-2023 17:00,8,5,17:00,24.6,13.2,49,12,6,24.1,100.3,28,,NA,6.266
05-08-2023 18:00,8,5,18:00,23.3,13.2,53,19,4,24.1,100.29,26,,NA,6.196
05-08-2023 19:00,8,5,19:00,21.5,13.5,60,24,8,24.1,100.27,25,,Clear,6.246
05-08-2023 20:00,8,5,20:00,19.4,13.5,68,27,9,24.1,100.29,,,NA,6.289
05-08-2023 21:00,8,5,21:00,19.1,13.6,70,24,7,24.1,100.32,,,NA,6.244
05-08-2023 22:00,8,5,22:00,17.8,13.5,76,25,10,24.1,100.34,,,Clear,6.274
05-08-2023 23:00,8,5,23:00,15.8,12.8,82,25,11,24.1,100.32,,,NA,6.349
06-08-2023 00:00,8,6,00:00,16.3,12.8,80,24,6,24.1,100.3,,,NA,6.354
06-08-2023 01:00,8,6,01:00,14.8,12.3,85,23,9,24.1,100.29,,,Clear,6.41
06-08-2023 02:00,8,6,02:00,15.6,12.7,83,24,8,24.1,100.32,,,NA,6.211
06-08-2023 03:00,8,6,03:00,13.7,12.5,92,24,8,24.1,100.33,,,NA,6.183
06-08-2023 04:00,8,6,04:00,14.1,12.9,92,27,8,24.1,100.34,,,Clear,6.155
06-08-2023 05:00,8,6,05:00,13.9,13,94,27,7,24.1,100.35,,,NA,6.061
06-08-2023 06:00,8,6,06:00,14.4,13.6,95,27,9,24.1,100.38,,,NA,6.016
06-08-2023 07:00,8,6,07:00,17.4,15.4,88,29,9,24.1,100.38,,,Clear,6.187
06-08-2023 08:00,8,6,08:00,19.7,14.9,73,30,8,24.1,100.37,,,NA,6.105
06-08-2023 09:00,8,6,09:00,21.6,14.2,63,36,2,24.1,100.35,25,,NA,6.021
06-08-2023 10:00,8,6,10:00,23.5,13.3,52,33,9,24.1,100.31,26,,Mainly Clear,6.175
06-08-2023 11:00,8,6,11:00,24.4,13.9,51,27,9,24.1,100.26,28,,NA,6.007
06-08-2023 12:00,8,6,12:00,25.7,11.3,40,36,7,24.1,100.23,28,,NA,5.798
06-08-2023 13:00,8,6,13:00,25.6,13,45,22,9,24.1,100.23,28,,Mostly Cloudy,6.053
06-08-2023 14:00,8,6,14:00,26.3,12.8,43,24,6,24.1,100.18,29,,NA,5.995
06-08-2023 15:00,8,6,15:00,26.6,10.7,36,36,3,24.1,100.15,28,,NA,6.043
06-08-2023 16:00,8,6,16:00,25.5,11.5,41,23,7,24.1,100.14,28,,Mostly Cloudy,6.066
06-08-2023 17:00,8,6,17:00,24.9,16.1,58,21,4,24.1,100.11,30,,NA,5.993
06-08-2023 18:00,8,6,18:00,23.6,17.5,68,20,3,24.1,100.08,29,,NA,5.928
06-08-2023 19:00,8,6,19:00,21.5,16.1,71,13,7,24.1,100.06,26,,Mostly Cloudy,5.948
06-08-2023 20:00,8,6,20:00,21.3,14.3,64,10,7,24.1,100.06,25,,NA,6.022
06-08-2023 21:00,8,6,21:00,19.2,14.6,74,5,11,24.1,100.06,,,NA,6.083
06-08-2023 22:00,8,6,22:00,19.8,14.4,71,8,9,24.1,100.08,,,Mostly Cloudy,6.236
06-08-2023 23:00,8,6,23:00,18.7,14.3,75,9,10,24.1,100.05,,,NA,6.227
07-08-2023 00:00,8,7,00:00,18,14.1,78,7,10,24.1,100.04,,,NA,6.256
07-08-2023 01:00,8,7,01:00,17.1,14.3,83,6,11,24.1,99.99,,,Mostly Cloudy,6.195
07-08-2023 02:00,8,7,02:00,17.6,14.3,81,7,14,24.1,99.91,,,NA,6.131
07-08-2023 03:00,8,7,03:00,16.4,14.2,87,6,10,24.1,99.9,,,NA,6.189
07-08-2023 04:00,8,7,04:00,16.7,14.4,86,6,16,24.1,99.84,,,Mostly Cloudy,6.063
07-08-2023 05:00,8,7,05:00,16.8,14.4,86,7,31,24.1,99.8,,,NA,6.068
07-08-2023 06:00,8,7,06:00,17.1,14.2,82,7,32,24.1,99.75,,,NA,6.065
07-08-2023 07:00,8,7,07:00,17.5,14.3,81,7,31,24.1,99.73,,,Cloudy,6.054
07-08-2023 08:00,8,7,08:00,17.2,15.1,87,10,12,12.9,99.72,,,"Rain,Fog",6.051
07-08-2023 09:00,8,7,09:00,16.5,15.9,96,6,17,3.2,99.7,,,Moderate Rain,6.092
07-08-2023 10:00,8,7,10:00,16.7,16.1,96,6,31,9.7,99.65,,,"Rain,Fog",6.017
07-08-2023 11:00,8,7,11:00,17.5,17,97,7,31,12.9,99.58,,,Rain,6.015
07-08-2023 12:00,8,7,12:00,17.5,16.6,95,7,34,16.1,99.47,,,Rain,6.024
07-08-2023 13:00,8,7,13:00,19.1,17.2,89,7,41,16.1,99.39,,,Cloudy,6.096
07-08-2023 14:00,8,7,14:00,19,17.5,91,8,16,16.1,99.32,,,NA,6.033
07-08-2023 15:00,8,7,15:00,19.5,18.2,92,7,32,16.1,99.24,,,NA,6.172
07-08-2023 16:00,8,7,16:00,19.8,18.7,93,8,32,16.1,99.18,,,Cloudy,6.062
07-08-2023 17:00,8,7,17:00,20.1,18.1,88,8,38,16.1,99.15,26,,NA,6.101
07-08-2023 18:00,8,7,18:00,19.4,17.8,90,7,33,16.1,99.12,,,NA,5.995
07-08-2023 19:00,8,7,19:00,18.5,17.9,96,8,31,2.4,99.05,,,Heavy Rain Showers,6.057
07-08-2023 20:00,8,7,20:00,18.4,17.9,97,6,39,12.9,99.03,,,NA,6.061
07-08-2023 21:00,8,7,21:00,18.2,17.9,98,6,35,4.8,98.93,,,"Moderate Rain Showers,Fog",6.109
07-08-2023 22:00,8,7,22:00,18.2,17.9,98,6,38,6.4,98.82,,,"Moderate Rain,Fog",5.98
07-08-2023 23:00,8,7,23:00,17.9,17.6,99,7,38,6.4,98.73,,,"Moderate Rain,Fog",6.121
08-08-2023 00:00,8,8,00:00,18.2,18,98,8,33,2.4,98.64,,,"Rain,Fog",6.223
08-08-2023 01:00,8,8,01:00,18.6,18.4,99,10,4,9.7,98.6,,,"Rain,Fog",6.158
08-08-2023 02:00,8,8,02:00,18.6,18.5,100,23,9,8.1,98.61,,,Fog,6.234
08-08-2023 03:00,8,8,03:00,18.1,18.1,100,25,12,1.6,98.64,,,Fog,6.187
08-08-2023 04:00,8,8,04:00,18,18,100,24,13,2.4,98.65,,,Fog,6.17
08-08-2023 05:00,8,8,05:00,18,18,100,27,13,2.4,98.67,,,Fog,6.237
08-08-2023 06:00,8,8,06:00,18.2,18.2,100,26,6,16.1,98.7,,,NA,6.137
08-08-2023 07:00,8,8,07:00,18.6,18.5,99,24,11,12.9,98.74,,,Cloudy,6.058
08-08-2023 08:00,8,8,08:00,19.8,18.7,94,24,10,24.1,98.76,,,NA,6.208
08-08-2023 09:00,8,8,09:00,20.3,19.1,93,24,9,24.1,98.79,27,,NA,6.161
08-08-2023 10:00,8,8,10:00,20.3,18.8,91,25,12,24.1,98.82,27,,Cloudy,6.191
08-08-2023 11:00,8,8,11:00,20.8,19.1,90,27,8,24.1,98.79,28,,NA,6.172
08-08-2023 12:00,8,8,12:00,21.1,18.9,87,30,18,24.1,98.78,28,,NA,5.366
08-08-2023 13:00,8,8,13:00,21.6,18.8,84,31,14,24.1,98.76,28,,Cloudy,5.306
08-08-2023 14:00,8,8,14:00,21.8,19,84,30,17,24.1,98.77,29,,NA,5.257
08-08-2023 15:00,8,8,15:00,21.1,17.9,82,35,28,24.1,98.8,27,,NA,5.265
08-08-2023 16:00,8,8,16:00,21.4,17.8,80,34,30,24.1,98.86,27,,Cloudy,5.256
08-08-2023 17:00,8,8,17:00,20.4,17.4,83,34,21,24.1,98.89,26,,NA,5.307
08-08-2023 18:00,8,8,18:00,20,16.9,82,32,30,24.1,98.93,25,,NA,5.294
08-08-2023 19:00,8,8,19:00,19.8,16.9,83,33,28,24.1,98.95,,,Mostly Cloudy,5.218
08-08-2023 20:00,8,8,20:00,19.4,17,86,30,18,24.1,99.01,,,NA,5.253
08-08-2023 21:00,8,8,21:00,19.5,17.4,88,30,15,24.1,99.04,,,NA,5.249
08-08-2023 22:00,8,8,22:00,18.2,16.6,90,30,14,24.1,99.05,,,Mainly Clear,5.113
08-08-2023 23:00,8,8,23:00,17.7,16.3,91,29,11,24.1,99.06,,,NA,5.396
09-08-2023 00:00,8,9,00:00,17.5,16.2,92,28,15,24.1,99.08,,,NA,5.332
09-08-2023 01:00,8,9,01:00,16.2,15.6,96,27,11,24.1,99.06,,,Clear,5.359
09-08-2023 02:00,8,9,02:00,16.8,16,95,28,16,24.1,99.07,,,NA,5.447
09-08-2023 03:00,8,9,03:00,15.9,15.5,97,26,15,24.1,99.1,,,NA,5.341
09-08-2023 04:00,8,9,04:00,15.1,14.8,98,25,14,24.1,99.12,,,Mainly Clear,5.328
09-08-2023 05:00,8,9,05:00,15,14.7,98,26,13,24.1,99.15,,,NA,5.501
09-08-2023 06:00,8,9,06:00,16.2,15,92,28,15,24.1,99.18,,,NA,5.283
09-08-2023 07:00,8,9,07:00,17.6,15.6,88,28,17,24.1,99.2,,,Clear,5.219
09-08-2023 08:00,8,9,08:00,19.4,15.8,79,29,24,24.1,99.2,,,NA,5.274
09-08-2023 09:00,8,9,09:00,21.2,16.7,75,28,19,24.1,99.18,26,,NA,5.263
09-08-2023 10:00,8,9,10:00,23.1,16.6,66,29,18,24.1,99.16,28,,Clear,5.249
09-08-2023 11:00,8,9,11:00,24.9,17.2,62,31,20,24.1,99.14,30,,NA,5.313
09-08-2023 12:00,8,9,12:00,26.4,18,60,27,18,24.1,99.11,32,,NA,5.289
09-08-2023 13:00,8,9,13:00,26.9,16.4,52,28,21,24.1,99.1,32,,Clear,5.201
09-08-2023 14:00,8,9,14:00,27.5,16.4,50,31,19,24.1,99.05,32,,NA,5.29
09-08-2023 15:00,8,9,15:00,27.8,16.9,51,31,21,24.1,99.06,33,,NA,5.257
09-08-2023 16:00,8,9,16:00,26.4,17.5,58,28,16,24.1,99.04,32,,Mainly Clear,5.312
09-08-2023 17:00,8,9,17:00,26,18,61,30,15,24.1,99.01,32,,NA,5.252
09-08-2023 18:00,8,9,18:00,25.8,17.2,59,27,10,24.1,99,31,,NA,5.274
09-08-2023 19:00,8,9,19:00,23.7,16.9,65,25,8,24.1,99.05,29,,Mainly Clear,5.268
09-08-2023 20:00,8,9,20:00,22.6,17.2,71,23,7,24.1,99.07,28,,NA,5.343
09-08-2023 21:00,8,9,21:00,20.4,16.8,80,23,10,24.1,99.12,26,,NA,5.129
09-08-2023 22:00,8,9,22:00,20.1,16.6,80,25,8,24.1,99.15,25,,Clear,5.27
09-08-2023 23:00,8,9,23:00,19.6,14.6,72,25,9,24.1,99.15,,,NA,5.428
10-08-2023 00:00,8,10,00:00,18.9,14.4,75,25,7,24.1,99.12,,,NA,5.218
10-08-2023 01:00,8,10,01:00,17.3,14.6,84,23,10,24.1,99.09,,,Clear,5.285
10-08-2023 02:00,8,10,02:00,16.5,14.6,89,20,14,24.1,99.07,,,NA,5.38
10-08-2023 03:00,8,10,03:00,16.7,14.3,85,21,8,24.1,99.05,,,NA,5.347
10-08-2023 04:00,8,10,04:00,14.3,13.4,94,17,3,24.1,99,,,Mostly Cloudy,5.342
10-08-2023 05:00,8,10,05:00,16,14.6,92,19,12,24.1,99.04,,,NA,5.286
10-08-2023 06:00,8,10,06:00,16.6,15.1,91,17,14,24.1,99.04,,,NA,5.259
10-08-2023 07:00,8,10,07:00,18.4,17.2,93,18,10,24.1,99.01,,,Mostly Cloudy,5.393
10-08-2023 08:00,8,10,08:00,20,19.3,96,18,13,16.1,98.97,27,,NA,5.24
10-08-2023 09:00,8,10,09:00,20.4,19.1,93,18,16,12.9,98.95,27,,NA,5.34
10-08-2023 10:00,8,10,10:00,23.4,19.7,80,16,13,16.1,98.91,31,,Mostly Cloudy,5.272
10-08-2023 11:00,8,10,11:00,23.4,18.9,76,13,8,24.1,98.84,30,,Thunderstorms,5.279
10-08-2023 12:00,8,10,12:00,17.1,16.4,96,31,12,2.4,98.92,,,"Thunderstorms,Moderate Rain Showers,Fog",5.315
10-08-2023 13:00,8,10,13:00,16.2,16,99,26,6,6.4,98.92,,,"Thunderstorms,Rain Showers,Fog",5.271
10-08-2023 14:00,8,10,14:00,16.9,16.8,99,26,17,4.8,98.94,,,"Moderate Rain Showers,Fog",5.316
10-08-2023 15:00,8,10,15:00,17.3,17,98,29,15,8.1,98.9,,,"Moderate Rain Showers,Fog",5.38
10-08-2023 16:00,8,10,16:00,17.6,17.3,98,13,10,9.7,98.86,,,"Rain,Fog",5.238
10-08-2023 17:00,8,10,17:00,17.7,17.3,98,13,9,24.1,98.81,,,NA,5.341
10-08-2023 18:00,8,10,18:00,18.2,17.2,93,20,9,24.1,98.84,,,NA,5.417
10-08-2023 19:00,8,10,19:00,17.3,16.8,97,19,8,24.1,98.88,,,Mainly Clear,5.293
10-08-2023 20:00,8,10,20:00,16.4,16.2,99,21,7,24.1,98.92,,,NA,5.284
10-08-2023 21:00,8,10,21:00,16.3,16.1,99,19,11,24.1,98.92,,,NA,5.312
10-08-2023 22:00,8,10,22:00,15.9,15.3,96,22,11,16.1,98.89,,,"Thunderstorms,Rain Showers",5.196
10-08-2023 23:00,8,10,23:00,15.3,15.1,98,24,12,24.1,98.9,,,NA,5.323
11-08-2023 00:00,8,11,00:00,15.2,14.5,96,26,13,24.1,98.89,,,NA,5.51
11-08-2023 01:00,8,11,01:00,14.6,13.8,95,27,16,24.1,98.87,,,Mainly Clear,5.343
11-08-2023 02:00,8,11,02:00,14.3,13.5,95,27,16,24.1,98.89,,,NA,5.33
11-08-2023 03:00,8,11,03:00,13.9,13.3,96,27,14,24.1,98.91,,,NA,5.479
11-08-2023 04:00,8,11,04:00,13.1,12.8,98,27,12,24.1,98.95,,,Mainly Clear,5.299
11-08-2023 05:00,8,11,05:00,14.5,13.8,95,28,17,24.1,99.02,,,NA,5.448
11-08-2023 06:00,8,11,06:00,14.5,13.9,96,27,18,24.1,99.08,,,NA,5.459
11-08-2023 07:00,8,11,07:00,15.4,14.5,94,29,20,24.1,99.16,,,Mostly Cloudy,5.292
11-08-2023 08:00,8,11,08:00,16.8,14.7,87,31,21,24.1,99.24,,,NA,5.311
11-08-2023 09:00,8,11,09:00,18,15,82,31,17,24.1,99.3,,,NA,5.316
11-08-2023 10:00,8,11,10:00,18.1,14.6,80,28,16,24.1,99.38,,,Mostly Cloudy,5.377
11-08-2023 11:00,8,11,11:00,18.6,13.6,72,28,26,24.1,99.39,,,NA,5.285
11-08-2023 12:00,8,11,12:00,20.9,14.8,67,28,21,24.1,99.4,25,,NA,5.256
11-08-2023 13:00,8,11,13:00,21.5,14,62,30,28,24.1,99.44,25,,Mainly Clear,5.318
11-08-2023 14:00,8,11,14:00,21.6,13.8,60,27,23,24.1,99.48,25,,NA,5.396
11-08-2023 15:00,8,11,15:00,22.6,14,58,29,19,24.1,99.49,26,,NA,5.303
11-08-2023 16:00,8,11,16:00,22.6,13.3,55,27,21,24.1,99.52,26,,Mainly Clear,5.244
11-08-2023 17:00,8,11,17:00,22.4,13.2,56,27,16,24.1,99.53,25,,NA,5.224
11-08-2023 18:00,8,11,18:00,21.6,13.8,60,29,14,24.1,99.56,25,,NA,5.233
11-08-2023 19:00,8,11,19:00,18.8,13.7,72,27,9,24.1,99.61,,,Mostly Cloudy,5.138
11-08-2023 20:00,8,11,20:00,17.2,12.9,75,25,3,24.1,99.65,,,NA,5.36
11-08-2023 21:00,8,11,21:00,16.3,13.5,83,20,5,24.1,99.71,,,NA,5.285
11-08-2023 22:00,8,11,22:00,15.5,14.1,91,23,8,24.1,99.73,,,Mostly Cloudy,5.249
11-08-2023 23:00,8,11,23:00,14.1,13.3,95,18,4,24.1,99.73,,,NA,5.288
12-08-2023 00:00,8,12,00:00,14,13.2,95,36,2,24.1,99.72,,,NA,5.338
12-08-2023 01:00,8,12,01:00,13.9,13.2,96,20,5,24.1,99.72,,,Mainly Clear,5.275
12-08-2023 02:00,8,12,02:00,14.4,13.5,94,21,4,24.1,99.73,,,NA,5.451
12-08-2023 03:00,8,12,03:00,13.8,12.9,95,4,4,24.1,99.72,,,NA,5.364
12-08-2023 04:00,8,12,04:00,13.6,12.9,95,13,9,24.1,99.72,,,Mainly Clear,5.532
12-08-2023 05:00,8,12,05:00,14.1,13.6,96,6,7,24.1,99.71,,,NA,5.302
12-08-2023 06:00,8,12,06:00,14.8,14.1,96,10,8,24.1,99.76,,,NA,5.273
12-08-2023 07:00,8,12,07:00,15.3,15.1,99,12,7,19.3,99.77,,,Mostly Cloudy,5.257
12-08-2023 08:00,8,12,08:00,16.9,16.2,95,15,9,16.1,99.75,,,NA,5.269
12-08-2023 09:00,8,12,09:00,18.4,15.9,85,7,6,16.1,99.7,,,NA,5.314
12-08-2023 10:00,8,12,10:00,21.1,16.6,75,12,9,24.1,99.67,26,,Mostly Cloudy,5.395
12-08-2023 11:00,8,12,11:00,21.9,16.4,71,6,22,24.1,99.51,27,,NA,5.265
12-08-2023 12:00,8,12,12:00,21.9,16.3,70,9,25,24.1,99.46,27,,NA,5.335
12-08-2023 13:00,8,12,13:00,21.9,17.3,74,9,26,24.1,99.38,27,,Cloudy,5.268
12-08-2023 14:00,8,12,14:00,22.1,18,77,10,13,24.1,99.36,28,,Rain Showers,5.286
12-08-2023 15:00,8,12,15:00,20.7,18.1,85,33,12,6.4,99.34,27,,"Thunderstorms,Moderate Rain Showers,Fog",5.363
12-08-2023 16:00,8,12,16:00,19.5,18.6,94,11,5,24.1,99.35,,,Mostly Cloudy,5.407
12-08-2023 17:00,8,12,17:00,20.5,18.8,90,,0,24.1,99.34,27,,NA,5.28
12-08-2023 18:00,8,12,18:00,20.2,18.8,92,17,6,24.1,99.31,27,,NA,5.277
12-08-2023 19:00,8,12,19:00,19.4,18.8,96,12,7,24.1,99.3,,,Mostly Cloudy,5.221
12-08-2023 20:00,8,12,20:00,18.7,18.5,99,10,4,24.1,99.31,,,NA,5.358
12-08-2023 21:00,8,12,21:00,19.2,18.6,97,9,6,24.1,99.34,,,NA,5.413
12-08-2023 22:00,8,12,22:00,19,18.6,97,9,6,16.1,99.37,,,Cloudy,5.552
12-08-2023 23:00,8,12,23:00,18.5,18.3,99,14,8,16.1,99.32,,,NA,5.431
13-08-2023 00:00,8,13,00:00,18.6,18.4,99,12,4,12.9,99.32,,,NA,5.394
13-08-2023 01:00,8,13,01:00,18.5,18.3,98,5,8,8.1,99.31,,,"Drizzle,Fog",5.47
13-08-2023 02:00,8,13,02:00,18.2,18.2,100,6,5,1.6,99.32,,,Fog,5.406
13-08-2023 03:00,8,13,03:00,17.7,17.7,100,14,6,1.2,99.33,,,Fog,5.491
13-08-2023 04:00,8,13,04:00,18.3,18.3,100,21,7,2.4,99.37,,,Fog,5.532
13-08-2023 05:00,8,13,05:00,18.1,18.1,100,26,13,16.1,99.43,,,NA,5.473
13-08-2023 06:00,8,13,06:00,17.7,17.5,99,24,9,24.1,99.48,,,NA,5.396
13-08-2023 07:00,8,13,07:00,18.5,17.5,94,23,10,24.1,99.52,,,Mainly Clear,5.236
13-08-2023 08:00,8,13,08:00,19.8,16.7,82,25,16,24.1,99.53,,,NA,5.248
13-08-2023 09:00,8,13,09:00,20.5,16.2,76,25,19,24.1,99.53,25,,NA,5.478
13-08-2023 10:00,8,13,10:00,21.5,16.1,71,26,16,24.1,99.56,26,,Mostly Cloudy,5.354
13-08-2023 11:00,8,13,11:00,21.1,16.6,75,25,16,24.1,99.61,26,,NA,5.286
13-08-2023 12:00,8,13,12:00,22.3,16.7,71,26,17,24.1,99.63,27,,NA,5.311
13-08-2023 13:00,8,13,13:00,22.9,16.8,68,26,18,24.1,99.65,28,,Mostly Cloudy,5.25
13-08-2023 14:00,8,13,14:00,22.8,16.5,67,21,21,24.1,99.67,28,,NA,5.068
13-08-2023 15:00,8,13,15:00,23.6,17.2,67,22,21,24.1,99.68,29,,NA,5.238
13-08-2023 16:00,8,13,16:00,20,18.6,91,25,17,24.1,99.75,26,,Rain Showers,5.144
13-08-2023 17:00,8,13,17:00,22.3,18.3,78,26,11,24.1,99.75,29,,NA,5.09
13-08-2023 18:00,8,13,18:00,21.5,17.8,79,25,12,24.1,99.8,27,,NA,5.106
13-08-2023 19:00,8,13,19:00,19.9,17.5,86,25,11,24.1,99.84,,,Mainly Clear,5.198
13-08-2023 20:00,8,13,20:00,18.2,16.7,91,25,11,24.1,99.85,,,NA,5.201
13-08-2023 21:00,8,13,21:00,17.1,15.7,92,26,12,24.1,99.92,,,NA,5.452
13-08-2023 22:00,8,13,22:00,16.7,15.8,94,26,12,24.1,99.95,,,Clear,5.311
13-08-2023 23:00,8,13,23:00,15.9,15.1,95,27,11,24.1,99.97,,,NA,5.229
14-08-2023 00:00,8,14,00:00,16.1,15.3,95,28,10,24.1,99.98,,,NA,5.284
14-08-2023 01:00,8,14,01:00,15.8,15.1,96,27,14,24.1,100,,,Mainly Clear,5.379
14-08-2023 02:00,8,14,02:00,15.8,14.6,93,28,16,24.1,99.98,,,NA,5.345
14-08-2023 03:00,8,14,03:00,15.7,14.8,94,28,13,24.1,99.96,,,NA,5.304
14-08-2023 04:00,8,14,04:00,14.9,14.7,99,28,12,24.1,99.98,,,Clear,5.374
14-08-2023 05:00,8,14,05:00,14.1,13.8,98,25,9,24.1,100,,,NA,5.126
14-08-2023 06:00,8,14,06:00,15.1,14.6,97,27,9,24.1,100.05,,,NA,5.215
14-08-2023 07:00,8,14,07:00,16.4,15.1,92,28,12,24.1,100.13,,,Mostly Cloudy,5.324
14-08-2023 08:00,8,14,08:00,17.2,15,86,30,10,24.1,100.17,,,NA,5.395
14-08-2023 09:00,8,14,09:00,17.2,14.6,84,28,14,24.1,100.18,,,NA,5.367
14-08-2023 10:00,8,14,10:00,18.9,15.6,81,26,13,24.1,100.19,,,Mostly Cloudy,5.364
14-08-2023 11:00,8,14,11:00,20.2,15.4,73,27,17,24.1,100.17,,,NA,5.382
14-08-2023 12:00,8,14,12:00,21.4,15.7,70,26,15,24.1,100.16,26,,NA,5.238
14-08-2023 13:00,8,14,13:00,21.9,16,69,27,10,24.1,100.13,27,,Mostly Cloudy,5.317
14-08-2023 14:00,8,14,14:00,21.5,16,71,25,15,24.1,100.1,26,,NA,5.349
14-08-2023 15:00,8,14,15:00,21.7,15.1,66,27,9,24.1,100.06,26,,NA,5.535
14-08-2023 16:00,8,14,16:00,22.8,14.5,59,32,15,24.1,100.03,26,,Mostly Cloudy,5.236
14-08-2023 17:00,8,14,17:00,22.6,14.9,61,30,15,24.1,100,27,,NA,5.309
14-08-2023 18:00,8,14,18:00,21.5,14.7,65,28,12,24.1,99.99,25,,NA,5.322
14-08-2023 19:00,8,14,19:00,19.7,15.5,77,28,10,24.1,99.99,,,Mostly Cloudy,5.221
14-08-2023 20:00,8,14,20:00,19.3,15.1,77,29,9,24.1,99.99,,,NA,5.252
14-08-2023 21:00,8,14,21:00,17.7,15.2,85,32,11,24.1,100.01,,,NA,5.216
14-08-2023 22:00,8,14,22:00,17.9,15.4,85,32,8,24.1,100.03,,,Mostly Cloudy,5.328
14-08-2023 23:00,8,14,23:00,15.7,14.6,93,29,3,24.1,100.01,,,NA,5.34
15-08-2023 00:00,8,15,00:00,15.4,14.5,94,19,4,24.1,100.03,,,NA,5.284
15-08-2023 01:00,8,15,01:00,15.7,15.2,97,34,5,24.1,99.98,,,Mostly Cloudy,5.363
15-08-2023 02:00,8,15,02:00,16.4,15.3,93,36,8,24.1,99.87,,,NA,5.466
15-08-2023 03:00,8,15,03:00,15.9,14.9,94,2,8,24.1,99.81,,,NA,5.318
15-08-2023 04:00,8,15,04:00,15.4,14.5,94,2,8,24.1,99.78,,,Mainly Clear,5.496
15-08-2023 05:00,8,15,05:00,15.7,14.8,94,3,9,24.1,99.76,,,NA,5.381
15-08-2023 06:00,8,15,06:00,16.1,14.8,92,1,9,24.1,99.8,,,NA,5.256
15-08-2023 07:00,8,15,07:00,16.9,15.4,91,4,11,24.1,99.82,,,Mostly Cloudy,5.261
15-08-2023 08:00,8,15,08:00,17.8,15.4,86,4,16,24.1,99.82,,,NA,5.319
15-08-2023 09:00,8,15,09:00,18.7,16.1,85,6,10,24.1,99.86,,,NA,6.444
15-08-2023 10:00,8,15,10:00,20.3,16.4,78,5,8,24.1,99.86,25,,Mostly Cloudy,6.953
15-08-2023 11:00,8,15,11:00,21.3,17.2,77,5,10,24.1,99.83,27,,NA,6.78
15-08-2023 12:00,8,15,12:00,21.7,17,74,6,9,24.1,99.79,27,,NA,6.836
15-08-2023 13:00,8,15,13:00,22.4,16.6,70,6,10,24.1,99.76,27,,Mostly Cloudy,6.282
15-08-2023 14:00,8,15,14:00,23,17.2,70,7,7,24.1,99.73,28,,NA,5.53
15-08-2023 15:00,8,15,15:00,23.1,17.6,71,6,5,24.1,99.7,29,,NA,5.541
15-08-2023 16:00,8,15,16:00,23,16.7,67,4,7,24.1,99.68,28,,Mostly Cloudy,4.41
15-08-2023 17:00,8,15,17:00,23.4,17,67,11,3,24.1,99.67,29,,NA,4.419
15-08-2023 18:00,8,15,18:00,23.1,16.7,67,4,5,24.1,99.67,28,,NA,4.401
15-08-2023 19:00,8,15,19:00,21.3,16.4,73,4,8,24.1,99.66,26,,Mostly Cloudy,4.356
15-08-2023 20:00,8,15,20:00,19.4,16.5,83,3,4,24.1,99.68,,,NA,4.348
15-08-2023 21:00,8,15,21:00,19.2,16.1,82,36,2,24.1,99.75,,,NA,4.361
15-08-2023 22:00,8,15,22:00,18.2,16.4,89,6,4,24.1,99.76,,,Mostly Cloudy,4.397
15-08-2023 23:00,8,15,23:00,17.8,16.1,89,35,7,24.1,99.77,,,NA,4.463
16-08-2023 00:00,8,16,00:00,19.3,17.8,91,1,5,24.1,99.77,,,NA,4.454
16-08-2023 01:00,8,16,01:00,18.5,17.3,92,6,6,24.1,99.72,,,Mostly Cloudy,4.523
16-08-2023 02:00,8,16,02:00,18.6,17.3,92,2,8,24.1,99.71,,,NA,4.588
16-08-2023 03:00,8,16,03:00,16.9,16.4,97,36,3,24.1,99.71,,,NA,4.542
16-08-2023 04:00,8,16,04:00,17.3,16.7,96,3,7,24.1,99.74,,,Mostly Cloudy,4.453
16-08-2023 05:00,8,16,05:00,17.5,16.8,96,35,7,24.1,99.78,,,NA,4.452
16-08-2023 06:00,8,16,06:00,17.2,16.7,96,4,4,24.1,99.81,,,NA,4.41
16-08-2023 07:00,8,16,07:00,17.8,16.8,94,4,10,24.1,99.86,,,Mostly Cloudy,4.423
16-08-2023 08:00,8,16,08:00,19.9,17.8,87,2,5,24.1,99.89,,,NA,4.429
16-08-2023 09:00,8,16,09:00,22.3,18.6,80,5,4,24.1,99.91,29,,NA,4.446
16-08-2023 10:00,8,16,10:00,22.5,18.8,79,32,6,24.1,99.94,29,,Mostly Cloudy,4.469
16-08-2023 11:00,8,16,11:00,24.9,18.5,67,4,6,24.1,99.92,31,,NA,4.456
16-08-2023 12:00,8,16,12:00,25.4,17.6,61,21,3,24.1,99.89,31,,NA,4.454
16-08-2023 13:00,8,16,13:00,26.4,17.8,58,21,5,24.1,99.89,32,,Mostly Cloudy,4.432
16-08-2023 14:00,8,16,14:00,27.2,17.5,55,19,9,24.1,99.86,33,,NA,4.429
16-08-2023 15:00,8,16,15:00,27.4,19.1,60,16,14,24.1,99.83,34,,NA,4.423
16-08-2023 16:00,8,16,16:00,27.2,17.7,55,17,13,24.1,99.83,33,,Mostly Cloudy,4.355
16-08-2023 17:00,8,16,17:00,25.9,19.1,66,15,11,24.1,99.83,33,,NA,4.374
16-08-2023 18:00,8,16,18:00,24.6,18.9,70,16,12,24.1,99.83,31,,NA,4.424
16-08-2023 19:00,8,16,19:00,22.4,18.4,78,17,10,24.1,99.88,29,,Mainly Clear,4.457
16-08-2023 20:00,8,16,20:00,21.1,18.1,83,16,9,24.1,99.9,27,,NA,4.432
16-08-2023 21:00,8,16,21:00,20.6,17.9,84,17,9,24.1,99.94,27,,NA,4.31
16-08-2023 22:00,8,16,22:00,20.1,18.2,88,18,7,24.1,99.94,26,,Clear,4.423
16-08-2023 23:00,8,16,23:00,19.3,18,92,17,8,24.1,99.92,,,NA,4.474
17-08-2023 00:00,8,17,00:00,19,17.7,92,18,8,24.1,99.89,,,NA,4.471
17-08-2023 01:00,8,17,01:00,18.2,17.6,96,19,8,24.1,99.87,,,Clear,4.481
17-08-2023 02:00,8,17,02:00,17.5,17.1,97,17,9,24.1,99.88,,,NA,4.472
17-08-2023 03:00,8,17,03:00,16.9,16.5,98,17,8,24.1,99.88,,,NA,4.458
17-08-2023 04:00,8,17,04:00,16.7,16.5,99,17,10,16.1,99.87,,,Clear,4.5
17-08-2023 05:00,8,17,05:00,16.5,16.2,98,18,9,16.1,99.87,,,NA,4.543
17-08-2023 06:00,8,17,06:00,17.3,17.2,99,17,9,16.1,99.89,,,NA,4.49
17-08-2023 07:00,8,17,07:00,18.7,18.2,97,19,10,24.1,99.9,,,Mainly Clear,4.445
17-08-2023 08:00,8,17,08:00,21.2,18.8,86,17,14,24.1,99.86,28,,NA,4.459
17-08-2023 09:00,8,17,09:00,23.1,18.8,76,16,11,24.1,99.82,30,,NA,4.468
17-08-2023 10:00,8,17,10:00,24.6,18.1,67,16,14,24.1,99.79,31,,Mostly Cloudy,4.484
17-08-2023 11:00,8,17,11:00,24.5,17.6,65,16,14,24.1,99.73,30,,NA,4.454
17-08-2023 12:00,8,17,12:00,25.7,18,62,15,16,24.1,99.65,32,,NA,4.44
17-08-2023 13:00,8,17,13:00,27.1,18.7,60,16,17,24.1,99.57,34,,Mostly Cloudy,4.498
17-08-2023 14:00,8,17,14:00,26.9,19,61,15,28,24.1,99.52,34,,NA,4.432
17-08-2023 15:00,8,17,15:00,26,20.7,72,16,18,24.1,99.44,34,,NA,4.634
17-08-2023 16:00,8,17,16:00,26.8,20.4,67,14,20,24.1,99.38,35,,Mostly Cloudy,4.407
17-08-2023 17:00,8,17,17:00,24.9,19.5,72,18,11,24.1,99.37,32,,NA,4.38
17-08-2023 18:00,8,17,18:00,24.4,18.2,68,16,10,24.1,99.33,31,,NA,4.37
17-08-2023 19:00,8,17,19:00,22.9,18.2,75,16,18,24.1,99.31,29,,Mostly Cloudy,4.338
17-08-2023 20:00,8,17,20:00,20.5,18.5,88,13,12,24.1,99.23,27,,NA,4.416
17-08-2023 21:00,8,17,21:00,21.5,18.9,85,12,13,24.1,99.18,28,,NA,4.372
17-08-2023 22:00,8,17,22:00,21.4,18.9,85,11,12,16.1,99.12,28,,Rain Showers,4.405
17-08-2023 23:00,8,17,23:00,20.2,19.1,94,12,9,24.1,99.09,27,,NA,4.442
18-08-2023 00:00,8,18,00:00,19.6,18.7,94,13,11,24.1,99.04,,,NA,4.508
18-08-2023 01:00,8,18,01:00,19.5,18.9,96,18,5,24.1,99,,,Mostly Cloudy,4.614
18-08-2023 02:00,8,18,02:00,19.1,18.8,98,13,8,24.1,98.92,,,NA,4.498
18-08-2023 03:00,8,18,03:00,19.8,19,95,14,17,24.1,98.87,,,NA,4.494
18-08-2023 04:00,8,18,04:00,19.3,18.4,94,14,27,16.1,98.8,,,Rain,4.446
18-08-2023 05:00,8,18,05:00,18.5,17.4,93,18,19,24.1,98.81,,,Rain,4.428
18-08-2023 06:00,8,18,06:00,18,16.9,93,19,15,16.1,98.88,,,Rain,4.444
18-08-2023 07:00,8,18,07:00,17.9,17.3,96,16,12,16.1,98.85,,,Rain,4.39
18-08-2023 08:00,8,18,08:00,18.2,17.2,94,21,17,16.1,98.88,,,Rain,4.429
18-08-2023 09:00,8,18,09:00,19.4,17.1,86,22,15,24.1,98.85,,,NA,4.515
18-08-2023 10:00,8,18,10:00,19,14.2,73,26,21,24.1,98.94,,,Mostly Cloudy,4.517
18-08-2023 11:00,8,18,11:00,20.9,15,69,23,26,24.1,98.94,25,,NA,4.446
18-08-2023 12:00,8,18,12:00,20.7,13.8,64,27,24,24.1,98.94,,,NA,4.429
18-08-2023 13:00,8,18,13:00,21.7,13.7,60,21,23,24.1,98.94,25,,Mostly Cloudy,4.42
18-08-2023 14:00,8,18,14:00,20.2,13.4,65,22,28,24.1,98.97,,,NA,4.408
18-08-2023 15:00,8,18,15:00,20.7,14.8,69,22,21,24.1,98.97,25,,NA,4.382
18-08-2023 16:00,8,18,16:00,21.3,14.3,64,23,23,24.1,98.99,25,,Mostly Cloudy,4.372
18-08-2023 17:00,8,18,17:00,18.2,15.4,84,25,18,16.1,99.02,,,Rain Showers,4.358
18-08-2023 18:00,8,18,18:00,16.7,15.8,95,27,10,24.1,99.05,,,NA,4.37
18-08-2023 19:00,8,18,19:00,16.5,14.9,90,28,20,24.1,99.11,,,Mostly Cloudy,4.392
18-08-2023 20:00,8,18,20:00,15.4,13.8,91,29,22,24.1,99.18,,,Rain Showers,4.4
18-08-2023 21:00,8,18,21:00,14.9,13.6,92,26,19,24.1,99.24,,,NA,4.401
18-08-2023 22:00,8,18,22:00,14.5,12.9,90,27,27,24.1,99.25,,,Cloudy,4.413
18-08-2023 23:00,8,18,23:00,14,12.9,93,28,17,24.1,99.28,,,Rain,4.418
19-08-2023 00:00,8,19,00:00,13.7,13.2,96,29,13,9.7,99.35,,,"Rain,Fog",4.437
19-08-2023 01:00,8,19,01:00,13.7,13,96,28,19,12.9,99.37,,,Rain,4.44
19-08-2023 02:00,8,19,02:00,13.6,13.2,97,27,13,24.1,99.38,,,Rain,4.464
19-08-2023 03:00,8,19,03:00,13.6,13.1,97,27,19,16.1,99.39,,,Rain,4.478
19-08-2023 04:00,8,19,04:00,13.4,13,97,26,16,24.1,99.45,,,Cloudy,4.539
19-08-2023 05:00,8,19,05:00,13.5,12.7,95,28,13,24.1,99.52,,,NA,4.444
19-08-2023 06:00,8,19,06:00,13.5,12.5,94,26,16,24.1,99.59,,,NA,4.447
19-08-2023 07:00,8,19,07:00,13.6,12.1,91,27,18,24.1,99.65,,,Mostly Cloudy,4.459
19-08-2023 08:00,8,19,08:00,13.1,11.6,91,27,17,24.1,99.72,,,NA,4.433
19-08-2023 09:00,8,19,09:00,13.1,11.4,90,28,20,9.7,99.75,,,"Rain,Fog",4.422
19-08-2023 10:00,8,19,10:00,14.4,11.6,83,29,27,24.1,99.8,,,Cloudy,4.442
19-08-2023 11:00,8,19,11:00,15.5,12.1,80,28,24,24.1,99.81,,,NA,4.512
19-08-2023 12:00,8,19,12:00,17.4,12.7,73,28,23,24.1,99.8,,,NA,4.417
19-08-2023 13:00,8,19,13:00,18.1,13.5,74,30,21,24.1,99.82,,,Cloudy,4.461
19-08-2023 14:00,8,19,14:00,20.2,15,71,27,14,24.1,99.77,,,NA,4.44
19-08-2023 15:00,8,19,15:00,22.5,11.7,50,30,26,24.1,99.74,25,,NA,4.425
19-08-2023 16:00,8,19,16:00,23.2,10.6,45,29,19,24.1,99.78,25,,Clear,4.435
19-08-2023 17:00,8,19,17:00,23.2,10.3,44,29,21,24.1,99.76,25,,NA,4.437
19-08-2023 18:00,8,19,18:00,21.7,12.4,55,26,15,24.1,99.75,,,NA,4.357
19-08-2023 19:00,8,19,19:00,18.9,12.1,64,27,12,24.1,99.79,,,Mainly Clear,4.41
19-08-2023 20:00,8,19,20:00,18.3,12.1,67,24,9,24.1,99.85,,,NA,4.469
19-08-2023 21:00,8,19,21:00,16.2,12.5,79,25,13,24.1,99.86,,,NA,4.485
19-08-2023 22:00,8,19,22:00,16.7,12.2,74,25,8,24.1,99.93,,,Mainly Clear,4.496
19-08-2023 23:00,8,19,23:00,14.7,12.3,85,19,7,24.1,99.99,,,NA,4.475
20-08-2023 00:00,8,20,00:00,14.5,12.4,87,20,12,24.1,100.03,,,NA,4.461
20-08-2023 01:00,8,20,01:00,15,12.6,86,22,14,24.1,100.05,,,Mainly Clear,4.549
20-08-2023 02:00,8,20,02:00,15.1,13,87,23,13,24.1,100.05,,,NA,4.518
20-08-2023 03:00,8,20,03:00,14.3,12.8,90,23,11,24.1,100.11,,,NA,4.514
20-08-2023 04:00,8,20,04:00,14.7,13,90,23,14,24.1,100.18,,,Mostly Cloudy,4.5
20-08-2023 05:00,8,20,05:00,14.6,13,90,21,9,24.1,100.18,,,NA,4.455
20-08-2023 06:00,8,20,06:00,15.3,13.4,88,21,11,24.1,100.19,,,NA,4.435
20-08-2023 07:00,8,20,07:00,17.3,14.1,82,22,16,24.1,100.17,,,Mostly Cloudy,4.412
20-08-2023 08:00,8,20,08:00,18.9,14.8,77,23,16,24.1,100.19,,,NA,4.415
20-08-2023 09:00,8,20,09:00,20.9,15.4,71,25,14,24.1,100.25,25,,NA,4.46
20-08-2023 10:00,8,20,10:00,21.1,15.8,72,23,14,24.1,100.18,26,,Mostly Cloudy,4.441
20-08-2023 11:00,8,20,11:00,21.9,15.7,67,22,17,24.1,100.2,26,,NA,4.455
20-08-2023 12:00,8,20,12:00,22.5,16.6,69,23,15,24.1,100.18,28,,NA,4.457
20-08-2023 13:00,8,20,13:00,24.9,16.9,61,21,15,24.1,100.14,30,,Mostly Cloudy,4.447
20-08-2023 14:00,8,20,14:00,26.5,17.4,57,23,22,24.1,100.1,32,,NA,4.438
20-08-2023 15:00,8,20,15:00,25.7,17.3,59,22,14,24.1,100.07,31,,NA,4.421
20-08-2023 16:00,8,20,16:00,26.5,17.4,57,23,24,24.1,100.04,32,,Mostly Cloudy,4.426
20-08-2023 17:00,8,20,17:00,25.1,16.9,60,23,15,24.1,100.07,30,,NA,4.41
20-08-2023 18:00,8,20,18:00,24.6,16.9,61,22,15,24.1,100.08,30,,NA,4.401
20-08-2023 19:00,8,20,19:00,23.6,16.9,65,23,18,24.1,100.11,29,,Mostly Cloudy,4.411
20-08-2023 20:00,8,20,20:00,22.9,17.7,72,23,12,24.1,100.2,29,,NA,4.396
20-08-2023 21:00,8,20,21:00,22.1,18.3,79,21,8,24.1,100.21,28,,NA,4.401
20-08-2023 22:00,8,20,22:00,22,18.7,81,23,11,24.1,100.19,29,,Cloudy,4.405
20-08-2023 23:00,8,20,23:00,20.7,18.6,88,25,6,24.1,100.21,27,,NA,4.428
21-08-2023 00:00,8,21,00:00,20.3,18.5,89,25,8,24.1,100.25,27,,NA,4.411
21-08-2023 01:00,8,21,01:00,20.5,18.4,88,29,8,24.1,100.24,27,,Mostly Cloudy,4.422
21-08-2023 02:00,8,21,02:00,21.2,18.8,86,34,31,24.1,100.26,28,,NA,4.438
21-08-2023 03:00,8,21,03:00,19.8,16.4,81,33,32,24.1,100.37,,,NA,4.43
21-08-2023 04:00,8,21,04:00,17.5,13.2,75,33,21,24.1,100.48,,,Mostly Cloudy,4.527
21-08-2023 05:00,8,21,05:00,16.4,11.3,72,35,29,24.1,100.57,,,NA,4.522
21-08-2023 06:00,8,21,06:00,15.6,10.5,72,35,26,24.1,100.67,,,NA,4.464
21-08-2023 07:00,8,21,07:00,15.9,10.5,70,34,23,24.1,100.71,,,Mostly Cloudy,4.438
21-08-2023 08:00,8,21,08:00,16.3,9.7,64,34,19,24.1,100.73,,,NA,4.472
21-08-2023 09:00,8,21,09:00,17.6,9.4,58,35,25,24.1,100.77,,,NA,5.09
21-08-2023 10:00,8,21,10:00,18.9,9.1,53,36,28,24.1,100.79,,,Mostly Cloudy,5.153
21-08-2023 11:00,8,21,11:00,20.4,8.4,46,1,28,24.1,100.78,,,NA,5.938
21-08-2023 12:00,8,21,12:00,20.5,9.3,48,34,20,24.1,100.78,,,NA,5.922
21-08-2023 13:00,8,21,13:00,21.4,9.1,45,36,18,24.1,100.75,,,Mostly Cloudy,5.544
21-08-2023 14:00,8,21,14:00,22.1,9.3,44,35,24,24.1,100.73,,,NA,4.414
21-08-2023 15:00,8,21,15:00,21.2,9.2,46,36,14,24.1,100.69,,,NA,4.371
21-08-2023 16:00,8,21,16:00,21.6,10.2,48,34,23,24.1,100.72,,,Mostly Cloudy,4.318
21-08-2023 17:00,8,21,17:00,20.4,10.2,51,36,22,24.1,100.76,,,NA,4.36
21-08-2023 18:00,8,21,18:00,19.6,10,53,35,21,24.1,100.76,,,NA,4.408
21-08-2023 19:00,8,21,19:00,19.2,10.6,57,35,17,24.1,100.8,,,Mostly Cloudy,4.407
21-08-2023 20:00,8,21,20:00,18.4,11,62,35,7,24.1,100.82,,,NA,4.409
21-08-2023 21:00,8,21,21:00,16.8,11.7,72,31,9,24.1,100.82,,,NA,4.436
21-08-2023 22:00,8,21,22:00,15.8,11,73,30,7,24.1,100.83,,,Mainly Clear,4.42
21-08-2023 23:00,8,21,23:00,15.4,11.3,76,33,12,24.1,100.85,,,NA,4.439
22-08-2023 00:00,8,22,00:00,15.3,10.9,75,32,13,24.1,100.86,,,NA,4.473
22-08-2023 01:00,8,22,01:00,14.3,11,80,31,9,24.1,100.83,,,Clear,4.456
22-08-2023 02:00,8,22,02:00,11.7,10.9,95,28,5,24.1,100.78,,,NA,4.459
22-08-2023 03:00,8,22,03:00,11,10.5,97,29,7,24.1,100.83,,,NA,4.462
22-08-2023 04:00,8,22,04:00,11.6,10.7,94,26,7,24.1,100.85,,,Clear,4.549
22-08-2023 05:00,8,22,05:00,10.9,10.1,95,28,7,24.1,100.88,,,NA,4.514
22-08-2023 06:00,8,22,06:00,12.6,11.7,94,26,8,24.1,100.92,,,NA,4.414
22-08-2023 07:00,8,22,07:00,14.6,13,90,27,7,24.1,100.97,,,Mostly Cloudy,4.437
22-08-2023 08:00,8,22,08:00,17.8,13.3,75,32,13,24.1,100.99,,,NA,4.511
22-08-2023 09:00,8,22,09:00,19.4,14.4,73,34,6,24.1,100.97,,,NA,6.056
22-08-2023 10:00,8,22,10:00,21.2,12.7,58,35,6,24.1,100.97,,,Mainly Clear,6.11
22-08-2023 11:00,8,22,11:00,22.7,13.2,55,32,16,24.1,100.93,26,,NA,6.797
22-08-2023 12:00,8,22,12:00,23.7,13.1,51,35,13,24.1,100.89,27,,NA,6.646
22-08-2023 13:00,8,22,13:00,23.2,12.5,51,35,13,24.1,100.84,26,,Mostly Cloudy,6.67
22-08-2023 14:00,8,22,14:00,24.8,13.2,48,31,21,24.1,100.78,28,,NA,6.626
22-08-2023 15:00,8,22,15:00,24.6,10.1,39,33,24,24.1,100.77,26,,NA,6.658
22-08-2023 16:00,8,22,16:00,24.6,12,45,35,7,24.1,100.74,27,,Mainly Clear,6.676
22-08-2023 17:00,8,22,17:00,23.6,11.4,46,35,10,24.1,100.71,26,,NA,5.319
22-08-2023 18:00,8,22,18:00,22.1,12,52,2,14,24.1,100.71,,,NA,5.098
22-08-2023 19:00,8,22,19:00,20.2,11.8,58,7,8,24.1,100.73,,,Mostly Cloudy,5.101
22-08-2023 20:00,8,22,20:00,18.9,11.6,62,12,5,24.1,100.77,,,NA,5.064
22-08-2023 21:00,8,22,21:00,19,11.3,61,6,5,24.1,100.78,,,NA,5.073
22-08-2023 22:00,8,22,22:00,15.2,12,81,16,5,24.1,100.75,,,Mostly Cloudy,5.097
22-08-2023 23:00,8,22,23:00,15.3,11.9,80,22,5,24.1,100.76,,,NA,5.189
23-08-2023 00:00,8,23,00:00,15.6,12.1,80,36,2,24.1,100.77,,,NA,5.178
23-08-2023 01:00,8,23,01:00,15.1,12.7,85,25,4,24.1,100.73,,,Mostly Cloudy,5.207
23-08-2023 02:00,8,23,02:00,13.4,12.5,94,19,3,24.1,100.72,,,NA,5.294
23-08-2023 03:00,8,23,03:00,14,13.1,94,26,4,24.1,100.72,,,NA,5.252
23-08-2023 04:00,8,23,04:00,13.4,12.8,96,26,3,24.1,100.72,,,Mainly Clear,5.116
23-08-2023 05:00,8,23,05:00,14.2,12.2,88,34,4,24.1,100.74,,,NA,5.147
23-08-2023 06:00,8,23,06:00,13,11.6,91,6,5,24.1,100.77,,,NA,5.198
23-08-2023 07:00,8,23,07:00,17.1,14.7,86,12,3,24.1,100.75,,,Clear,5.1
23-08-2023 08:00,8,23,08:00,19.9,13.2,65,36,1,24.1,100.72,,,NA,5.141
23-08-2023 09:00,8,23,09:00,21.8,13.6,59,22,9,24.1,100.72,25,,NA,6.227
23-08-2023 10:00,8,23,10:00,23.6,13.8,54,16,9,24.1,100.65,27,,Clear,6.683
23-08-2023 11:00,8,23,11:00,24.3,13.2,50,19,8,24.1,100.6,27,,NA,6.677
23-08-2023 12:00,8,23,12:00,25.3,12.3,44,18,14,24.1,100.55,28,,NA,6.277
23-08-2023 13:00,8,23,13:00,25.4,11.8,42,17,9,24.1,100.47,28,,Mainly Clear,5.101
23-08-2023 14:00,8,23,14:00,25.8,13,45,16,13,24.1,100.42,29,,NA,5.095
23-08-2023 15:00,8,23,15:00,22,15.1,64,26,22,24.1,100.4,26,,NA,5.173
23-08-2023 16:00,8,23,16:00,21.7,15,65,23,10,24.1,100.34,26,,Mostly Cloudy,5.085
23-08-2023 17:00,8,23,17:00,22.3,14.6,61,21,5,24.1,100.29,26,,NA,5.05
23-08-2023 18:00,8,23,18:00,21.4,16.1,71,22,7,24.1,100.28,26,,NA,5.083
23-08-2023 19:00,8,23,19:00,20.4,15.3,72,30,5,24.1,100.3,25,,Mostly Cloudy,5.076
23-08-2023 20:00,8,23,20:00,18.4,16.2,87,36,1,24.1,100.37,,,NA,5.085
23-08-2023 21:00,8,23,21:00,20,15.6,75,4,4,24.1,100.37,,,NA,5.069
23-08-2023 22:00,8,23,22:00,18.7,15.4,81,8,4,24.1,100.34,,,Cloudy,5.207
23-08-2023 23:00,8,23,23:00,16.7,14.6,87,10,10,24.1,100.32,,,NA,5.147
24-08-2023 00:00,8,24,00:00,15.3,13.6,89,11,12,24.1,100.3,,,NA,5.198
24-08-2023 01:00,8,24,01:00,15.4,14.1,92,10,10,24.1,100.26,,,Clear,5.16
24-08-2023 02:00,8,24,02:00,13.7,13.3,97,9,7,24.1,100.25,,,NA,5.202
24-08-2023 03:00,8,24,03:00,13.7,13.2,97,6,8,24.1,100.23,,,NA,5.257
24-08-2023 04:00,8,24,04:00,13.4,13.1,98,5,10,24.1,100.2,,,Mainly Clear,5.321
24-08-2023 05:00,8,24,05:00,13.4,13.1,98,4,12,24.1,100.2,,,NA,5.069
24-08-2023 06:00,8,24,06:00,13.8,13.5,98,9,7,24.1,100.25,,,NA,5.135
24-08-2023 07:00,8,24,07:00,16.3,14.2,88,12,14,24.1,100.25,,,Mainly Clear,5.104
24-08-2023 08:00,8,24,08:00,18.9,15,78,13,14,24.1,100.22,,,NA,5.081
24-08-2023 09:00,8,24,09:00,20.9,15,69,13,16,24.1,100.21,25,,NA,7.385
24-08-2023 10:00,8,24,10:00,22.9,16,65,14,16,24.1,100.16,28,,Mostly Cloudy,7.829
24-08-2023 11:00,8,24,11:00,23.3,15,59,12,31,24.1,100.13,27,,NA,7.682
24-08-2023 12:00,8,24,12:00,22.6,14.8,61,14,27,24.1,100.08,26,,NA,7.683
24-08-2023 13:00,8,24,13:00,20.6,15.1,70,15,13,24.1,100.05,25,,Mostly Cloudy,7.586
24-08-2023 14:00,8,24,14:00,20.8,14.8,68,16,15,24.1,100,25,,NA,7.667
24-08-2023 15:00,8,24,15:00,19.9,15.3,75,18,12,24.1,99.93,,,NA,8.16
24-08-2023 16:00,8,24,16:00,18.2,15.5,84,16,14,24.1,99.97,,,Rain,8.388
24-08-2023 17:00,8,24,17:00,17.2,16.1,93,13,11,24.1,99.91,,,Rain,8.166
24-08-2023 18:00,8,24,18:00,16.8,16.1,96,13,11,16.1,99.9,,,Rain,6.842
24-08-2023 19:00,8,24,19:00,16.4,16.1,98,11,13,3.2,99.88,,,"Rain,Fog",6.773
24-08-2023 20:00,8,24,20:00,16.4,16.1,99,10,16,4.8,99.85,,,"Drizzle,Fog",6.889
24-08-2023 21:00,8,24,21:00,16.3,16.1,99,9,17,4.8,99.8,,,"Drizzle,Fog",6.727
24-08-2023 22:00,8,24,22:00,15.9,15.8,99,10,14,8.1,99.73,,,"Drizzle,Fog",6.535
24-08-2023 23:00,8,24,23:00,15.8,15.7,99,10,12,8.1,99.66,,,"Drizzle,Fog",6.7
25-08-2023 00:00,8,25,00:00,15.9,15.8,99,9,10,6.4,99.65,,,"Drizzle,Fog",6.805
25-08-2023 01:00,8,25,01:00,15.9,15.8,99,12,5,9.7,99.68,,,"Drizzle,Fog",6.895
25-08-2023 02:00,8,25,02:00,16,15.9,99,5,7,16.1,99.62,,,Drizzle,6.773
25-08-2023 03:00,8,25,03:00,15.9,15.9,100,5,10,12.9,99.58,,,Drizzle,6.753
25-08-2023 04:00,8,25,04:00,15.9,15.9,100,5,9,6.4,99.56,,,"Drizzle,Fog",6.864
25-08-2023 05:00,8,25,05:00,15.9,15.9,100,6,7,1.2,99.6,,,Fog,6.72
25-08-2023 06:00,8,25,06:00,16,16,100,4,5,0.6,99.63,,,Fog,6.814
25-08-2023 07:00,8,25,07:00,16.4,16.4,100,3,9,4,99.63,,,Fog,7.096
25-08-2023 08:00,8,25,08:00,17,17,100,8,5,12.9,99.62,,,NA,6.85
25-08-2023 09:00,8,25,09:00,18.2,17.4,95,3,8,16.1,99.64,,,NA,7.438
25-08-2023 10:00,8,25,10:00,18.8,17,89,1,5,24.1,99.64,,,Cloudy,8.42
25-08-2023 11:00,8,25,11:00,19.6,17.3,86,36,2,24.1,99.66,,,NA,8.437
25-08-2023 12:00,8,25,12:00,20.1,17.5,85,34,6,24.1,99.65,26,,NA,8.549
25-08-2023 13:00,8,25,13:00,21.4,17.6,79,32,9,24.1,99.64,27,,Mostly Cloudy,8.564
25-08-2023 14:00,8,25,14:00,22.8,18.1,75,33,5,24.1,99.61,29,,NA,8.325
25-08-2023 15:00,8,25,15:00,23.9,17.4,67,29,14,24.1,99.6,29,,NA,8.541
25-08-2023 16:00,8,25,16:00,22.1,17.4,74,29,11,24.1,99.62,28,,Mostly Cloudy,8.419
25-08-2023 17:00,8,25,17:00,21.6,17.8,79,26,11,24.1,99.62,27,,NA,8.349
25-08-2023 18:00,8,25,18:00,21.1,18.1,83,26,8,24.1,99.62,27,,NA,7.677
25-08-2023 19:00,8,25,19:00,20.2,17.9,86,26,5,24.1,99.64,26,,Cloudy,7.423
25-08-2023 20:00,8,25,20:00,19.6,18.2,92,25,8,24.1,99.68,,,NA,7.595
25-08-2023 21:00,8,25,21:00,18.8,17.6,93,25,7,24.1,99.69,,,NA,7.411
25-08-2023 22:00,8,25,22:00,18.9,17.9,94,25,9,24.1,99.69,,,Cloudy,7.146
25-08-2023 23:00,8,25,23:00,18.9,17.7,93,27,9,24.1,99.69,,,NA,7.324
26-08-2023 00:00,8,26,00:00,18.5,17.6,95,27,9,24.1,99.68,,,NA,7.506
26-08-2023 01:00,8,26,01:00,17.7,17.1,96,25,9,24.1,99.64,,,Cloudy,7.355
26-08-2023 02:00,8,26,02:00,17.9,17,95,26,10,24.1,99.62,,,NA,7.404
26-08-2023 03:00,8,26,03:00,18,16.9,93,28,9,24.1,99.61,,,NA,7.436
26-08-2023 04:00,8,26,04:00,18.4,16.7,90,28,16,24.1,99.64,,,Cloudy,7.389
26-08-2023 05:00,8,26,05:00,17.7,16.9,95,29,11,24.1,99.65,,,NA,7.667
26-08-2023 06:00,8,26,06:00,18,17.3,96,30,8,24.1,99.74,,,NA,7.617
26-08-2023 07:00,8,26,07:00,18.6,17.1,91,28,17,24.1,99.79,,,Mostly Cloudy,7.461
26-08-2023 08:00,8,26,08:00,19,17.3,90,30,23,24.1,99.81,,,Rain Showers,7.463
26-08-2023 09:00,8,26,09:00,19.5,16.6,83,32,26,24.1,99.86,,,NA,7.432
26-08-2023 10:00,8,26,10:00,19.4,16.4,82,31,26,24.1,99.92,,,Cloudy,7.513
26-08-2023 11:00,8,26,11:00,19,15.5,80,33,29,24.1,99.96,,,NA,7.319
26-08-2023 12:00,8,26,12:00,19.8,15.4,75,32,25,24.1,99.97,,,NA,7.296
26-08-2023 13:00,8,26,13:00,18.5,14.5,78,32,29,24.1,100.02,,,Mostly Cloudy,7.109
26-08-2023 14:00,8,26,14:00,18.5,13.6,73,34,37,24.1,100.02,,,NA,7.223
26-08-2023 15:00,8,26,15:00,18.5,12.9,69,32,27,24.1,100.02,,,NA,7.266
26-08-2023 16:00,8,26,16:00,18.4,12.3,67,34,31,24.1,100.05,,,Mostly Cloudy,7.305
26-08-2023 17:00,8,26,17:00,16.8,11.6,71,36,22,24.1,100.14,,,NA,7.23
26-08-2023 18:00,8,26,18:00,16.5,11.7,73,35,18,24.1,100.18,,,NA,7.408
26-08-2023 19:00,8,26,19:00,16.2,11.9,75,35,19,24.1,100.21,,,Mostly Cloudy,7.208
26-08-2023 20:00,8,26,20:00,16.1,12.2,78,36,18,24.1,100.24,,,NA,7.379
26-08-2023 21:00,8,26,21:00,16,11.8,76,35,15,24.1,100.25,,,NA,7.291
26-08-2023 22:00,8,26,22:00,14.8,11.6,81,35,15,24.1,100.26,,,Mainly Clear,7.424
26-08-2023 23:00,8,26,23:00,15.3,11.8,79,34,17,24.1,100.25,,,NA,7.545
27-08-2023 00:00,8,27,00:00,15.1,11.6,79,35,15,24.1,100.26,,,NA,7.556
27-08-2023 01:00,8,27,01:00,14,11.4,84,34,12,24.1,100.26,,,Mainly Clear,7.664
27-08-2023 02:00,8,27,02:00,13,11.4,90,34,11,24.1,100.23,,,NA,7.588
27-08-2023 03:00,8,27,03:00,12.7,11.2,90,34,8,24.1,100.24,,,NA,7.459
27-08-2023 04:00,8,27,04:00,11.4,10.6,95,31,6,24.1,100.26,,,Mainly Clear,7.65
27-08-2023 05:00,8,27,05:00,12.6,11.4,92,34,10,24.1,100.29,,,NA,7.744
27-08-2023 06:00,8,27,06:00,13.5,12.1,91,34,12,24.1,100.35,,,NA,7.586
27-08-2023 07:00,8,27,07:00,14.7,12.6,87,36,13,24.1,100.39,,,Mostly Cloudy,7.659
27-08-2023 08:00,8,27,08:00,16.7,12.7,77,1,12,24.1,100.41,,,NA,7.457
27-08-2023 09:00,8,27,09:00,18.4,13.1,71,4,10,24.1,100.42,,,NA,7.435
27-08-2023 10:00,8,27,10:00,19.6,12.8,64,34,5,24.1,100.4,,,Mainly Clear,7.423
27-08-2023 11:00,8,27,11:00,21.3,12.7,57,35,14,24.1,100.39,,,NA,7.575
27-08-2023 12:00,8,27,12:00,21.2,12.7,58,35,8,24.1,100.35,,,NA,7.568
27-08-2023 13:00,8,27,13:00,22.3,12.4,53,1,10,24.1,100.33,25,,Mainly Clear,7.474
27-08-2023 14:00,8,27,14:00,23.4,11.7,47,36,4,24.1,100.3,26,,NA,7.405
27-08-2023 15:00,8,27,15:00,23.3,11.9,48,7,8,24.1,100.26,26,,NA,7.38
27-08-2023 16:00,8,27,16:00,22.5,11.2,49,35,7,24.1,100.24,,,Mainly Clear,7.321
27-08-2023 17:00,8,27,17:00,21,13.1,60,9,6,24.1,100.26,,,NA,7.188
27-08-2023 18:00,8,27,18:00,19.7,14.7,72,7,4,24.1,100.26,,,NA,7.329
27-08-2023 19:00,8,27,19:00,20.7,12.1,58,33,14,24.1,100.27,,,Mainly Clear,7.276
27-08-2023 20:00,8,27,20:00,18.5,11.7,65,36,10,24.1,100.32,,,NA,7.396
27-08-2023 21:00,8,27,21:00,16.6,11.4,71,1,8,24.1,100.34,,,NA,7.375
27-08-2023 22:00,8,27,22:00,15.5,11.4,77,1,8,24.1,100.34,,,Clear,7.457
27-08-2023 23:00,8,27,23:00,15.1,11.2,78,2,3,24.1,100.34,,,NA,7.352
28-08-2023 00:00,8,28,00:00,11.1,9.7,91,36,1,24.1,100.37,,,NA,7.66
28-08-2023 01:00,8,28,01:00,11.6,11,96,36,1,24.1,100.36,,,Clear,7.634
28-08-2023 02:00,8,28,02:00,11.4,10.7,95,5,3,24.1,100.37,,,NA,7.585
28-08-2023 03:00,8,28,03:00,11.8,10.2,90,2,9,24.1,100.35,,,NA,7.724
28-08-2023 04:00,8,28,04:00,12.1,10.6,91,1,7,24.1,100.37,,,Clear,7.771
28-08-2023 05:00,8,28,05:00,9.6,8.7,94,3,5,24.1,100.38,,,NA,7.603
28-08-2023 06:00,8,28,06:00,11.6,11,96,5,8,24.1,100.41,,,NA,7.559
28-08-2023 07:00,8,28,07:00,14.1,12.2,88,4,10,24.1,100.41,,,Mainly Clear,7.434
28-08-2023 08:00,8,28,08:00,16.5,12.5,77,9,9,24.1,100.43,,,NA,7.545
28-08-2023 09:00,8,28,09:00,18.6,13.1,70,4,5,24.1,100.41,,,NA,7.384
28-08-2023 10:00,8,28,10:00,20.8,13.9,64,3,5,24.1,100.38,,,Mainly Clear,7.601
28-08-2023 11:00,8,28,11:00,22.2,12.3,53,13,3,24.1,100.34,25,,NA,7.581
28-08-2023 12:00,8,28,12:00,23.6,13.1,51,36,2,24.1,100.29,26,,NA,7.735
28-08-2023 13:00,8,28,13:00,24,12.6,49,15,9,24.1,100.24,27,,Mostly Cloudy,7.5
28-08-2023 14:00,8,28,14:00,24.5,11.3,43,14,10,24.1,100.19,26,,NA,7.55
28-08-2023 15:00,8,28,15:00,24.1,12.6,48,15,7,24.1,100.15,27,,NA,7.534
28-08-2023 16:00,8,28,16:00,22.9,14.3,58,17,9,24.1,100.14,26,,Mostly Cloudy,7.557
28-08-2023 17:00,8,28,17:00,21.9,14.4,62,14,6,24.1,100.14,26,,NA,7.488
28-08-2023 18:00,8,28,18:00,21.4,16.3,72,12,7,24.1,100.12,26,,NA,7.615
28-08-2023 19:00,8,28,19:00,18.4,14.8,79,13,7,24.1,100.11,,,Clear,7.305
28-08-2023 20:00,8,28,20:00,18.7,14,74,17,10,24.1,100.13,,,NA,7.299
28-08-2023 21:00,8,28,21:00,17.2,13.2,77,21,6,24.1,100.13,,,NA,7.182
28-08-2023 22:00,8,28,22:00,14.7,12.1,84,16,9,24.1,100.14,,,Clear,7.19
28-08-2023 23:00,8,28,23:00,13.2,11.4,89,19,4,24.1,100.13,,,NA,7.452
29-08-2023 00:00,8,29,00:00,15.2,12.3,83,19,6,24.1,100.14,,,NA,7.319
29-08-2023 01:00,8,29,01:00,13.6,11.9,89,17,9,24.1,100.12,,,Clear,7.441
29-08-2023 02:00,8,29,02:00,13.2,11.9,92,19,7,24.1,100.11,,,NA,7.361
29-08-2023 03:00,8,29,03:00,13,12.2,95,20,10,24.1,100.06,,,NA,7.446
29-08-2023 04:00,8,29,04:00,11.2,10.9,98,21,7,24.1,100.02,,,Clear,7.326
29-08-2023 05:00,8,29,05:00,11.5,11.5,100,17,3,24.1,100.01,,,NA,7.363
29-08-2023 06:00,8,29,06:00,10.9,10.9,100,36,2,24.1,100.01,,,NA,7.317
29-08-2023 07:00,8,29,07:00,14.1,14,99,28,5,24.1,100.03,,,Mostly Cloudy,7.269
29-08-2023 08:00,8,29,08:00,17.2,14.1,82,30,3,24.1,100.02,,,NA,7.271
29-08-2023 09:00,8,29,09:00,19.9,14.7,72,27,4,24.1,100.01,,,NA,8.154
29-08-2023 10:00,8,29,10:00,22.1,14.6,62,35,3,24.1,99.98,26,,Mainly Clear,8.412
29-08-2023 11:00,8,29,11:00,22.6,12.1,51,31,5,24.1,99.93,25,,NA,8.551
29-08-2023 12:00,8,29,12:00,23.9,13.3,51,12,4,24.1,99.87,27,,NA,8.543
29-08-2023 13:00,8,29,13:00,25.4,14.1,49,17,8,24.1,99.82,29,,Mainly Clear,8.401
29-08-2023 14:00,8,29,14:00,24.8,15.3,55,21,9,24.1,99.73,29,,NA,7.596
29-08-2023 15:00,8,29,15:00,24.8,16.1,58,16,12,24.1,99.67,29,,NA,7.573
29-08-2023 16:00,8,29,16:00,26.2,16.3,54,20,9,24.1,99.58,31,,Mainly Clear,7.716
29-08-2023 17:00,8,29,17:00,25,16.2,58,15,10,24.1,99.55,30,,NA,7.557
29-08-2023 18:00,8,29,18:00,22.8,17.5,72,15,6,24.1,99.5,28,,NA,7.627
29-08-2023 19:00,8,29,19:00,20,16.8,82,14,8,24.1,99.47,25,,Mainly Clear,7.371
29-08-2023 20:00,8,29,20:00,20.9,17.3,80,16,8,24.1,99.48,26,,NA,7.223
29-08-2023 21:00,8,29,21:00,20.1,17.8,86,18,8,24.1,99.47,26,,NA,7.277
29-08-2023 22:00,8,29,22:00,18.9,17.6,92,17,8,24.1,99.44,,,Mostly Cloudy,7.19
29-08-2023 23:00,8,29,23:00,18.4,17.6,95,18,8,24.1,99.43,,,NA,7.299
30-08-2023 00:00,8,30,00:00,18.5,17.5,94,14,5,24.1,99.36,,,NA,7.582
30-08-2023 01:00,8,30,01:00,19,17.9,93,32,5,24.1,99.29,,,Cloudy,7.634
30-08-2023 02:00,8,30,02:00,18.8,18.1,96,26,11,12.9,99.26,,,"Thunderstorms,Rain Showers",7.617
30-08-2023 03:00,8,30,03:00,17.9,17.6,98,3,8,24.1,99.11,,,NA,7.564
30-08-2023 04:00,8,30,04:00,17.9,17.8,100,6,4,0.8,99.09,,,Fog,7.637
30-08-2023 05:00,8,30,05:00,17,17,100,16,12,9.7,99.1,,,"Rain Showers,Fog",7.472
30-08-2023 06:00,8,30,06:00,17.1,17.1,100,32,4,4.8,99.11,,,Fog,7.542
30-08-2023 07:00,8,30,07:00,17.5,17.4,100,12,4,6.4,99.13,,,Fog,7.645
30-08-2023 08:00,8,30,08:00,19.1,17.9,93,1,5,6.4,99.1,,,Fog,7.801
30-08-2023 09:00,8,30,09:00,18.1,17.1,94,36,11,12.9,99.12,,,NA,8.37
30-08-2023 10:00,8,30,10:00,17.3,16.7,96,33,18,2.4,99.13,,,"Rain Showers,Fog",8.615
30-08-2023 11:00,8,30,11:00,15.8,15.1,95,35,29,6.4,99.19,,,"Rain Showers,Fog",8.33
30-08-2023 12:00,8,30,12:00,18.1,16,87,35,26,24.1,99.21,,,NA,8.495
30-08-2023 13:00,8,30,13:00,19.6,15.6,78,32,26,24.1,99.25,,,Mostly Cloudy,8.399
30-08-2023 14:00,8,30,14:00,20.2,14.2,68,32,31,24.1,99.32,,,NA,8.742
30-08-2023 15:00,8,30,15:00,19.1,13.2,68,33,42,24.1,99.39,,,NA,8.507
30-08-2023 16:00,8,30,16:00,18.2,13,71,31,32,24.1,99.46,,,Cloudy,7.442
30-08-2023 17:00,8,30,17:00,17.4,12.6,73,34,36,24.1,99.54,,,NA,7.385
30-08-2023 18:00,8,30,18:00,16.1,11.8,75,34,27,24.1,99.61,,,NA,7.045
30-08-2023 19:00,8,30,19:00,14.7,10.3,75,32,25,24.1,99.72,,,Mostly Cloudy,7.175
30-08-2023 20:00,8,30,20:00,13.9,10.4,79,30,16,24.1,99.82,,,NA,7.487
30-08-2023 21:00,8,30,21:00,13,10.7,86,28,15,24.1,99.89,,,NA,7.448
30-08-2023 22:00,8,30,22:00,11.9,10.4,90,28,11,24.1,99.94,,,Clear,7.168
30-08-2023 23:00,8,30,23:00,10.8,9.8,94,26,8,24.1,100,,,NA,7.293
31-08-2023 00:00,8,31,00:00,10.3,8.9,91,31,14,24.1,100.04,,,NA,7.375
31-08-2023 01:00,8,31,01:00,11.3,7.6,78,32,20,24.1,100.08,,,Clear,7.475
31-08-2023 02:00,8,31,02:00,9.9,7.2,83,31,16,24.1,100.11,,,NA,7.406
31-08-2023 03:00,8,31,03:00,10.7,7.1,79,35,19,24.1,100.14,,,NA,7.408
31-08-2023 04:00,8,31,04:00,8.8,6.4,85,31,14,24.1,100.18,,,Clear,7.336
31-08-2023 05:00,8,31,05:00,8.7,6.9,88,31,10,24.1,100.26,,,NA,7.345
31-08-2023 06:00,8,31,06:00,7.1,6.5,96,26,7,24.1,100.36,,,NA,7.22
31-08-2023 07:00,8,31,07:00,11.3,7.6,78,32,13,24.1,100.43,,,Clear,7.282
31-08-2023 08:00,8,31,08:00,13.9,6.8,62,1,9,24.1,100.47,,,NA,7.879
31-08-2023 09:00,8,31,09:00,15.1,5.7,53,34,10,24.1,100.53,,,NA,8.248
31-08-2023 10:00,8,31,10:00,16.1,4.9,47,30,8,24.1,100.53,,,Clear,8.434
31-08-2023 11:00,8,31,11:00,18.1,9.2,56,32,5,24.1,100.52,,,NA,8.944
31-08-2023 12:00,8,31,12:00,18.8,9.6,55,34,4,24.1,100.51,,,NA,8.677
31-08-2023 13:00,8,31,13:00,19.2,7.7,47,29,9,24.1,100.52,,,Mostly Cloudy,9.721
31-08-2023 14:00,8,31,14:00,20.7,9.4,48,24,15,24.1,100.49,,,NA,9.677
31-08-2023 15:00,8,31,15:00,20.9,9.6,48,31,25,24.1,100.5,,,NA,9.637
31-08-2023 16:00,8,31,16:00,21.5,9.5,46,28,19,24.1,100.49,,,Mainly Clear,8.182
31-08-2023 17:00,8,31,17:00,21.1,10.3,50,27,12,24.1,100.47,,,NA,8.165
31-08-2023 18:00,8,31,18:00,20.1,9.9,51,34,9,24.1,100.51,,,NA,7.98
31-08-2023 19:00,8,31,19:00,15,10.2,73,21,4,24.1,100.56,,,Mainly Clear,8.156
31-08-2023 20:00,8,31,20:00,16.4,10.9,70,19,9,24.1,100.66,,,NA,8.245
31-08-2023 21:00,8,31,21:00,15.1,11.2,77,36,2,24.1,100.72,,,NA,8.262
31-08-2023 22:00,8,31,22:00,12.5,10.9,90,11,4,24.1,100.75,,,Clear,8.116
31-08-2023 23:00,8,31,23:00,11.3,9.8,91,17,4,24.1,100.82,,,NA,8.231
01-09-2023 00:00,9,1,00:00,11.5,10.7,95,19,6,24.1,100.89,,,NA,8.376
01-09-2023 01:00,9,1,01:00,11.3,11.2,100,25,3,24.1,100.92,,,Clear,8.581
01-09-2023 02:00,9,1,02:00,10,10,100,36,1,24.1,100.92,,,NA,8.478
01-09-2023 03:00,9,1,03:00,11.1,11.1,100,31,3,24.1,100.95,,,NA,8.478
01-09-2023 04:00,9,1,04:00,8.5,8.5,100,24,4,24.1,101,,,Clear,8.577
01-09-2023 05:00,9,1,05:00,10.7,10.7,100,29,7,24.1,101.03,,,NA,8.572
01-09-2023 06:00,9,1,06:00,9.7,9.7,100,29,5,24.1,101.09,,,NA,8.397
01-09-2023 07:00,9,1,07:00,13.7,13.7,100,32,4,24.1,101.15,,,Mainly Clear,8.494
01-09-2023 08:00,9,1,08:00,16.6,14.3,86,27,3,24.1,101.17,,,NA,8.399
01-09-2023 09:00,9,1,09:00,18.9,14.1,73,36,2,24.1,101.21,,,NA,8.585
01-09-2023 10:00,9,1,10:00,20.2,12.5,61,17,8,24.1,101.2,,,Clear,10.331
01-09-2023 11:00,9,1,11:00,21.6,12.5,56,21,7,24.1,101.19,,,NA,13.783
01-09-2023 12:00,9,1,12:00,22.2,10.3,46,27,8,24.1,101.15,,,NA,11.716
01-09-2023 13:00,9,1,13:00,23,10.8,46,26,10,24.1,101.13,25,,Mainly Clear,10.482
01-09-2023 14:00,9,1,14:00,23.8,12.3,48,25,10,24.1,101.06,26,,NA,10.008
01-09-2023 15:00,9,1,15:00,23.8,11.8,46,19,9,24.1,101,26,,NA,10.749
01-09-2023 16:00,9,1,16:00,23.2,12.1,49,22,9,24.1,100.93,26,,Clear,10.427
01-09-2023 17:00,9,1,17:00,22.5,13.9,58,18,10,24.1,100.86,26,,NA,10.208
01-09-2023 18:00,9,1,18:00,20.6,13.8,65,19,7,24.1,100.84,,,NA,10.354
01-09-2023 19:00,9,1,19:00,18.7,13.9,74,17,8,24.1,100.84,,,Mainly Clear,10.299
01-09-2023 20:00,9,1,20:00,17.7,14.1,79,19,11,24.1,100.83,,,NA,10.228
01-09-2023 21:00,9,1,21:00,16.5,13.8,84,18,9,24.1,100.78,,,NA,10.288
01-09-2023 22:00,9,1,22:00,16.1,13.5,85,19,9,24.1,100.74,,,Mainly Clear,10.275
01-09-2023 23:00,9,1,23:00,15,13.3,90,19,8,24.1,100.75,,,NA,10.064
02-09-2023 00:00,9,2,00:00,14.3,13.3,94,22,10,24.1,100.77,,,NA,10.167
02-09-2023 01:00,9,2,01:00,14.2,13.4,95,20,13,24.1,100.73,,,Mostly Cloudy,9.999
02-09-2023 02:00,9,2,02:00,14,13.7,98,22,10,24.1,100.67,,,NA,10.764
02-09-2023 03:00,9,2,03:00,13,13,100,19,10,24.1,100.62,,,NA,10.305
02-09-2023 04:00,9,2,04:00,11.8,11.8,100,17,7,24.1,100.58,,,Mainly Clear,10.384
02-09-2023 05:00,9,2,05:00,12.6,12.6,100,17,8,24.1,100.56,,,NA,9.883
02-09-2023 06:00,9,2,06:00,12.8,12.5,98,18,8,24.1,100.56,,,NA,10.362
02-09-2023 07:00,9,2,07:00,14.7,14,96,20,7,24.1,100.51,,,Mostly Cloudy,10.315
02-09-2023 08:00,9,2,08:00,17.1,15.5,90,21,17,24.1,100.45,,,NA,10.194
02-09-2023 09:00,9,2,09:00,19,16.2,84,20,13,24.1,100.41,,,NA,9.925
02-09-2023 10:00,9,2,10:00,20.3,15.8,75,22,17,24.1,100.33,25,,Mostly Cloudy,10.289
02-09-2023 11:00,9,2,11:00,22.4,16.1,67,20,20,24.1,100.2,27,,NA,10.02
02-09-2023 12:00,9,2,12:00,22.6,15.9,65,22,21,24.1,100.12,27,,NA,9.661
02-09-2023 13:00,9,2,13:00,24.5,15.6,57,20,23,24.1,100.05,29,,Mostly Cloudy,10.348
02-09-2023 14:00,9,2,14:00,24.3,16.6,61,20,31,24.1,99.99,29,,NA,9.241
02-09-2023 15:00,9,2,15:00,24.2,17.1,64,22,26,24.1,99.93,30,,NA,8.983
02-09-2023 16:00,9,2,16:00,23,17,69,21,20,24.1,99.87,28,,Mostly Cloudy,8.906
02-09-2023 17:00,9,2,17:00,23.4,17.6,70,19,21,24.1,99.84,29,,NA,8.945
02-09-2023 18:00,9,2,18:00,21.9,17,73,20,17,24.1,99.79,27,,NA,8.655
02-09-2023 19:00,9,2,19:00,21,16.4,75,20,14,24.1,99.78,26,,Mainly Clear,8.867
02-09-2023 20:00,9,2,20:00,20.3,16.6,79,21,16,24.1,99.81,25,,NA,9.011
02-09-2023 21:00,9,2,21:00,19.6,16.9,84,21,16,24.1,99.83,,,NA,8.418
02-09-2023 22:00,9,2,22:00,19,17.4,91,20,13,24.1,99.84,,,Clear,9.179
02-09-2023 23:00,9,2,23:00,18.9,17.4,91,25,16,24.1,99.84,,,NA,9.017
03-09-2023 00:00,9,3,00:00,18.9,17.5,91,22,16,24.1,99.82,,,NA,8.923
03-09-2023 01:00,9,3,01:00,18.3,17.6,95,22,13,24.1,99.82,,,Clear,8.55
03-09-2023 02:00,9,3,02:00,17.9,17.5,97,22,14,24.1,99.81,,,NA,9.457
03-09-2023 03:00,9,3,03:00,17.5,17.4,99,22,13,24.1,99.83,,,NA,9.068
03-09-2023 04:00,9,3,04:00,17,17,100,22,13,24.1,99.83,,,Clear,9.037
03-09-2023 05:00,9,3,05:00,16.8,16.8,100,22,12,24.1,99.86,,,NA,8.887
03-09-2023 06:00,9,3,06:00,16.9,16.9,100,22,11,19.3,99.9,,,NA,8.372
03-09-2023 07:00,9,3,07:00,18.2,17.8,98,24,11,16.1,99.94,,,Clear,9.142
03-09-2023 08:00,9,3,08:00,20,17.6,86,22,7,19.3,99.9,26,,NA,9.187
03-09-2023 09:00,9,3,09:00,22.2,18.2,78,24,12,24.1,99.88,28,,NA,9.025
03-09-2023 10:00,9,3,10:00,23.9,18.6,72,20,11,24.1,99.86,30,,Mainly Clear,8.716
03-09-2023 11:00,9,3,11:00,25.4,19,67,24,15,24.1,99.87,32,,NA,9.473
03-09-2023 12:00,9,3,12:00,26.9,19.3,62,17,10,24.1,99.81,34,,NA,9.29
03-09-2023 13:00,9,3,13:00,28.2,19.6,59,21,15,24.1,99.76,35,,Mostly Cloudy,9.353
03-09-2023 14:00,9,3,14:00,28.9,19.6,57,22,15,24.1,99.71,36,,NA,10.255
03-09-2023 15:00,9,3,15:00,29.4,19.9,56,23,12,24.1,99.64,37,,NA,10.463
03-09-2023 16:00,9,3,16:00,29.1,19.9,57,21,16,24.1,99.6,37,,Mostly Cloudy,9.845
03-09-2023 17:00,9,3,17:00,27.4,20.5,65,17,11,24.1,99.57,35,,NA,10.111
03-09-2023 18:00,9,3,18:00,25.6,20,71,19,19,24.1,99.57,33,,NA,10.133
03-09-2023 19:00,9,3,19:00,23.6,19.5,78,20,15,24.1,99.64,31,,Mostly Cloudy,10.459
03-09-2023 20:00,9,3,20:00,22.1,19.4,85,16,13,24.1,99.62,29,,NA,10.164
03-09-2023 21:00,9,3,21:00,22,19.4,85,21,11,24.1,99.65,29,,NA,9.703
03-09-2023 22:00,9,3,22:00,22,19.3,84,21,8,24.1,99.62,29,,Mostly Cloudy,9.102
03-09-2023 23:00,9,3,23:00,22,19.7,86,20,9,24.1,99.62,29,,NA,8.999
04-09-2023 00:00,9,4,00:00,22.2,19.8,86,21,8,24.1,99.63,30,,NA,9.307
04-09-2023 01:00,9,4,01:00,20.9,19.8,93,23,7,24.1,99.6,28,,Mainly Clear,9.151
04-09-2023 02:00,9,4,02:00,20.1,19.8,98,21,9,24.1,99.57,28,,NA,8.806
04-09-2023 03:00,9,4,03:00,19.1,19.1,100,21,7,24.1,99.57,,,NA,9.164
04-09-2023 04:00,9,4,04:00,18.9,18.9,100,19,9,24.1,99.62,,,Clear,8.984
04-09-2023 05:00,9,4,05:00,18.7,18.7,100,18,8,24.1,99.64,,,NA,9.036
04-09-2023 06:00,9,4,06:00,18.6,18.6,100,18,8,24.1,99.7,,,NA,9.058
04-09-2023 07:00,9,4,07:00,20.4,20.2,99,20,9,24.1,99.73,28,,Mostly Cloudy,8.5
04-09-2023 08:00,9,4,08:00,22.6,19.9,84,24,5,24.1,99.71,30,,NA,9.333
04-09-2023 09:00,9,4,09:00,24.4,20.5,79,28,9,24.1,99.71,32,,NA,9.168
04-09-2023 10:00,9,4,10:00,25.9,19.6,68,26,8,24.1,99.76,33,,Mainly Clear,9.14
04-09-2023 11:00,9,4,11:00,26.2,19.9,68,36,3,24.1,99.76,34,,NA,8.887
04-09-2023 12:00,9,4,12:00,27.7,20.5,65,22,6,24.1,99.73,36,,NA,9.036
04-09-2023 13:00,9,4,13:00,29.2,20.3,58,24,11,24.1,99.73,37,,Mainly Clear,8.732
04-09-2023 14:00,9,4,14:00,29.4,20,56,27,12,24.1,99.7,37,,NA,9.122
04-09-2023 15:00,9,4,15:00,29.8,20.5,57,27,7,24.1,99.73,38,,NA,8.885
04-09-2023 16:00,9,4,16:00,29.7,20.6,58,24,7,24.1,99.73,38,,Mainly Clear,8.817
04-09-2023 17:00,9,4,17:00,29.3,20.8,60,25,7,24.1,99.74,38,,NA,8.995
04-09-2023 18:00,9,4,18:00,26.9,21.2,71,24,8,24.1,99.77,35,,NA,8.845
04-09-2023 19:00,9,4,19:00,24.4,20.7,79,21,4,24.1,99.82,33,,Clear,8.918
04-09-2023 20:00,9,4,20:00,23,21,88,15,5,24.1,99.88,31,,NA,9.238
04-09-2023 21:00,9,4,21:00,22.9,21.3,91,18,9,24.1,99.9,32,,NA,8.846
04-09-2023 22:00,9,4,22:00,22.9,22.2,96,18,10,24.1,99.93,32,,Clear,8.64
04-09-2023 23:00,9,4,23:00,21.9,21.8,99,19,7,24.1,99.94,31,,NA,9.129
05-09-2023 00:00,9,5,00:00,20.7,20.7,100,17,4,24.1,99.94,29,,NA,8.774
05-09-2023 01:00,9,5,01:00,21,21,100,20,5,24.1,99.95,29,,Clear,8.917
05-09-2023 02:00,9,5,02:00,19.3,19.3,100,20,7,24.1,99.97,,,NA,8.843
05-09-2023 03:00,9,5,03:00,18.5,18.5,100,17,4,24.1,99.94,,,NA,8.437
05-09-2023 04:00,9,5,04:00,19.4,19.4,100,19,5,6.4,99.99,,,Fog,8.873
05-09-2023 05:00,9,5,05:00,19,19,100,21,5,6.4,100.02,,,Fog,9.087
05-09-2023 06:00,9,5,06:00,19,19,100,20,6,9.7,100.09,,,Fog,8.91
05-09-2023 07:00,9,5,07:00,20.4,20.4,100,36,2,12.9,100.13,28,,Clear,14.654
05-09-2023 08:00,9,5,08:00,22.7,22.1,96,0,1,24.1,100.14,32,,NA,13.968
05-09-2023 09:00,9,5,09:00,26.1,23.1,84,36,3,24.1,100.17,36,,NA,12.85
05-09-2023 10:00,9,5,10:00,28,23,74,21,3,24.1,100.16,38,,Clear,11.726
05-09-2023 11:00,9,5,11:00,29.2,23.1,69,13,4,24.1,100.13,40,,NA,15.547
05-09-2023 12:00,9,5,12:00,30.6,22.8,62,36,2,24.1,100.09,41,,NA,14.014
05-09-2023 13:00,9,5,13:00,31.4,22,57,16,11,24.1,100.05,41,,Mainly Clear,12.872
05-09-2023 14:00,9,5,14:00,32,22.3,56,20,7,24.1,100,42,,NA,12.092
05-09-2023 15:00,9,5,15:00,30.8,22.9,62,18,5,24.1,99.95,41,,NA,12.396
05-09-2023 16:00,9,5,16:00,31.6,23,60,15,5,24.1,99.91,42,,Mainly Clear,11.04
05-09-2023 17:00,9,5,17:00,31.4,23.8,63,15,14,24.1,99.89,42,,NA,10.688
05-09-2023 18:00,9,5,18:00,28.9,23.8,74,17,10,24.1,99.88,40,,NA,10.772
05-09-2023 19:00,9,5,19:00,26.7,23.3,81,16,8,24.1,99.91,37,,Clear,10.47
05-09-2023 20:00,9,5,20:00,25.7,23.1,85,17,9,24.1,99.94,36,,NA,9.711
05-09-2023 21:00,9,5,21:00,24.9,22.7,88,18,9,24.1,99.91,35,,NA,8.33
05-09-2023 22:00,9,5,22:00,24,22.2,90,20,10,24.1,99.91,34,,Clear,8.274
05-09-2023 23:00,9,5,23:00,23.1,22,94,21,12,24.1,99.91,32,,NA,8.063
06-09-2023 00:00,9,6,00:00,21.8,21.7,100,21,9,24.1,99.93,31,,NA,8.411
06-09-2023 01:00,9,6,01:00,21.3,21.3,100,21,7,24.1,99.88,30,,Clear,8.497
06-09-2023 02:00,9,6,02:00,20.7,20.7,100,21,9,24.1,99.88,29,,NA,8.284
06-09-2023 03:00,9,6,03:00,20.5,20.5,100,24,5,24.1,99.86,28,,NA,7.968
06-09-2023 04:00,9,6,04:00,20.2,20.2,100,23,7,24.1,99.84,28,,Clear,8.282
06-09-2023 05:00,9,6,05:00,19.9,19.9,100,25,7,24.1,99.88,,,NA,8.083
06-09-2023 06:00,9,6,06:00,19,19,100,22,5,24.1,99.9,,,NA,8.158
06-09-2023 07:00,9,6,07:00,22,20.6,92,24,3,24.1,99.91,30,,Clear,14.707
06-09-2023 08:00,9,6,08:00,24.6,21.6,84,20,7,24.1,99.87,34,,NA,12.889
06-09-2023 09:00,9,6,09:00,27.1,21.6,72,18,8,24.1,99.81,36,,NA,13.184
06-09-2023 10:00,9,6,10:00,28.6,22,67,21,5,24.1,99.78,38,,Clear,13.329
06-09-2023 11:00,9,6,11:00,29.7,21.8,62,25,9,24.1,99.74,39,,NA,15.062
06-09-2023 12:00,9,6,12:00,30.9,21.5,56,21,12,24.1,99.68,40,,NA,14.38
06-09-2023 13:00,9,6,13:00,31.3,22,57,20,16,24.1,99.62,41,,Mainly Clear,14.819
06-09-2023 14:00,9,6,14:00,31.3,21.4,55,19,10,24.1,99.52,40,,NA,13.675
06-09-2023 15:00,9,6,15:00,31.1,21,54,20,9,24.1,99.44,40,,NA,14.402
06-09-2023 16:00,9,6,16:00,31.9,21.5,53,22,16,24.1,99.36,41,,Mainly Clear,12.264
06-09-2023 17:00,9,6,17:00,30.8,21.9,58,20,15,24.1,99.31,40,,NA,11.049
06-09-2023 18:00,9,6,18:00,28.7,21.9,66,20,13,24.1,99.34,38,,NA,11.139
06-09-2023 19:00,9,6,19:00,26.8,21.8,73,20,12,24.1,99.36,36,,Mainly Clear,10.979
06-09-2023 20:00,9,6,20:00,25.4,21.9,80,17,11,24.1,99.35,35,,NA,10.522
06-09-2023 21:00,9,6,21:00,24,22.6,92,17,10,24.1,99.33,34,,NA,8.571
06-09-2023 22:00,9,6,22:00,23,22.4,97,18,9,24.1,99.32,33,,Mainly Clear,9.334
06-09-2023 23:00,9,6,23:00,22.4,22.1,99,20,8,24.1,99.3,32,,NA,9.077
07-09-2023 00:00,9,7,00:00,21.9,21.5,97,17,7,24.1,99.26,31,,NA,8.972
07-09-2023 01:00,9,7,01:00,22.1,21.4,96,19,11,24.1,99.2,31,,Mainly Clear,8.66
07-09-2023 02:00,9,7,02:00,21.7,21.1,96,20,11,24.1,99.23,30,,NA,9.01
07-09-2023 03:00,9,7,03:00,22.1,21.2,94,19,9,24.1,99.21,31,,NA,8.794
07-09-2023 04:00,9,7,04:00,21.5,21.1,97,22,12,24.1,99.27,30,,Mainly Clear,8.61
07-09-2023 05:00,9,7,05:00,21.4,21.1,98,21,9,24.1,99.25,30,,NA,9.063
07-09-2023 06:00,9,7,06:00,21.4,21.3,99,21,8,24.1,99.32,30,,NA,8.938
07-09-2023 07:00,9,7,07:00,21.9,21.6,98,18,8,24.1,99.33,31,,Mostly Cloudy,14.939
07-09-2023 08:00,9,7,08:00,23.2,21.7,91,19,10,24.1,99.36,32,,NA,13.877
07-09-2023 09:00,9,7,09:00,24.2,21.4,84,23,14,24.1,99.4,33,,NA,15.013
07-09-2023 10:00,9,7,10:00,26,21,74,20,14,24.1,99.4,34,,Mostly Cloudy,13.853
07-09-2023 11:00,9,7,11:00,25.9,21.4,76,20,18,24.1,99.41,35,,NA,14.471
07-09-2023 12:00,9,7,12:00,26.4,20.6,70,19,18,24.1,99.41,34,,NA,13.451
07-09-2023 13:00,9,7,13:00,29,19.9,58,23,12,24.1,99.37,36,,Mostly Cloudy,15.461
07-09-2023 14:00,9,7,14:00,27.9,21.1,66,21,9,24.1,99.33,36,,NA,12.631
07-09-2023 15:00,9,7,15:00,29.9,18.9,51,25,21,24.1,99.25,37,,NA,11.332
07-09-2023 16:00,9,7,16:00,26.1,20.5,71,17,18,24.1,99.27,34,,Mostly Cloudy,10.95
07-09-2023 17:00,9,7,17:00,25.6,19.9,70,17,3,24.1,99.34,33,,Rain Showers,10.911
07-09-2023 18:00,9,7,18:00,23.8,22.5,92,36,3,24.1,99.34,34,,Rain Showers,10.736
07-09-2023 19:00,9,7,19:00,21.6,21,96,13,11,24.1,99.35,30,,Mostly Cloudy,10.563
07-09-2023 20:00,9,7,20:00,22.7,21.1,91,18,9,24.1,99.46,31,,NA,10.008
07-09-2023 21:00,9,7,21:00,22.3,20.8,91,21,7,24.1,99.47,31,,NA,9.522
07-09-2023 22:00,9,7,22:00,20.9,20.3,96,24,10,24.1,99.44,29,,Mostly Cloudy,9.051
07-09-2023 23:00,9,7,23:00,20.3,19.8,97,25,12,24.1,99.45,28,,NA,8.762
08-09-2023 00:00,9,8,00:00,19.5,19.5,100,25,9,24.1,99.48,,,NA,9.424
08-09-2023 01:00,9,8,01:00,19.3,19.3,100,25,8,24.1,99.48,,,Mostly Cloudy,9.101
08-09-2023 02:00,9,8,02:00,19.6,19.6,100,23,8,16.1,99.51,,,NA,8.931
08-09-2023 03:00,9,8,03:00,19.2,19.2,100,27,7,16.1,99.55,,,NA,8.707
08-09-2023 04:00,9,8,04:00,18.6,18.6,100,24,5,16.1,99.6,,,Cloudy,9.076
08-09-2023 05:00,9,8,05:00,18.2,17.4,95,32,12,24.1,99.64,,,NA,9.088
08-09-2023 06:00,9,8,06:00,17.9,17.6,98,34,10,24.1,99.69,,,NA,8.492
08-09-2023 07:00,9,8,07:00,17.1,16.7,97,32,16,24.1,99.77,,,Cloudy,15.851
08-09-2023 08:00,9,8,08:00,16.8,16.8,100,32,9,24.1,99.84,,,Rain Showers,13.971
08-09-2023 09:00,9,8,09:00,18,17.1,95,31,17,24.1,99.88,,,NA,13.528
08-09-2023 10:00,9,8,10:00,18.4,16.9,91,29,18,24.1,99.93,,,Cloudy,14.494
08-09-2023 11:00,9,8,11:00,19.2,15.2,77,30,13,24.1,99.97,,,NA,15.058
08-09-2023 12:00,9,8,12:00,19.1,15.2,78,30,15,24.1,99.98,,,NA,13.496
08-09-2023 13:00,9,8,13:00,19.2,14.6,75,28,16,24.1,100.02,,,Cloudy,15.134
08-09-2023 14:00,9,8,14:00,19.4,14.6,73,27,14,24.1,100.04,,,NA,12.457
08-09-2023 15:00,9,8,15:00,19.9,15.1,73,25,14,24.1,100.05,,,NA,11.311
08-09-2023 16:00,9,8,16:00,20.1,14.5,70,29,18,24.1,100.04,,,Mostly Cloudy,11.032
08-09-2023 17:00,9,8,17:00,18.9,13.6,71,30,17,24.1,100.1,,,NA,10.679
08-09-2023 18:00,9,8,18:00,18.4,12.9,70,29,16,24.1,100.16,,,NA,10.501
08-09-2023 19:00,9,8,19:00,17.7,12.4,71,31,19,24.1,100.24,,,Mostly Cloudy,10.914
08-09-2023 20:00,9,8,20:00,16.9,12.3,74,28,18,24.1,100.33,,,NA,10.55
08-09-2023 21:00,9,8,21:00,16.1,12.3,78,32,16,24.1,100.41,,,NA,9.447
08-09-2023 22:00,9,8,22:00,15.5,12.8,84,29,14,24.1,100.43,,,Mostly Cloudy,9.449
08-09-2023 23:00,9,8,23:00,15.1,11.7,80,30,19,24.1,100.47,,,NA,9.661
09-09-2023 00:00,9,9,00:00,14.8,11,78,30,18,24.1,100.49,,,NA,9.236
09-09-2023 01:00,9,9,01:00,13.1,10.6,85,31,16,24.1,100.53,,,Mainly Clear,8.777
09-09-2023 02:00,9,9,02:00,12.8,10.4,86,29,14,24.1,100.57,,,NA,8.957
09-09-2023 03:00,9,9,03:00,11.6,10,90,27,8,24.1,100.6,,,NA,9.066
09-09-2023 04:00,9,9,04:00,11.3,11,98,23,6,24.1,100.64,,,Mainly Clear,9.071
09-09-2023 05:00,9,9,05:00,10.7,10.5,99,26,7,24.1,100.69,,,NA,8.792
09-09-2023 06:00,9,9,06:00,9.7,9.7,100,25,7,24.1,100.73,,,NA,9.42
09-09-2023 07:00,9,9,07:00,11.6,11.5,99,28,8,24.1,100.79,,,Mainly Clear,8.925
09-09-2023 08:00,9,9,08:00,15,11.9,81,33,12,24.1,100.81,,,NA,8.77
09-09-2023 09:00,9,9,09:00,17.3,11.4,68,1,9,24.1,100.83,,,NA,8.649
09-09-2023 10:00,9,9,10:00,18.7,11.7,63,36,8,24.1,100.85,,,Mainly Clear,8.977
09-09-2023 11:00,9,9,11:00,20.1,10.7,54,33,12,24.1,100.84,,,NA,8.888
09-09-2023 12:00,9,9,12:00,21,11.6,54,34,7,24.1,100.81,,,NA,8.439
09-09-2023 13:00,9,9,13:00,21.7,11,50,21,8,24.1,100.79,,,Mostly Cloudy,9.195
09-09-2023 14:00,9,9,14:00,21.5,11.3,52,18,6,24.1,100.76,,,NA,9.011
09-09-2023 15:00,9,9,15:00,21.8,10.4,48,25,9,24.1,100.72,,,NA,8.793
09-09-2023 16:00,9,9,16:00,22.2,11.4,50,21,8,24.1,100.68,,,Mostly Cloudy,9.018
09-09-2023 17:00,9,9,17:00,22.3,11.1,49,36,2,24.1,100.65,,,NA,8.97
09-09-2023 18:00,9,9,18:00,19.3,10.8,58,32,12,24.1,100.68,,,NA,8.693
09-09-2023 19:00,9,9,19:00,17.4,10.4,63,3,5,24.1,100.71,,,Mostly Cloudy,9.043
09-09-2023 20:00,9,9,20:00,17.4,10.9,65,2,10,24.1,100.75,,,NA,9.138
09-09-2023 21:00,9,9,21:00,16.3,11.7,74,6,8,24.1,100.76,,,NA,8.849
09-09-2023 22:00,9,9,22:00,17.2,11.2,67,5,9,24.1,100.74,,,Mostly Cloudy,8.688
09-09-2023 23:00,9,9,23:00,16.7,12,74,3,8,24.1,100.72,,,NA,9.282
10-09-2023 00:00,9,10,00:00,16.4,12.7,79,4,10,24.1,100.67,,,NA,9.181
10-09-2023 01:00,9,10,01:00,15.8,12.6,81,6,13,24.1,100.69,,,Rain Showers,9.098
10-09-2023 02:00,9,10,02:00,15.2,13.6,90,4,10,24.1,100.6,,,Rain Showers,9.015
10-09-2023 03:00,9,10,03:00,14.9,13.8,93,1,9,24.1,100.6,,,NA,8.637
10-09-2023 04:00,9,10,04:00,15.2,13.3,88,6,13,24.1,100.6,,,Cloudy,9.401
10-09-2023 05:00,9,10,05:00,14.8,13.7,93,4,10,24.1,100.63,,,NA,9.262
10-09-2023 06:00,9,10,06:00,14.9,13.9,94,3,12,24.1,100.63,,,NA,9.027
10-09-2023 07:00,9,10,07:00,15.8,14.5,92,4,13,24.1,100.67,,,Mostly Cloudy,8.667
10-09-2023 08:00,9,10,08:00,16.1,14.9,93,4,16,24.1,100.68,,,NA,9.236
10-09-2023 09:00,9,10,09:00,17.2,15,87,7,16,24.1,100.71,,,NA,8.978
10-09-2023 10:00,9,10,10:00,17.8,15.3,85,6,14,24.1,100.73,,,Cloudy,8.948
10-09-2023 11:00,9,10,11:00,18.2,14.6,79,5,12,24.1,100.75,,,NA,8.919
10-09-2023 12:00,9,10,12:00,19.6,15.2,75,6,9,24.1,100.7,,,NA,8.58
10-09-2023 13:00,9,10,13:00,19.4,14.5,73,7,10,24.1,100.66,,,Mostly Cloudy,8.907
10-09-2023 14:00,9,10,14:00,19.9,15,73,10,16,24.1,100.62,,,NA,8.98
10-09-2023 15:00,9,10,15:00,21.1,14.5,66,6,10,24.1,100.58,25,,NA,8.841
10-09-2023 16:00,9,10,16:00,20.4,13.9,66,11,13,24.1,100.55,,,Mostly Cloudy,9.006
10-09-2023 17:00,9,10,17:00,20.1,14.5,70,13,13,24.1,100.56,,,NA,8.353
10-09-2023 18:00,9,10,18:00,18.2,14.9,81,14,10,24.1,100.59,,,NA,9.029
10-09-2023 19:00,9,10,19:00,15.9,14.7,92,16,4,24.1,100.64,,,Mostly Cloudy,8.976
10-09-2023 20:00,9,10,20:00,15.3,14.8,97,12,8,24.1,100.65,,,NA,8.912
10-09-2023 21:00,9,10,21:00,15,15,100,11,5,24.1,100.62,,,NA,8.527
10-09-2023 22:00,9,10,22:00,13.3,13.3,100,11,4,24.1,100.63,,,Clear,9.395
10-09-2023 23:00,9,10,23:00,14.2,14.2,100,8,3,24.1,100.63,,,NA,9.085
11-09-2023 00:00,9,11,00:00,13.4,13.4,100,6,4,24.1,100.61,,,NA,9.072
11-09-2023 01:00,9,11,01:00,13.5,13.5,100,4,6,24.1,100.6,,,Mainly Clear,8.589
11-09-2023 02:00,9,11,02:00,12.6,12.6,100,2,5,24.1,100.58,,,NA,9.363
11-09-2023 03:00,9,11,03:00,12.9,12.9,100,4,5,24.1,100.58,,,NA,9.097
11-09-2023 04:00,9,11,04:00,12.4,12.4,100,3,8,9.7,100.58,,,Fog,9.2
11-09-2023 05:00,9,11,05:00,12.6,12.6,100,2,5,1.2,100.57,,,Fog,8.752
11-09-2023 06:00,9,11,06:00,13.4,13.4,100,5,5,0.2,100.6,,,Fog,9.172
11-09-2023 07:00,9,11,07:00,14.1,14.1,100,4,4,0.4,100.64,,,Fog,15.747
11-09-2023 08:00,9,11,08:00,15.6,15.6,100,6,9,16.1,100.64,,,NA,13.919
11-09-2023 09:00,9,11,09:00,17.6,14.8,83,5,6,24.1,100.66,,,NA,15.042
11-09-2023 10:00,9,11,10:00,20.3,14.7,70,3,11,24.1,100.64,,,Mostly Cloudy,13.909
11-09-2023 11:00,9,11,11:00,20.9,14.5,67,1,4,24.1,100.57,25,,NA,15.03
11-09-2023 12:00,9,11,12:00,22.4,14.4,60,16,3,24.1,100.56,26,,NA,14.463
11-09-2023 13:00,9,11,13:00,23.9,14.5,55,6,13,24.1,100.55,28,,Mostly Cloudy,14.362
11-09-2023 14:00,9,11,14:00,23.9,12.8,49,6,14,24.1,100.49,27,,NA,14.14
11-09-2023 15:00,9,11,15:00,23.6,11.8,47,8,10,24.1,100.45,26,,NA,11.5
11-09-2023 16:00,9,11,16:00,23.8,12,47,10,9,24.1,100.44,26,,Mainly Clear,10.814
11-09-2023 17:00,9,11,17:00,22,12.7,55,9,10,24.1,100.45,25,,NA,10.815
11-09-2023 18:00,9,11,18:00,19.9,14.3,70,13,8,24.1,100.44,,,NA,10.581
11-09-2023 19:00,9,11,19:00,17.7,13.8,78,14,7,24.1,100.43,,,Mostly Cloudy,11.013
11-09-2023 20:00,9,11,20:00,17.7,13.4,76,16,4,24.1,100.44,,,NA,10.228
11-09-2023 21:00,9,11,21:00,15.9,13.6,86,15,7,24.1,100.45,,,NA,9.314
11-09-2023 22:00,9,11,22:00,15.8,14.5,92,36,1,24.1,100.45,,,Mainly Clear,9.032
11-09-2023 23:00,9,11,23:00,14.2,13.8,97,5,4,24.1,100.45,,,NA,8.973
12-09-2023 00:00,9,12,00:00,14.7,14.3,98,6,7,24.1,100.36,,,NA,8.929
12-09-2023 01:00,9,12,01:00,14.2,13.8,97,6,8,24.1,100.33,,,Mainly Clear,8.892
12-09-2023 02:00,9,12,02:00,13.6,13.6,100,6,7,24.1,100.31,,,NA,9.143
12-09-2023 03:00,9,12,03:00,13,13,100,4,9,24.1,100.29,,,NA,9.21
12-09-2023 04:00,9,12,04:00,12.9,12.9,100,5,11,24.1,100.27,,,Clear,8.962
12-09-2023 05:00,9,12,05:00,13.7,13.7,100,7,13,24.1,100.26,,,NA,8.672
12-09-2023 06:00,9,12,06:00,13.8,13.8,100,7,13,24.1,100.28,,,NA,9.004
12-09-2023 07:00,9,12,07:00,14.3,14.3,100,8,12,4.8,100.27,,,Fog,16.572
12-09-2023 08:00,9,12,08:00,15.5,15.5,100,8,15,4.8,100.25,,,Fog,13.514
12-09-2023 09:00,9,12,09:00,16.6,15.6,94,12,12,16.1,100.27,,,NA,13.207
12-09-2023 10:00,9,12,10:00,17.8,15.3,85,13,15,24.1,100.21,,,Cloudy,15.006
12-09-2023 11:00,9,12,11:00,18.3,15.6,84,11,9,24.1,100.15,,,NA,15.045
12-09-2023 12:00,9,12,12:00,19.3,15.9,80,13,16,24.1,100.1,,,NA,14.382
12-09-2023 13:00,9,12,13:00,19.1,15.9,82,13,14,24.1,100.05,,,Cloudy,14.569
12-09-2023 14:00,9,12,14:00,19.3,16.1,81,15,12,24.1,100.02,,,NA,12.019
12-09-2023 15:00,9,12,15:00,19.2,16.4,83,13,9,24.1,99.96,,,Rain,12.801
12-09-2023 16:00,9,12,16:00,19,16.7,86,10,12,24.1,99.93,,,Rain,11.112
12-09-2023 17:00,9,12,17:00,19.2,16.7,85,9,11,24.1,99.91,,,Rain,11.449
12-09-2023 18:00,9,12,18:00,18.4,17.7,95,11,10,8.1,99.86,,,"Rain,Fog",10.352
12-09-2023 19:00,9,12,19:00,18.4,17.9,97,12,11,16.1,99.87,,,Rain,10.73
12-09-2023 20:00,9,12,20:00,18.6,18,96,16,14,24.1,99.88,,,NA,10.321
12-09-2023 21:00,9,12,21:00,19.1,17.4,90,17,12,24.1,99.85,,,NA,8.845
12-09-2023 22:00,9,12,22:00,19.2,17.3,88,19,17,24.1,99.86,,,Cloudy,8.969
12-09-2023 23:00,9,12,23:00,18.8,17.5,92,19,10,24.1,99.86,,,NA,8.899
13-09-2023 00:00,9,13,00:00,18.4,17.8,97,19,11,24.1,99.88,,,NA,8.909
13-09-2023 01:00,9,13,01:00,17.9,17.9,100,20,7,24.1,99.85,,,Cloudy,8.848
13-09-2023 02:00,9,13,02:00,18,18,100,19,6,24.1,99.86,,,NA,9.418
13-09-2023 03:00,9,13,03:00,17.7,17.7,100,18,9,24.1,99.86,,,NA,8.966
13-09-2023 04:00,9,13,04:00,17.1,17.1,100,22,7,24.1,99.87,,,Cloudy,9.109
13-09-2023 05:00,9,13,05:00,16.3,16.3,100,23,8,24.1,99.87,,,NA,8.676
13-09-2023 06:00,9,13,06:00,14.6,14.6,100,24,8,24.1,99.91,,,NA,8.963
13-09-2023 07:00,9,13,07:00,15.4,15.4,100,22,8,24.1,99.96,,,Mainly Clear,15.934
13-09-2023 08:00,9,13,08:00,17.3,15.3,88,24,10,24.1,99.94,,,NA,14.352
13-09-2023 09:00,9,13,09:00,18.9,14.4,75,24,13,24.1,99.95,,,NA,15.214
13-09-2023 10:00,9,13,10:00,21,13.5,62,20,19,24.1,99.94,,,Mostly Cloudy,13.498
13-09-2023 11:00,9,13,11:00,20.1,12.8,63,25,19,24.1,99.95,,,NA,15.305
13-09-2023 12:00,9,13,12:00,20.2,11.7,57,22,21,24.1,99.91,,,NA,14.358
13-09-2023 13:00,9,13,13:00,20.3,11.5,57,24,19,24.1,99.9,,,Mostly Cloudy,14.181
13-09-2023 14:00,9,13,14:00,20.9,11.2,54,24,16,24.1,99.88,,,NA,12.736
13-09-2023 15:00,9,13,15:00,19.6,10.3,55,23,23,24.1,99.89,,,NA,11.38
13-09-2023 16:00,9,13,16:00,20.1,10.3,53,22,12,24.1,99.87,,,Mainly Clear,11.668
13-09-2023 17:00,9,13,17:00,18.5,10.5,59,24,19,24.1,99.89,,,NA,10.865
13-09-2023 18:00,9,13,18:00,18,11.3,65,24,14,24.1,99.92,,,NA,10.536
13-09-2023 19:00,9,13,19:00,17.2,11.9,71,23,13,24.1,99.97,,,Mostly Cloudy,10.397
13-09-2023 20:00,9,13,20:00,16.5,8.3,58,28,20,24.1,100.04,,,NA,10.366
13-09-2023 21:00,9,13,21:00,15.2,8.6,64,27,17,24.1,100.09,,,NA,9.152
13-09-2023 22:00,9,13,22:00,14,9.2,73,27,11,24.1,100.1,,,Mostly Cloudy,8.652
13-09-2023 23:00,9,13,23:00,11.7,9.1,84,25,12,24.1,100.12,,,NA,8.995
14-09-2023 00:00,9,14,00:00,11.4,8.8,84,24,9,24.1,100.14,,,NA,9.056
14-09-2023 01:00,9,14,01:00,10.3,8.7,89,24,10,24.1,100.18,,,Mainly Clear,8.763
14-09-2023 02:00,9,14,02:00,9.8,8.6,92,21,7,24.1,100.17,,,NA,8.889
14-09-2023 03:00,9,14,03:00,10.5,9.6,94,25,12,24.1,100.18,,,NA,9.231
14-09-2023 04:00,9,14,04:00,10.9,9.7,92,26,14,24.1,100.22,,,Mostly Cloudy,9.136
14-09-2023 05:00,9,14,05:00,11.4,9.4,88,25,15,24.1,100.24,,,NA,8.875
14-09-2023 06:00,9,14,06:00,11.4,9.7,89,24,14,24.1,100.32,,,NA,9
14-09-2023 07:00,9,14,07:00,12.2,10,87,25,13,24.1,100.38,,,Mostly Cloudy,13.412
14-09-2023 08:00,9,14,08:00,13.1,9.6,79,25,22,24.1,100.41,,,NA,15.59
14-09-2023 09:00,9,14,09:00,14,9.2,73,26,21,24.1,100.48,,,NA,13.274
14-09-2023 10:00,9,14,10:00,14.1,7.9,66,28,19,24.1,100.51,,,Mostly Cloudy,14.476
14-09-2023 11:00,9,14,11:00,13.4,7.9,69,28,22,24.1,100.54,,,NA,16.187
14-09-2023 12:00,9,14,12:00,13.5,8.5,71,28,23,24.1,100.56,,,NA,14.787
14-09-2023 13:00,9,14,13:00,15.2,8.3,63,29,24,24.1,100.55,,,Mostly Cloudy,13.419
14-09-2023 14:00,9,14,14:00,15.4,8,61,29,23,24.1,100.56,,,NA,14.961
14-09-2023 15:00,9,14,15:00,15.2,7.8,61,29,13,24.1,100.6,,,NA,15.266
14-09-2023 16:00,9,14,16:00,15.4,8.5,63,24,11,24.1,100.63,,,Cloudy,14.068
14-09-2023 17:00,9,14,17:00,15.5,8.8,64,26,5,24.1,100.64,,,NA,12.042
14-09-2023 18:00,9,14,18:00,15.6,8.3,61,33,6,24.1,100.67,,,NA,11.096
14-09-2023 19:00,9,14,19:00,12,9.9,87,17,6,24.1,100.71,,,Mostly Cloudy,11.361
14-09-2023 20:00,9,14,20:00,10.3,10.2,99,19,7,24.1,100.76,,,NA,11.856
14-09-2023 21:00,9,14,21:00,11.7,9.2,85,19,8,24.1,100.79,,,NA,9.024
14-09-2023 22:00,9,14,22:00,10,9,93,19,5,24.1,100.81,,,Clear,8.678
14-09-2023 23:00,9,14,23:00,10,9.7,98,20,9,24.1,100.85,,,NA,9.051
15-09-2023 00:00,9,15,00:00,7.8,7.8,100,21,7,24.1,100.85,,,NA,8.759
15-09-2023 01:00,9,15,01:00,8.2,8.1,100,27,5,24.1,100.85,,,Clear,9.112
15-09-2023 02:00,9,15,02:00,8.6,8.6,100,27,8,24.1,100.87,,,NA,8.54
15-09-2023 03:00,9,15,03:00,8,8,100,30,7,24.1,100.87,,,NA,8.915
15-09-2023 04:00,9,15,04:00,7.5,7.5,100,27,6,24.1,100.91,,,Clear,8.929
15-09-2023 05:00,9,15,05:00,8.4,8.4,100,24,4,2.4,100.94,,,Fog,8.253
15-09-2023 06:00,9,15,06:00,9.3,9.3,100,29,8,0.4,100.97,,,Fog,9.169
15-09-2023 07:00,9,15,07:00,9.8,9.8,100,30,7,0.6,100.99,,,Fog,16.134
15-09-2023 08:00,9,15,08:00,12.4,12.4,100,32,8,24.1,100.97,,,NA,13.404
15-09-2023 09:00,9,15,09:00,15.9,9.4,65,34,9,24.1,100.98,,,NA,14.119
15-09-2023 10:00,9,15,10:00,18.9,9.4,54,3,7,24.1,100.98,,,Clear,15.127
15-09-2023 11:00,9,15,11:00,19.2,5.8,41,9,6,24.1,100.96,,,NA,15.077
15-09-2023 12:00,9,15,12:00,20.4,5.5,37,6,9,24.1,100.89,,,NA,14.368
15-09-2023 13:00,9,15,13:00,21,5.3,36,33,8,24.1,100.83,,,Clear,13.527
15-09-2023 14:00,9,15,14:00,21.2,6.3,38,28,10,24.1,100.77,,,NA,13.543
15-09-2023 15:00,9,15,15:00,21,4.9,34,23,5,24.1,100.73,,,NA,11.485
15-09-2023 16:00,9,15,16:00,21.1,5.8,37,33,9,24.1,100.69,,,Clear,11.475
15-09-2023 17:00,9,15,17:00,20.3,6.9,41,25,7,24.1,100.64,,,NA,11.032
15-09-2023 18:00,9,15,18:00,17.4,7.2,51,29,8,24.1,100.63,,,NA,10.76
15-09-2023 19:00,9,15,19:00,16,7.3,56,29,10,24.1,100.62,,,Mainly Clear,10.809
15-09-2023 20:00,9,15,20:00,13.8,7.1,64,31,5,24.1,100.63,,,NA,10.996
15-09-2023 21:00,9,15,21:00,12.8,7.7,71,5,4,24.1,100.61,,,NA,9.255
15-09-2023 22:00,9,15,22:00,12.6,7.9,73,33,7,24.1,100.59,,,Mainly Clear,9.481
15-09-2023 23:00,9,15,23:00,12.8,8,72,36,1,24.1,100.58,,,NA,9.309
16-09-2023 00:00,9,16,00:00,12.7,8.5,76,2,8,24.1,100.52,,,NA,8.815
16-09-2023 01:00,9,16,01:00,9.2,7.5,89,3,8,24.1,100.48,,,Mainly Clear,8.795
16-09-2023 02:00,9,16,02:00,10.3,9.3,93,30,5,24.1,100.44,,,NA,8.64
16-09-2023 03:00,9,16,03:00,9.6,9,96,31,5,24.1,100.44,,,NA,8.685
16-09-2023 04:00,9,16,04:00,9.1,8.9,99,31,10,24.1,100.44,,,Mostly Cloudy,8.813
16-09-2023 05:00,9,16,05:00,7.9,7.9,100,33,8,24.1,100.41,,,NA,8.601
16-09-2023 06:00,9,16,06:00,9.1,8.8,98,30,12,24.1,100.4,,,NA,8.728
16-09-2023 07:00,9,16,07:00,10.1,10.1,100,30,13,24.1,100.4,,,Mostly Cloudy,8.297
16-09-2023 08:00,9,16,08:00,12,10.9,93,30,14,24.1,100.37,,,NA,8.571
16-09-2023 09:00,9,16,09:00,15.6,10.5,71,31,12,24.1,100.34,,,NA,8.554
16-09-2023 10:00,9,16,10:00,18.5,9.6,56,35,15,24.1,100.3,,,Mostly Cloudy,8.564
16-09-2023 11:00,9,16,11:00,20.1,10.3,53,32,17,24.1,100.25,,,NA,8.6
16-09-2023 12:00,9,16,12:00,21.2,9.6,47,33,16,24.1,100.16,,,NA,8.451
16-09-2023 13:00,9,16,13:00,21.8,9.5,45,28,13,24.1,100.08,,,Mostly Cloudy,8.574
16-09-2023 14:00,9,16,14:00,22.5,8.6,40,29,22,24.1,100.03,,,NA,8.531
16-09-2023 15:00,9,16,15:00,22.7,9.2,42,28,20,24.1,99.97,,,NA,8.573
16-09-2023 16:00,9,16,16:00,22.6,10.2,45,27,15,24.1,99.96,,,Mainly Clear,8.776
16-09-2023 17:00,9,16,17:00,21.3,10.1,48,27,17,24.1,99.93,,,NA,8.417
16-09-2023 18:00,9,16,18:00,17.9,9.9,59,26,12,24.1,99.92,,,NA,8.207
16-09-2023 19:00,9,16,19:00,16.8,9.6,62,28,14,24.1,99.92,,,Clear,8.55
16-09-2023 20:00,9,16,20:00,14.4,9.1,70,28,12,24.1,99.92,,,NA,8.391
16-09-2023 21:00,9,16,21:00,13.3,9.2,76,26,12,24.1,99.89,,,NA,8.118
16-09-2023 22:00,9,16,22:00,12.5,8.8,78,25,9,24.1,99.89,,,Mainly Clear,8.308
16-09-2023 23:00,9,16,23:00,11.4,9.5,88,26,8,24.1,99.87,,,NA,7.944
17-09-2023 00:00,9,17,00:00,12.1,9.6,84,25,7,24.1,99.85,,,NA,8.504
17-09-2023 01:00,9,17,01:00,11.2,9.8,91,25,6,24.1,99.84,,,Clear,8.454
17-09-2023 02:00,9,17,02:00,10.5,9.6,94,29,5,24.1,99.8,,,NA,8.62
17-09-2023 03:00,9,17,03:00,9.9,9.9,100,27,13,24.1,99.82,,,NA,8.59
17-09-2023 04:00,9,17,04:00,11.7,11.4,99,28,14,24.1,99.87,,,Mainly Clear,8.655
17-09-2023 05:00,9,17,05:00,12.8,12.2,97,29,10,24.1,99.88,,,NA,8.457
17-09-2023 06:00,9,17,06:00,13,12.5,97,29,10,24.1,99.92,,,NA,8.676
17-09-2023 07:00,9,17,07:00,13.5,12.8,95,28,9,24.1,99.94,,,Mostly Cloudy,8.473
17-09-2023 08:00,9,17,08:00,15,13,87,30,10,24.1,99.95,,,NA,8.568
17-09-2023 09:00,9,17,09:00,17.1,12.8,76,28,7,24.1,99.95,,,NA,8.617
17-09-2023 10:00,9,17,10:00,18,13.3,74,26,8,24.1,99.94,,,Mostly Cloudy,8.362
17-09-2023 11:00,9,17,11:00,20.2,13.4,64,21,5,24.1,99.93,,,NA,8.841
17-09-2023 12:00,9,17,12:00,22.3,12.9,55,26,9,24.1,99.87,25,,NA,8.508
17-09-2023 13:00,9,17,13:00,23.7,11.8,47,23,10,24.1,99.84,26,,Mostly Cloudy,8.592
17-09-2023 14:00,9,17,14:00,22.7,11.4,49,18,10,24.1,99.81,25,,NA,8.489
17-09-2023 15:00,9,17,15:00,22.4,12.4,53,25,8,24.1,99.76,25,,NA,8.356
17-09-2023 16:00,9,17,16:00,23.8,12,47,27,16,24.1,99.76,26,,Mostly Cloudy,8.991
17-09-2023 17:00,9,17,17:00,22.2,11.8,51,19,6,24.1,99.75,,,NA,8.108
17-09-2023 18:00,9,17,18:00,20.2,13.5,65,17,10,24.1,99.77,,,NA,8.366
17-09-2023 19:00,9,17,19:00,18.2,13.2,72,18,7,24.1,99.8,,,Mostly Cloudy,8.597
17-09-2023 20:00,9,17,20:00,17.4,12.9,75,19,8,24.1,99.82,,,NA,8.269
17-09-2023 21:00,9,17,21:00,17.6,12.7,73,24,9,24.1,99.8,,,NA,8.614
17-09-2023 22:00,9,17,22:00,17.1,12.7,75,20,8,24.1,99.77,,,Mostly Cloudy,8.618
17-09-2023 23:00,9,17,23:00,16.1,12.9,81,20,5,24.1,99.73,,,NA,8.326
18-09-2023 00:00,9,18,00:00,15.2,12.7,85,26,5,24.1,99.68,,,NA,8.768
18-09-2023 01:00,9,18,01:00,14.3,13,91,21,8,24.1,99.71,,,Mostly Cloudy,8.821
18-09-2023 02:00,9,18,02:00,14.1,13.3,95,36,1,24.1,99.68,,,NA,8.546
18-09-2023 03:00,9,18,03:00,14.8,13.6,93,28,4,24.1,99.66,,,NA,8.723
18-09-2023 04:00,9,18,04:00,13.1,13,100,12,3,24.1,99.62,,,Mostly Cloudy,9.039
18-09-2023 05:00,9,18,05:00,12.9,12.9,100,22,4,24.1,99.64,,,NA,8.672
18-09-2023 06:00,9,18,06:00,10.8,10.8,100,14,4,24.1,99.64,,,NA,8.39
18-09-2023 07:00,9,18,07:00,13.4,13.4,100,24,5,24.1,99.69,,,Mostly Cloudy,15.933
18-09-2023 08:00,9,18,08:00,16.5,14.6,89,33,8,24.1,99.7,,,NA,13.771
18-09-2023 09:00,9,18,09:00,18.2,14.2,77,33,5,24.1,99.71,,,NA,14.069
18-09-2023 10:00,9,18,10:00,19.6,14.5,72,1,4,24.1,99.68,,,Mostly Cloudy,14.086
18-09-2023 11:00,9,18,11:00,20.2,14.3,68,27,10,24.1,99.66,,,NA,15.143
18-09-2023 12:00,9,18,12:00,20.4,14,66,31,9,24.1,99.63,,,NA,13.916
18-09-2023 13:00,9,18,13:00,20.1,14,67,36,4,24.1,99.58,,,Rain Showers,13.243
18-09-2023 14:00,9,18,14:00,21.2,13.5,61,36,9,24.1,99.54,,,Rain Showers,13.577
18-09-2023 15:00,9,18,15:00,20.3,14.1,67,35,10,24.1,99.51,,,NA,11.645
18-09-2023 16:00,9,18,16:00,19.9,13.9,68,1,12,24.1,99.51,,,Mostly Cloudy,12.713
18-09-2023 17:00,9,18,17:00,19.5,13.6,69,34,11,24.1,99.54,,,NA,11.553
18-09-2023 18:00,9,18,18:00,16.7,13.8,83,27,20,24.1,99.56,,,NA,11.146
18-09-2023 19:00,9,18,19:00,15.5,15,97,34,17,12.9,99.65,,,Moderate Rain Showers,12.312
18-09-2023 20:00,9,18,20:00,15.1,15.1,100,31,8,12.9,99.66,,,Rain,9.989
18-09-2023 21:00,9,18,21:00,15,15,100,34,13,16.1,99.62,,,Rain,8.736
18-09-2023 22:00,9,18,22:00,14.9,14.9,100,30,11,11.3,99.61,,,Rain,8.93
18-09-2023 23:00,9,18,23:00,14.8,14.8,100,32,14,12.9,99.59,,,Rain,8.875
19-09-2023 00:00,9,19,00:00,14.6,14.6,100,30,15,12.9,99.59,,,Rain,8.841
19-09-2023 01:00,9,19,01:00,14.3,14.3,100,28,16,12.9,99.58,,,Drizzle,8.777
19-09-2023 02:00,9,19,02:00,14.3,14.3,100,29,14,12.9,99.55,,,NA,9.149
19-09-2023 03:00,9,19,03:00,14.4,14.4,100,29,14,6.4,99.54,,,"Moderate Rain,Fog",8.99
19-09-2023 04:00,9,19,04:00,14.2,14.2,100,30,18,3.2,99.56,,,"Moderate Rain,Fog",8.745
19-09-2023 05:00,9,19,05:00,14,14,100,30,19,6.4,99.59,,,"Rain,Fog",8.927
19-09-2023 06:00,9,19,06:00,13.9,13.7,99,30,21,24.1,99.66,,,Rain,8.792
19-09-2023 07:00,9,19,07:00,13.8,13.4,97,30,21,24.1,99.73,,,Rain,15.627
19-09-2023 08:00,9,19,08:00,14,13.6,97,29,18,24.1,99.75,,,Rain,13.671
19-09-2023 09:00,9,19,09:00,14.2,12.4,89,29,23,24.1,99.79,,,NA,16.286
19-09-2023 10:00,9,19,10:00,15.2,12.3,83,29,22,24.1,99.82,,,Mostly Cloudy,14.245
19-09-2023 11:00,9,19,11:00,15.5,10.9,74,30,24,24.1,99.88,,,NA,15.007
19-09-2023 12:00,9,19,12:00,16.4,11.4,72,30,25,24.1,99.88,,,NA,13.528
19-09-2023 13:00,9,19,13:00,17.9,10.8,63,30,29,24.1,99.9,,,Mostly Cloudy,14.086
19-09-2023 14:00,9,19,14:00,19,10.6,58,32,25,24.1,99.94,,,NA,12.351
19-09-2023 15:00,9,19,15:00,18.3,10,58,31,26,24.1,99.97,,,NA,12.807
19-09-2023 16:00,9,19,16:00,18.4,9.9,57,28,22,24.1,100.02,,,Mostly Cloudy,11.621
19-09-2023 17:00,9,19,17:00,17.9,9.6,58,29,21,24.1,100.07,,,NA,12.119
19-09-2023 18:00,9,19,18:00,16.1,9.1,63,27,18,24.1,100.14,,,NA,11.678
19-09-2023 19:00,9,19,19:00,14.2,8.6,68,27,13,24.1,100.2,,,Clear,11.447
19-09-2023 20:00,9,19,20:00,12.3,8.4,77,26,13,24.1,100.28,,,NA,10.511
19-09-2023 21:00,9,19,21:00,12,8.2,77,27,16,24.1,100.3,,,NA,8.613
19-09-2023 22:00,9,19,22:00,11.7,7.8,77,28,14,24.1,100.37,,,Clear,8.859
19-09-2023 23:00,9,19,23:00,11.6,8.1,79,29,12,24.1,100.41,,,NA,8.751
20-09-2023 00:00,9,20,00:00,8.9,7.7,91,27,9,24.1,100.44,,,NA,8.79
20-09-2023 01:00,9,20,01:00,8.8,7.4,91,27,13,24.1,100.47,,,Clear,8.911
20-09-2023 02:00,9,20,02:00,7.1,6.3,95,27,10,24.1,100.48,,,NA,8.351
20-09-2023 03:00,9,20,03:00,6.6,5.8,95,29,10,24.1,100.5,,,NA,9.055
20-09-2023 04:00,9,20,04:00,7.3,7.1,98,28,14,24.1,100.55,,,Clear,9.068
20-09-2023 05:00,9,20,05:00,7.1,7,99,28,13,24.1,100.57,,,NA,8.868
20-09-2023 06:00,9,20,06:00,7.2,7.1,99,28,14,24.1,100.63,,,NA,8.701
20-09-2023 07:00,9,20,07:00,8.4,7.9,97,27,13,24.1,100.68,,,Clear,16.12
20-09-2023 08:00,9,20,08:00,10,7.6,85,29,11,24.1,100.7,,,NA,14.543
20-09-2023 09:00,9,20,09:00,12,7.9,76,29,8,24.1,100.75,,,NA,15.51
20-09-2023 10:00,9,20,10:00,13.9,8.1,68,26,7,24.1,100.78,,,Mainly Clear,15.495
20-09-2023 11:00,9,20,11:00,16.4,8.2,58,28,11,24.1,100.77,,,NA,15.683
20-09-2023 12:00,9,20,12:00,16.6,6.5,51,28,10,24.1,100.76,,,NA,14.674
20-09-2023 13:00,9,20,13:00,18,7,48,35,9,24.1,100.76,,,Mainly Clear,14.882
20-09-2023 14:00,9,20,14:00,18.4,6.4,45,30,14,24.1,100.73,,,NA,13.337
20-09-2023 15:00,9,20,15:00,17.9,6.2,46,25,13,24.1,100.73,,,NA,13.468
20-09-2023 16:00,9,20,16:00,17.3,6.8,50,25,9,24.1,100.72,,,Mainly Clear,13.341
20-09-2023 17:00,9,20,17:00,17.3,7.1,51,25,8,24.1,100.7,,,NA,13.078
20-09-2023 18:00,9,20,18:00,15,7.7,62,25,8,24.1,100.73,,,NA,11.431
20-09-2023 19:00,9,20,19:00,13,7.8,70,30,3,24.1,100.78,,,Clear,11.126
20-09-2023 20:00,9,20,20:00,11.6,7.4,76,30,4,24.1,100.88,,,NA,11.689
20-09-2023 21:00,9,20,21:00,11.1,7.6,79,24,7,24.1,100.92,,,NA,8.728
20-09-2023 22:00,9,20,22:00,9.5,8.4,93,36,2,24.1,100.93,,,Mainly Clear,8.463
20-09-2023 23:00,9,20,23:00,10,7.3,83,32,4,24.1,100.97,,,NA,9.098
21-09-2023 00:00,9,21,00:00,9.3,8.5,94,24,7,24.1,101.01,,,NA,8.829
21-09-2023 01:00,9,21,01:00,8.6,8.4,98,25,4,24.1,101.02,,,Clear,8.739
21-09-2023 02:00,9,21,02:00,6.5,6.5,100,30,5,24.1,101.06,,,NA,8.81
21-09-2023 03:00,9,21,03:00,7.8,7.8,100,29,5,24.1,101.09,,,NA,8.937
21-09-2023 04:00,9,21,04:00,7.8,7.8,100,30,5,24.1,101.12,,,Clear,8.891
21-09-2023 05:00,9,21,05:00,6.7,6.7,100,25,9,24.1,101.16,,,NA,8.76
21-09-2023 06:00,9,21,06:00,6.5,6.5,100,28,6,24.1,101.23,,,NA,9.047
21-09-2023 07:00,9,21,07:00,9.2,9.2,100,30,7,24.1,101.27,,,Clear,16.174
21-09-2023 08:00,9,21,08:00,11.8,10.7,93,29,6,24.1,101.31,,,NA,14.403
21-09-2023 09:00,9,21,09:00,15.1,9.4,68,34,8,24.1,101.35,,,NA,15.996
21-09-2023 10:00,9,21,10:00,17.5,9.2,58,1,6,24.1,101.37,,,Clear,15.263
21-09-2023 11:00,9,21,11:00,19.1,9.2,52,33,7,24.1,101.36,,,NA,15.114
21-09-2023 12:00,9,21,12:00,19.5,6.8,43,9,6,24.1,101.35,,,NA,14.196
21-09-2023 13:00,9,21,13:00,20.9,7.8,42,28,3,24.1,101.31,,,Clear,13.355
21-09-2023 14:00,9,21,14:00,20.6,7.5,42,13,5,24.1,101.28,,,NA,13.467
21-09-2023 15:00,9,21,15:00,21,7.6,42,19,3,24.1,101.22,,,NA,13.485
21-09-2023 16:00,9,21,16:00,20.8,7,40,36,2,24.1,101.21,,,Clear,11.786
21-09-2023 17:00,9,21,17:00,20.1,8.1,45,36,2,24.1,101.24,,,NA,11.512
21-09-2023 18:00,9,21,18:00,17.4,9.2,58,20,3,24.1,101.27,,,NA,12.477
21-09-2023 19:00,9,21,19:00,14.2,9.3,73,15,6,24.1,101.31,,,Clear,11.371
21-09-2023 20:00,9,21,20:00,12.9,8.1,72,16,4,24.1,101.34,,,NA,9.973
21-09-2023 21:00,9,21,21:00,13.2,8.6,74,19,5,24.1,101.33,,,NA,9.023
21-09-2023 22:00,9,21,22:00,10.5,8.2,86,18,5,24.1,101.33,,,Clear,8.78
21-09-2023 23:00,9,21,23:00,9.7,8.7,93,19,5,24.1,101.34,,,NA,9.262
22-09-2023 00:00,9,22,00:00,10.5,8.4,87,36,1,24.1,101.37,,,NA,8.989
22-09-2023 01:00,9,22,01:00,8.2,7.6,96,4,8,24.1,101.39,,,Clear,8.814
22-09-2023 02:00,9,22,02:00,8.5,8.5,100,7,6,24.1,101.41,,,NA,9.18
22-09-2023 03:00,9,22,03:00,7.7,7.7,100,7,4,24.1,101.42,,,NA,8.713
22-09-2023 04:00,9,22,04:00,7.4,7.4,100,4,7,24.1,101.46,,,Clear,8.867
22-09-2023 05:00,9,22,05:00,5.7,5.6,99,9,4,24.1,101.52,,,NA,8.706
22-09-2023 06:00,9,22,06:00,7.5,7.5,100,6,5,24.1,101.58,,,NA,8.631
22-09-2023 07:00,9,22,07:00,8.9,8.9,100,6,7,24.1,101.6,,,Clear,17.225
22-09-2023 08:00,9,22,08:00,12.1,10.8,92,36,3,24.1,101.64,,,NA,15.846
22-09-2023 09:00,9,22,09:00,15.4,11.7,78,10,6,24.1,101.66,,,NA,14.299
22-09-2023 10:00,9,22,10:00,17.7,11.4,66,8,9,24.1,101.61,,,Clear,14.511
22-09-2023 11:00,9,22,11:00,19.6,11.2,58,14,12,24.1,101.57,,,NA,16.223
22-09-2023 12:00,9,22,12:00,21.1,11.8,55,9,12,24.1,101.54,,,NA,15.634
22-09-2023 13:00,9,22,13:00,21.8,10.4,48,17,10,24.1,101.48,,,Clear,14.556
22-09-2023 14:00,9,22,14:00,22.6,9.8,44,16,9,24.1,101.42,,,NA,13.224
22-09-2023 15:00,9,22,15:00,22.6,10.6,46,33,10,24.1,101.33,,,NA,13.041
22-09-2023 16:00,9,22,16:00,22.2,10.4,47,15,7,24.1,101.31,,,Clear,12.254
22-09-2023 17:00,9,22,17:00,20.9,12,57,12,7,24.1,101.3,,,NA,11.382
22-09-2023 18:00,9,22,18:00,16.2,11.3,72,11,7,24.1,101.3,,,NA,12.832
22-09-2023 19:00,9,22,19:00,15.4,11.3,77,13,8,24.1,101.31,,,Clear,11.568
22-09-2023 20:00,9,22,20:00,15.7,10.9,73,14,6,24.1,101.32,,,NA,10.749
22-09-2023 21:00,9,22,21:00,13,9.4,79,14,8,24.1,101.32,,,NA,9.38
22-09-2023 22:00,9,22,22:00,12.2,9.5,84,16,7,24.1,101.32,,,Clear,9.015
22-09-2023 23:00,9,22,23:00,13.1,9.6,79,17,7,24.1,101.29,,,NA,8.889
23-09-2023 00:00,9,23,00:00,11.9,9.7,87,2,5,24.1,101.3,,,NA,8.646
23-09-2023 01:00,9,23,01:00,10.2,9.7,97,2,9,24.1,101.32,,,Clear,8.975
23-09-2023 02:00,9,23,02:00,10.9,10.9,100,4,6,24.1,101.3,,,NA,8.746
23-09-2023 03:00,9,23,03:00,10.7,10.7,100,3,8,24.1,101.29,,,NA,8.553
23-09-2023 04:00,9,23,04:00,9.8,9.8,100,5,11,24.1,101.26,,,Clear,8.882
23-09-2023 05:00,9,23,05:00,9.2,9.2,100,4,12,24.1,101.27,,,NA,8.761
23-09-2023 06:00,9,23,06:00,9.4,9.4,100,4,12,24.1,101.27,,,NA,8.64
23-09-2023 07:00,9,23,07:00,10.5,10.5,100,5,7,24.1,101.31,,,Mainly Clear,8.71
23-09-2023 08:00,9,23,08:00,12.4,11.8,96,2,4,24.1,101.36,,,NA,8.519
23-09-2023 09:00,9,23,09:00,13.9,12.4,90,6,4,24.1,101.35,,,NA,8.861
23-09-2023 10:00,9,23,10:00,15.7,11.7,77,7,7,24.1,101.32,,,Mostly Cloudy,8.687
23-09-2023 11:00,9,23,11:00,18.2,12.1,67,3,8,24.1,101.26,,,NA,8.282
23-09-2023 12:00,9,23,12:00,20.4,12.2,59,7,9,24.1,101.2,,,NA,8.858
23-09-2023 13:00,9,23,13:00,21.2,11.6,54,5,10,24.1,101.09,,,Mostly Cloudy,8.898
23-09-2023 14:00,9,23,14:00,21.6,11.2,51,8,15,24.1,101.07,,,NA,8.422
23-09-2023 15:00,9,23,15:00,21.2,11.4,53,8,13,24.1,101.02,,,NA,9.101
23-09-2023 16:00,9,23,16:00,20.5,11.6,56,8,9,24.1,100.99,,,Mostly Cloudy,8.697
23-09-2023 17:00,9,23,17:00,19.6,12,61,7,7,24.1,100.98,,,NA,8.471
23-09-2023 18:00,9,23,18:00,17.8,12.4,70,7,9,24.1,100.98,,,NA,8.368
23-09-2023 19:00,9,23,19:00,15.3,11.7,79,6,12,24.1,100.99,,,Mostly Cloudy,8.408
23-09-2023 20:00,9,23,20:00,15.6,11.8,78,7,14,24.1,101.02,,,NA,8.65
23-09-2023 21:00,9,23,21:00,14.9,11.8,81,6,11,24.1,101.04,,,NA,8.014
23-09-2023 22:00,9,23,22:00,13,11.6,91,4,12,24.1,101.03,,,Mostly Cloudy,9
23-09-2023 23:00,9,23,23:00,12.9,11.8,92,4,13,24.1,101.04,,,NA,8.807
24-09-2023 00:00,9,24,00:00,11.8,11.1,95,5,13,24.1,100.99,,,NA,8.633
24-09-2023 01:00,9,24,01:00,11.8,11.3,96,4,13,24.1,100.98,,,Mostly Cloudy,8.511
24-09-2023 02:00,9,24,02:00,11.4,11,97,3,13,24.1,100.96,,,NA,8.641
24-09-2023 03:00,9,24,03:00,11.2,11.2,100,5,13,24.1,100.94,,,NA,8.371
24-09-2023 04:00,9,24,04:00,10.3,10,98,5,14,24.1,100.94,,,Mainly Clear,9.172
24-09-2023 05:00,9,24,05:00,10.1,10.1,99,3,13,24.1,100.95,,,NA,9.101
24-09-2023 06:00,9,24,06:00,11.1,11,100,4,14,24.1,100.93,,,NA,8.782
24-09-2023 07:00,9,24,07:00,12,11.7,98,4,13,24.1,100.96,,,Mainly Clear,8.369
24-09-2023 08:00,9,24,08:00,14.9,12.7,87,4,19,24.1,100.97,,,NA,9.004
24-09-2023 09:00,9,24,09:00,17.6,13.2,75,5,21,24.1,100.98,,,NA,8.85
24-09-2023 10:00,9,24,10:00,19.4,13.5,68,6,19,24.1,100.96,,,Mainly Clear,8.556
24-09-2023 11:00,9,24,11:00,21.2,13.8,62,9,18,24.1,100.89,,,NA,8.768
24-09-2023 12:00,9,24,12:00,22.6,13.6,56,7,18,24.1,100.84,26,,NA,8.833
24-09-2023 13:00,9,24,13:00,23.2,13.6,54,6,23,24.1,100.75,26,,Mainly Clear,8.467
24-09-2023 14:00,9,24,14:00,23.8,14,54,5,15,24.1,100.72,27,,NA,8.715
24-09-2023 15:00,9,24,15:00,24.1,13.6,52,6,20,24.1,100.67,27,,NA,8.627
24-09-2023 16:00,9,24,16:00,23.7,14,54,7,14,24.1,100.64,27,,Mainly Clear,8.739
24-09-2023 17:00,9,24,17:00,22.5,14,58,10,13,24.1,100.65,26,,NA,8.392
24-09-2023 18:00,9,24,18:00,19.4,13.6,69,9,9,24.1,100.69,,,NA,8.258
24-09-2023 19:00,9,24,19:00,16.8,13.6,81,8,6,24.1,100.71,,,Mainly Clear,8.718
24-09-2023 20:00,9,24,20:00,17.9,13.7,76,6,7,24.1,100.74,,,NA,8.684
24-09-2023 21:00,9,24,21:00,15.1,13.7,92,4,9,24.1,100.74,,,NA,8.432
24-09-2023 22:00,9,24,22:00,15.1,13.9,93,4,14,24.1,100.75,,,Mainly Clear,8.688
24-09-2023 23:00,9,24,23:00,15.9,13.1,83,6,17,24.1,100.78,,,NA,8.828
25-09-2023 00:00,9,25,00:00,15.1,9.9,71,7,18,24.1,100.79,,,NA,8.834
25-09-2023 01:00,9,25,01:00,12.3,10.1,87,5,15,24.1,100.81,,,Clear,8.439
25-09-2023 02:00,9,25,02:00,12,10.5,90,4,13,24.1,100.78,,,NA,9.27
25-09-2023 03:00,9,25,03:00,10.9,8.9,87,4,12,24.1,100.79,,,NA,9.018
25-09-2023 04:00,9,25,04:00,10.6,7.8,83,4,16,24.1,100.82,,,Clear,9.043
25-09-2023 05:00,9,25,05:00,11.2,7.7,79,3,18,24.1,100.85,,,NA,8.642
25-09-2023 06:00,9,25,06:00,11.2,7.5,78,3,19,24.1,100.92,,,NA,8.937
25-09-2023 07:00,9,25,07:00,11.8,7.9,77,4,17,24.1,100.97,,,Clear,8.469
25-09-2023 08:00,9,25,08:00,14.1,8.8,70,5,17,24.1,101.02,,,NA,11.896
25-09-2023 09:00,9,25,09:00,15.8,8.6,62,4,25,24.1,101.09,,,NA,15.44
25-09-2023 10:00,9,25,10:00,17.6,9.6,59,6,20,24.1,101.1,,,Clear,14.823
25-09-2023 11:00,9,25,11:00,18.8,9,52,5,26,24.1,101.09,,,NA,14.784
25-09-2023 12:00,9,25,12:00,19.7,8.7,48,6,31,24.1,101.09,,,NA,14.299
25-09-2023 13:00,9,25,13:00,20.3,9,48,7,25,24.1,101.08,,,Mainly Clear,13.976
25-09-2023 14:00,9,25,14:00,20.9,9.2,47,7,22,24.1,101.11,,,NA,14.399
25-09-2023 15:00,9,25,15:00,20.5,9.1,47,6,28,24.1,101.12,,,NA,14.674
25-09-2023 16:00,9,25,16:00,19.8,9,49,8,21,24.1,101.15,,,Clear,14.361
25-09-2023 17:00,9,25,17:00,18.3,8.5,53,7,18,24.1,101.21,,,NA,12.311
25-09-2023 18:00,9,25,18:00,16.1,7.7,57,7,18,24.1,101.28,,,NA,12.329
25-09-2023 19:00,9,25,19:00,14.6,8,64,7,17,24.1,101.34,,,Mainly Clear,11.784
25-09-2023 20:00,9,25,20:00,14.1,7.2,63,7,22,24.1,101.43,,,NA,11.022
25-09-2023 21:00,9,25,21:00,12.5,7,69,5,18,24.1,101.46,,,NA,8.878
25-09-2023 22:00,9,25,22:00,11.8,7.4,74,5,20,24.1,101.48,,,Clear,8.681
25-09-2023 23:00,9,25,23:00,11.6,7.8,78,6,21,24.1,101.48,,,NA,9.009
26-09-2023 00:00,9,26,00:00,11.2,8,81,6,20,24.1,101.52,,,NA,8.789
26-09-2023 01:00,9,26,01:00,10.6,8.1,84,6,18,24.1,101.55,,,Mainly Clear,8.856
26-09-2023 02:00,9,26,02:00,10,8,87,6,17,24.1,101.56,,,NA,8.959
26-09-2023 03:00,9,26,03:00,9.6,7.8,89,6,15,24.1,101.58,,,NA,8.868
26-09-2023 04:00,9,26,04:00,9.2,7.7,90,6,15,24.1,101.63,,,Mainly Clear,8.809
26-09-2023 05:00,9,26,05:00,9,7.6,91,6,17,24.1,101.67,,,NA,10.801
26-09-2023 06:00,9,26,06:00,8.9,7.6,92,6,15,24.1,101.75,,,NA,17.235
26-09-2023 07:00,9,26,07:00,9.8,7.9,88,7,20,24.1,101.78,,,Mostly Cloudy,12.285
26-09-2023 08:00,9,26,08:00,11,8.2,82,6,19,24.1,101.84,,,NA,14.924
26-09-2023 09:00,9,26,09:00,12.3,8.4,77,9,12,24.1,101.88,,,NA,15.915
26-09-2023 10:00,9,26,10:00,13.7,8.4,70,10,13,24.1,101.88,,,Mostly Cloudy,12.645
26-09-2023 11:00,9,26,11:00,15.5,8.5,63,8,11,24.1,101.86,,,NA,15.826
26-09-2023 12:00,9,26,12:00,16.9,8.5,57,9,13,24.1,101.82,,,NA,14.429
26-09-2023 13:00,9,26,13:00,17.6,7.1,50,7,9,24.1,101.73,,,Mostly Cloudy,14.94
26-09-2023 14:00,9,26,14:00,18.2,6.3,45,5,18,24.1,101.69,,,NA,13.382
26-09-2023 15:00,9,26,15:00,17.8,7.4,50,7,17,24.1,101.66,,,NA,12.815
26-09-2023 16:00,9,26,16:00,16.6,7.8,56,9,12,24.1,101.63,,,Mostly Cloudy,13.34
26-09-2023 17:00,9,26,17:00,16.2,7.9,58,7,11,24.1,101.65,,,NA,11.736
26-09-2023 18:00,9,26,18:00,13.4,7.2,66,7,10,24.1,101.66,,,NA,11.589
26-09-2023 19:00,9,26,19:00,12.6,7.1,69,7,12,24.1,101.68,,,Mostly Cloudy,11.981
26-09-2023 20:00,9,26,20:00,12.8,6.9,67,8,16,24.1,101.68,,,NA,11.318
26-09-2023 21:00,9,26,21:00,11.4,6.9,74,7,14,24.1,101.69,,,NA,9.453
26-09-2023 22:00,9,26,22:00,11,7,76,7,16,24.1,101.71,,,Mostly Cloudy,9.555
26-09-2023 23:00,9,26,23:00,8.1,6.1,87,6,12,24.1,101.73,,,NA,9.287
27-09-2023 00:00,9,27,00:00,7.6,6.3,91,5,12,24.1,101.74,,,NA,9.802
27-09-2023 01:00,9,27,01:00,7.7,6.4,91,6,9,24.1,101.75,,,Mostly Cloudy,9.765
27-09-2023 02:00,9,27,02:00,6.8,6.1,96,5,13,24.1,101.7,,,NA,8.795
27-09-2023 03:00,9,27,03:00,6.8,6.2,96,4,11,24.1,101.68,,,NA,9.076
27-09-2023 04:00,9,27,04:00,6.3,5.9,98,3,8,24.1,101.67,,,Mostly Cloudy,8.982
27-09-2023 05:00,9,27,05:00,5.5,5.4,99,4,13,24.1,101.68,,,NA,8.847
27-09-2023 06:00,9,27,06:00,5.3,5,98,3,13,24.1,101.7,,,NA,9.355
27-09-2023 07:00,9,27,07:00,8,7.2,95,3,10,24.1,101.73,,,Mostly Cloudy,16.194
27-09-2023 08:00,9,27,08:00,10.2,7.8,85,3,12,24.1,101.74,,,NA,14.212
27-09-2023 09:00,9,27,09:00,12.9,8.1,73,5,14,24.1,101.76,,,NA,16.133
27-09-2023 10:00,9,27,10:00,14.8,7.3,60,5,10,24.1,101.75,,,Mostly Cloudy,15.362
27-09-2023 11:00,9,27,11:00,16.7,7.7,55,36,7,24.1,101.7,,,NA,15.337
27-09-2023 12:00,9,27,12:00,17.5,5.8,46,4,4,24.1,101.62,,,NA,14.953
27-09-2023 13:00,9,27,13:00,18.6,7.1,47,11,6,24.1,101.55,,,Mostly Cloudy,14.616
27-09-2023 14:00,9,27,14:00,18.7,6.4,44,4,10,24.1,101.47,,,NA,13.778
27-09-2023 15:00,9,27,15:00,18.9,7.4,47,7,10,24.1,101.4,,,NA,12.304
27-09-2023 16:00,9,27,16:00,18.5,6.8,46,5,10,24.1,101.34,,,Mostly Cloudy,14.289
27-09-2023 17:00,9,27,17:00,17.1,7.8,54,6,8,24.1,101.31,,,NA,11.551
27-09-2023 18:00,9,27,18:00,13.6,8.2,70,6,7,24.1,101.31,,,NA,12.046
27-09-2023 19:00,9,27,19:00,14.3,6.7,60,7,12,24.1,101.29,,,Mostly Cloudy,11.674
27-09-2023 20:00,9,27,20:00,12.3,6.8,69,7,9,24.1,101.3,,,NA,11.79
27-09-2023 21:00,9,27,21:00,11.2,6.8,74,7,7,24.1,101.33,,,NA,8.614
27-09-2023 22:00,9,27,22:00,10,7.3,83,5,14,24.1,101.35,,,Mainly Clear,8.104
27-09-2023 23:00,9,27,23:00,9.4,7.1,85,7,9,24.1,101.36,,,NA,8.103
28-09-2023 00:00,9,28,00:00,8.7,7,89,7,9,24.1,101.36,,,NA,8
28-09-2023 01:00,9,28,01:00,8.1,7.3,95,5,11,24.1,101.36,,,Mainly Clear,7.693
28-09-2023 02:00,9,28,02:00,8.4,7.9,97,5,10,24.1,101.33,,,NA,7.7
28-09-2023 03:00,9,28,03:00,8,7.7,98,6,10,24.1,101.33,,,NA,8.077
28-09-2023 04:00,9,28,04:00,7,6.9,99,5,10,24.1,101.34,,,Clear,7.891
28-09-2023 05:00,9,28,05:00,6.8,6.8,100,5,12,24.1,101.33,,,NA,7.831
28-09-2023 06:00,9,28,06:00,7.9,7.9,100,6,9,24.1,101.36,,,NA,7.852
28-09-2023 07:00,9,28,07:00,8.6,8.6,100,5,12,24.1,101.39,,,Mainly Clear,16.063
28-09-2023 08:00,9,28,08:00,11.4,9.9,91,5,10,24.1,101.41,,,NA,14.201
28-09-2023 09:00,9,28,09:00,14.2,9.7,74,7,8,24.1,101.42,,,NA,14.442
28-09-2023 10:00,9,28,10:00,16.4,10.4,67,6,7,24.1,101.4,,,Mostly Cloudy,14.614
28-09-2023 11:00,9,28,11:00,17.8,10.6,62,8,6,24.1,101.36,,,NA,16.186
28-09-2023 12:00,9,28,12:00,18.6,10,57,3,10,24.1,101.28,,,NA,15.021
28-09-2023 13:00,9,28,13:00,20.8,10.7,52,6,13,24.1,101.18,,,Mostly Cloudy,14.987
28-09-2023 14:00,9,28,14:00,21.5,10.1,48,8,16,24.1,101.1,,,NA,12.793
28-09-2023 15:00,9,28,15:00,20.9,10.6,51,9,11,24.1,101.05,,,NA,12.592
28-09-2023 16:00,9,28,16:00,21.3,11,51,9,16,24.1,101.02,,,Mostly Cloudy,14.017
28-09-2023 17:00,9,28,17:00,19.4,11.7,60,6,12,24.1,101,,,NA,12.655
28-09-2023 18:00,9,28,18:00,16.7,11,69,6,13,24.1,101,,,NA,12.14
28-09-2023 19:00,9,28,19:00,15.5,10.7,73,7,13,24.1,101.01,,,Mostly Cloudy,11.585
28-09-2023 20:00,9,28,20:00,14.8,10.6,76,7,16,24.1,101.01,,,NA,11.218
28-09-2023 21:00,9,28,21:00,13.9,10.5,80,7,16,24.1,100.99,,,NA,8.932
28-09-2023 22:00,9,28,22:00,13.2,10.5,84,6,17,24.1,101,,,Mostly Cloudy,8.999
28-09-2023 23:00,9,28,23:00,12,10.6,91,10,13,24.1,101.03,,,NA,8.7
29-09-2023 00:00,9,29,00:00,11.4,10.7,96,8,8,24.1,101.02,,,NA,9.369
29-09-2023 01:00,9,29,01:00,10.1,10,99,6,8,24.1,101.03,,,Mostly Cloudy,9.006
29-09-2023 02:00,9,29,02:00,9.8,9.8,100,5,10,24.1,100.98,,,NA,8.671
29-09-2023 03:00,9,29,03:00,9.7,9.7,100,5,10,24.1,100.98,,,NA,9.04
29-09-2023 04:00,9,29,04:00,10.2,10.2,100,5,10,24.1,100.99,,,Mostly Cloudy,8.764
29-09-2023 05:00,9,29,05:00,10.7,10.7,100,5,10,24.1,101.01,,,NA,9.035
29-09-2023 06:00,9,29,06:00,10.8,10.7,99,5,12,24.1,101.07,,,NA,8.61
29-09-2023 07:00,9,29,07:00,11.2,11,99,5,10,24.1,101.09,,,Mostly Cloudy,17.132
29-09-2023 08:00,9,29,08:00,12.8,11.8,94,7,7,24.1,101.14,,,NA,15.388
29-09-2023 09:00,9,29,09:00,15.9,12.3,79,7,10,24.1,101.12,,,NA,15.568
29-09-2023 10:00,9,29,10:00,18.1,11.5,65,7,10,24.1,101.11,,,Mostly Cloudy,14.651
29-09-2023 11:00,9,29,11:00,19.5,11.4,59,15,5,24.1,101.1,,,NA,15.303
29-09-2023 12:00,9,29,12:00,19.7,11.6,59,12,15,24.1,101.06,,,NA,15.73
29-09-2023 13:00,9,29,13:00,20,12.1,60,16,7,24.1,100.98,,,Mostly Cloudy,14.459
29-09-2023 14:00,9,29,14:00,20.6,13.1,62,36,4,24.1,100.96,,,NA,14.602
29-09-2023 15:00,9,29,15:00,21.7,13.6,59,10,11,24.1,100.9,25,,NA,12.604
29-09-2023 16:00,9,29,16:00,20.1,13.2,64,6,12,24.1,100.9,,,Mostly Cloudy,12.237
29-09-2023 17:00,9,29,17:00,19.1,13.3,69,8,9,24.1,100.89,,,NA,11.866
29-09-2023 18:00,9,29,18:00,16.4,13.1,81,10,9,24.1,100.92,,,NA,11.612
29-09-2023 19:00,9,29,19:00,15.9,12.8,82,3,9,24.1,100.98,,,Mostly Cloudy,11.86
29-09-2023 20:00,9,29,20:00,15.9,13.3,84,2,8,24.1,101.01,,,NA,10.815
29-09-2023 21:00,9,29,21:00,15.7,13.6,87,6,10,24.1,101,,,NA,10.5
29-09-2023 22:00,9,29,22:00,15,12.5,85,6,10,24.1,100.96,,,Mostly Cloudy,9.524
29-09-2023 23:00,9,29,23:00,14.4,12.5,89,7,6,24.1,100.95,,,NA,8.862
30-09-2023 00:00,9,30,00:00,12.2,12.2,100,3,4,24.1,100.9,,,NA,9.001
30-09-2023 01:00,9,30,01:00,12,11.9,100,8,3,24.1,100.89,,,Mainly Clear,9.11
30-09-2023 02:00,9,30,02:00,12.6,12.3,98,35,8,16.1,100.92,,,NA,8.913
30-09-2023 03:00,9,30,03:00,12.8,12.8,100,6,8,16.1,100.91,,,NA,8.531
30-09-2023 04:00,9,30,04:00,13.1,12.7,97,1,9,16.1,100.99,,,Mostly Cloudy,9.232
30-09-2023 05:00,9,30,05:00,12.7,12.4,98,1,7,16.1,101.03,,,NA,8.851
30-09-2023 06:00,9,30,06:00,13.5,12.7,95,2,9,16.1,101.11,,,NA,8.886
30-09-2023 07:00,9,30,07:00,13.8,12.5,92,4,7,16.1,101.15,,,Mainly Clear,8.678
30-09-2023 08:00,9,30,08:00,16.4,12.8,79,1,9,16.1,101.18,,,NA,8.835
30-09-2023 09:00,9,30,09:00,18.3,11.6,65,8,9,16.1,101.15,,,NA,8.45
30-09-2023 10:00,9,30,10:00,20.3,11.2,55,1,5,19.3,101.19,,,Mainly Clear,8.969
30-09-2023 11:00,9,30,11:00,20.8,11.5,55,16,4,19.3,101.13,,,NA,8.848
30-09-2023 12:00,9,30,12:00,22,11.7,52,29,8,24.1,101.07,,,NA,8.551
30-09-2023 13:00,9,30,13:00,22.6,11.9,51,1,5,24.1,101.01,25,,Mainly Clear,8.782
30-09-2023 14:00,9,30,14:00,23.9,12.4,48,2,3,24.1,100.97,26,,NA,8.53
30-09-2023 15:00,9,30,15:00,23.6,12.4,49,31,8,24.1,100.94,26,,NA,8.701
30-09-2023 16:00,9,30,16:00,23.4,12.5,50,24,8,24.1,100.91,26,,Mainly Clear,8.432
30-09-2023 17:00,9,30,17:00,22.3,12.7,54,27,7,24.1,100.93,25,,NA,8.288
30-09-2023 18:00,9,30,18:00,19.1,12.9,67,22,4,24.1,100.95,,,NA,8.044
30-09-2023 19:00,9,30,19:00,16.8,12.3,75,22,4,24.1,100.98,,,Clear,8.44
30-09-2023 20:00,9,30,20:00,14.2,12.4,89,21,5,24.1,101,,,NA,8.206
30-09-2023 21:00,9,30,21:00,14.9,12.4,85,19,6,24.1,101,,,NA,8.819
30-09-2023 22:00,9,30,22:00,13.9,12.5,91,18,5,24.1,101,,,Clear,8.724
30-09-2023 23:00,9,30,23:00,14,12.6,91,21,9,24.1,101.01,,,NA,8.551
01-10-2023 00:00,10,1,00:00,12.7,12.4,98,24,5,24.1,101.01,,,NA,8.843
01-10-2023 01:00,10,1,01:00,12.4,12.4,100,26,4,24.1,101.01,,,Clear,8.753
01-10-2023 02:00,10,1,02:00,13,11.6,91,29,9,24.1,101.01,,,NA,8.792
01-10-2023 03:00,10,1,03:00,11.6,11.6,100,30,9,24.1,101.03,,,NA,8.267
01-10-2023 04:00,10,1,04:00,12.3,12.3,100,28,9,24.1,101.08,,,Clear,9.109
01-10-2023 05:00,10,1,05:00,11.9,11.9,100,27,7,24.1,101.08,,,NA,9.14
01-10-2023 06:00,10,1,06:00,13.2,12.4,95,29,12,24.1,101.13,,,NA,8.671
01-10-2023 07:00,10,1,07:00,13.3,13.2,100,26,9,24.1,101.14,,,Mostly Cloudy,8.908
01-10-2023 08:00,10,1,08:00,16.5,14.1,86,29,9,24.1,101.18,,,NA,8.917
01-10-2023 09:00,10,1,09:00,19.7,14.1,69,29,8,24.1,101.18,,,NA,8.432
01-10-2023 10:00,10,1,10:00,21.6,14.8,65,32,6,24.1,101.15,25,,Mainly Clear,8.933
01-10-2023 11:00,10,1,11:00,23,14.2,57,35,10,24.1,101.15,26,,NA,8.976
01-10-2023 12:00,10,1,12:00,24.3,14.8,55,36,3,24.1,101.13,28,,NA,8.37
01-10-2023 13:00,10,1,13:00,24.6,15.1,55,36,10,24.1,101.06,29,,Mostly Cloudy,8.722
01-10-2023 14:00,10,1,14:00,25,15,53,33,15,24.1,101.04,29,,NA,8.501
01-10-2023 15:00,10,1,15:00,24,15.4,58,1,16,24.1,101.01,28,,NA,8.839
01-10-2023 16:00,10,1,16:00,23.1,15.6,62,33,13,24.1,101,27,,Mostly Cloudy,8.991
01-10-2023 17:00,10,1,17:00,21.5,15.6,68,33,18,24.1,101.04,26,,NA,8.283
01-10-2023 18:00,10,1,18:00,20.7,15,70,32,14,24.1,101.05,25,,NA,8.091
01-10-2023 19:00,10,1,19:00,20.1,14.4,69,33,12,24.1,101.08,,,Mostly Cloudy,8.639
01-10-2023 20:00,10,1,20:00,18.6,14.1,75,31,11,24.1,101.1,,,NA,8.611
01-10-2023 21:00,10,1,21:00,17.6,13.3,76,33,9,24.1,101.09,,,NA,8.323
01-10-2023 22:00,10,1,22:00,16.8,13,78,34,10,24.1,101.1,,,Mainly Clear,8.983
01-10-2023 23:00,10,1,23:00,16.3,12.5,78,35,13,24.1,101.13,,,NA,8.578
02-10-2023 00:00,10,2,00:00,15.3,11.7,79,36,10,24.1,101.1,,,NA,8.388
02-10-2023 01:00,10,2,01:00,13.9,11.4,85,1,11,24.1,101.11,,,Clear,8.966
02-10-2023 02:00,10,2,02:00,12.6,11.1,90,2,10,24.1,101.1,,,NA,8.78
02-10-2023 03:00,10,2,03:00,11.3,10.9,97,4,9,24.1,101.07,,,NA,8.467
02-10-2023 04:00,10,2,04:00,11.2,10.6,96,2,4,24.1,101.09,,,Mainly Clear,8.627
02-10-2023 05:00,10,2,05:00,10.6,10.5,100,34,5,24.1,101.09,,,NA,8.99
02-10-2023 06:00,10,2,06:00,11.4,9.9,91,1,9,24.1,101.13,,,NA,8.553
02-10-2023 07:00,10,2,07:00,11.7,10.8,94,4,6,24.1,101.14,,,Mainly Clear,16.586
02-10-2023 08:00,10,2,08:00,14.7,10.9,78,4,7,24.1,101.15,,,NA,14.833
02-10-2023 09:00,10,2,09:00,17.7,11.5,67,6,6,24.1,101.12,,,NA,15.196
02-10-2023 10:00,10,2,10:00,20.2,10.9,55,12,7,24.1,101.08,,,Clear,15.077
02-10-2023 11:00,10,2,11:00,22.3,11.1,48,19,11,24.1,101,,,NA,15.897
02-10-2023 12:00,10,2,12:00,23.2,11.7,48,24,7,24.1,100.97,25,,NA,13.896
02-10-2023 13:00,10,2,13:00,23.9,12.1,47,16,11,24.1,100.91,26,,Mainly Clear,13.552
02-10-2023 14:00,10,2,14:00,24.6,11.6,44,22,9,24.1,100.86,27,,NA,13.873
02-10-2023 15:00,10,2,15:00,24.7,12.8,47,18,12,24.1,100.75,27,,NA,13.262
02-10-2023 16:00,10,2,16:00,24.5,13.7,50,16,8,24.1,100.7,28,,Mostly Cloudy,12.035
02-10-2023 17:00,10,2,17:00,22.5,14.1,59,15,10,24.1,100.67,26,,NA,11.497
02-10-2023 18:00,10,2,18:00,20,13.9,67,16,10,24.1,100.65,,,NA,11.831
02-10-2023 19:00,10,2,19:00,19.6,14.1,70,17,8,24.1,100.64,,,Clear,12.475
02-10-2023 20:00,10,2,20:00,18.9,14.2,74,20,10,24.1,100.62,,,NA,10.802
02-10-2023 21:00,10,2,21:00,18.9,15.3,80,21,13,24.1,100.61,,,NA,10.648
02-10-2023 22:00,10,2,22:00,18.6,15.7,83,22,14,24.1,100.59,,,Mainly Clear,9.466
02-10-2023 23:00,10,2,23:00,18.6,16,85,22,16,24.1,100.6,,,NA,9.187
03-10-2023 00:00,10,3,00:00,17.4,16.1,92,25,10,24.1,100.6,,,NA,10.247
03-10-2023 01:00,10,3,01:00,16.2,15.7,97,21,9,24.1,100.6,,,Mainly Clear,9.796
03-10-2023 02:00,10,3,02:00,16.2,15.8,97,21,10,24.1,100.57,,,NA,9.468
03-10-2023 03:00,10,3,03:00,15.6,15.6,99,22,11,24.1,100.57,,,NA,9.433
03-10-2023 04:00,10,3,04:00,15.7,15.4,98,23,13,24.1,100.58,,,Clear,9.766
03-10-2023 05:00,10,3,05:00,15.6,15.2,97,22,13,24.1,100.6,,,NA,9.495
03-10-2023 06:00,10,3,06:00,15.2,14.9,99,22,10,24.1,100.62,,,NA,9.543
03-10-2023 07:00,10,3,07:00,15.8,15.4,97,21,8,24.1,100.65,,,Mostly Cloudy,16.391
03-10-2023 08:00,10,3,08:00,17.8,15.6,87,21,7,24.1,100.67,,,NA,15.515
03-10-2023 09:00,10,3,09:00,19.8,15.4,76,24,15,24.1,100.66,,,NA,15.666
03-10-2023 10:00,10,3,10:00,21.1,15.6,71,24,14,24.1,100.65,25,,Mostly Cloudy,14.648
03-10-2023 11:00,10,3,11:00,24.9,15.8,57,27,12,24.1,100.64,29,,NA,16.554
03-10-2023 12:00,10,3,12:00,27.3,15.7,48,26,14,24.1,100.61,32,,NA,14.365
03-10-2023 13:00,10,3,13:00,28.6,15.3,44,28,17,24.1,100.56,33,,Clear,13.594
03-10-2023 14:00,10,3,14:00,29.6,15.8,43,25,8,24.1,100.5,34,,NA,13.562
03-10-2023 15:00,10,3,15:00,30.6,13.9,35,25,16,24.1,100.46,34,,NA,13.196
03-10-2023 16:00,10,3,16:00,30.5,13.1,34,27,16,24.1,100.44,33,,Clear,11.597
03-10-2023 17:00,10,3,17:00,28.7,14.9,42,36,3,24.1,100.43,33,,NA,11.44
03-10-2023 18:00,10,3,18:00,25.5,15.1,52,21,5,24.1,100.45,30,,NA,11.533
03-10-2023 19:00,10,3,19:00,23.1,17.4,70,20,11,24.1,100.5,29,,Clear,11.42
03-10-2023 20:00,10,3,20:00,21.6,18.2,81,20,8,24.1,100.53,28,,NA,10.729
03-10-2023 21:00,10,3,21:00,20.3,17.8,85,20,9,24.1,100.55,26,,NA,8.965
03-10-2023 22:00,10,3,22:00,19.9,17.3,84,21,14,24.1,100.55,,,Clear,9.539
03-10-2023 23:00,10,3,23:00,18.6,17.1,91,21,13,24.1,100.55,,,NA,9.443
04-10-2023 00:00,10,4,00:00,15.8,15.7,99,19,7,24.1,100.59,,,NA,9.212
04-10-2023 01:00,10,4,01:00,16.4,16.4,100,20,8,24.1,100.62,,,Clear,9.48
04-10-2023 02:00,10,4,02:00,15.4,15.4,100,20,5,24.1,100.64,,,NA,9.45
04-10-2023 03:00,10,4,03:00,15.1,15.1,100,21,8,24.1,100.67,,,NA,9.316
04-10-2023 04:00,10,4,04:00,14.4,14.4,100,19,6,24.1,100.71,,,Clear,9.245
04-10-2023 05:00,10,4,05:00,14.6,14.6,100,19,8,24.1,100.76,,,NA,9.585
04-10-2023 06:00,10,4,06:00,14.2,14.2,100,19,7,24.1,100.81,,,NA,9.375
04-10-2023 07:00,10,4,07:00,15.3,15.3,100,19,8,24.1,100.85,,,Clear,16.566
04-10-2023 08:00,10,4,08:00,17.8,16.9,94,20,8,24.1,100.89,,,NA,14.248
04-10-2023 09:00,10,4,09:00,21.7,16.6,73,20,9,24.1,100.88,27,,NA,15.405
04-10-2023 10:00,10,4,10:00,24.7,16.7,60,20,9,24.1,100.86,30,,Clear,15.825
04-10-2023 11:00,10,4,11:00,26.9,16.3,52,16,13,24.1,100.79,32,,NA,16.077
04-10-2023 12:00,10,4,12:00,28.5,16.5,48,20,12,24.1,100.74,33,,NA,13.824
04-10-2023 13:00,10,4,13:00,28.9,17.1,48,19,15,24.1,100.67,34,,Clear,14.224
04-10-2023 14:00,10,4,14:00,29.4,16.4,45,18,13,24.1,100.62,34,,NA,12.672
04-10-2023 15:00,10,4,15:00,29.6,15.6,42,21,11,24.1,100.58,34,,NA,14.131
04-10-2023 16:00,10,4,16:00,29.1,15.4,43,18,15,24.1,100.55,33,,Clear,12.387
04-10-2023 17:00,10,4,17:00,26.8,16.7,53,16,9,24.1,100.53,32,,NA,12.368
04-10-2023 18:00,10,4,18:00,24.2,16.4,61,15,9,24.1,100.51,29,,NA,12.436
04-10-2023 19:00,10,4,19:00,23.4,15.3,60,17,8,24.1,100.5,28,,Clear,12.319
04-10-2023 20:00,10,4,20:00,20.9,15.7,72,15,11,24.1,100.54,25,,NA,10.169
04-10-2023 21:00,10,4,21:00,20.4,15.5,73,15,8,24.1,100.54,25,,NA,8.884
04-10-2023 22:00,10,4,22:00,19.9,15.4,75,15,9,24.1,100.53,,,Clear,8.755
04-10-2023 23:00,10,4,23:00,19.4,15.5,78,16,9,24.1,100.52,,,NA,8.484
05-10-2023 00:00,10,5,00:00,19.1,15.8,81,17,9,24.1,100.52,,,NA,8.813
05-10-2023 01:00,10,5,01:00,18.9,16.3,84,16,13,24.1,100.48,,,Clear,9.025
05-10-2023 02:00,10,5,02:00,18,16,88,17,9,24.1,100.47,,,NA,9.011
05-10-2023 03:00,10,5,03:00,17.3,15.6,90,17,9,24.1,100.41,,,NA,8.894
05-10-2023 04:00,10,5,04:00,17,15.7,92,17,9,24.1,100.5,,,Mainly Clear,8.857
05-10-2023 05:00,10,5,05:00,16.5,15.6,94,17,9,24.1,100.53,,,NA,9.159
05-10-2023 06:00,10,5,06:00,16.5,15.8,95,18,9,24.1,100.5,,,NA,9.193
05-10-2023 07:00,10,5,07:00,17.9,16.4,91,17,16,24.1,100.54,,,Mostly Cloudy,16.637
05-10-2023 08:00,10,5,08:00,19.7,16.3,81,18,19,24.1,100.54,,,NA,15.246
05-10-2023 09:00,10,5,09:00,21.3,15.9,71,18,22,24.1,100.54,26,,NA,16.174
05-10-2023 10:00,10,5,10:00,22.9,16,65,19,16,24.1,100.49,28,,Mostly Cloudy,15.257
05-10-2023 11:00,10,5,11:00,25,16.1,57,18,15,24.1,100.45,30,,NA,15.717
05-10-2023 12:00,10,5,12:00,26,15.9,53,18,18,24.1,100.35,31,,NA,15.736
05-10-2023 13:00,10,5,13:00,26.4,16,52,19,19,24.1,100.27,31,,Mostly Cloudy,14.914
05-10-2023 14:00,10,5,14:00,26.2,15.5,51,17,19,24.1,100.21,30,,NA,14.096
05-10-2023 15:00,10,5,15:00,26.4,15.4,50,17,15,24.1,100.16,31,,NA,13.976
05-10-2023 16:00,10,5,16:00,25.6,15.1,52,17,20,24.1,100.11,30,,Mostly Cloudy,13.763
05-10-2023 17:00,10,5,17:00,23.8,15.4,59,17,9,24.1,100.09,28,,NA,12.357
05-10-2023 18:00,10,5,18:00,22.5,15.1,63,16,9,24.1,100.1,27,,NA,11.781
05-10-2023 19:00,10,5,19:00,21.3,15.3,69,16,8,24.1,100.08,25,,Mostly Cloudy,11.692
05-10-2023 20:00,10,5,20:00,21.4,14.1,63,16,10,24.1,100.06,25,,NA,10.918
05-10-2023 21:00,10,5,21:00,21.3,11.5,53,17,12,24.1,100.02,,,NA,9.056
05-10-2023 22:00,10,5,22:00,22,12.8,56,18,22,24.1,99.98,25,,Cloudy,8.718
05-10-2023 23:00,10,5,23:00,21.4,12.6,57,18,19,24.1,99.96,,,NA,8.826
06-10-2023 00:00,10,6,00:00,20.5,13.1,62,18,20,24.1,99.91,,,NA,8.978
06-10-2023 01:00,10,6,01:00,20,13.9,67,17,21,24.1,99.86,,,Cloudy,8.632
06-10-2023 02:00,10,6,02:00,19.9,13.9,68,18,20,24.1,99.83,,,NA,8.918
06-10-2023 03:00,10,6,03:00,19.7,14.3,71,18,18,24.1,99.82,,,NA,8.913
06-10-2023 04:00,10,6,04:00,19.1,14.6,75,17,14,24.1,99.82,,,Cloudy,8.031
06-10-2023 05:00,10,6,05:00,19.5,15.1,75,18,18,24.1,99.79,,,NA,7.66
06-10-2023 06:00,10,6,06:00,18.5,15.2,81,17,14,24.1,99.79,,,NA,7.817
06-10-2023 07:00,10,6,07:00,18.8,15.4,81,16,19,24.1,99.77,,,Cloudy,15.14
06-10-2023 08:00,10,6,08:00,19.6,15.6,78,18,18,24.1,99.75,,,NA,13.723
06-10-2023 09:00,10,6,09:00,19.4,16.5,83,17,18,24.1,99.76,,,Rain,14.559
06-10-2023 10:00,10,6,10:00,20.2,16.4,78,18,26,24.1,99.75,25,,Cloudy,13.407
06-10-2023 11:00,10,6,11:00,19.1,18.3,95,20,18,16.1,99.74,,,Rain Showers,15.146
06-10-2023 12:00,10,6,12:00,18.1,17.7,97,22,23,24.1,99.73,,,Rain Showers,15.031
06-10-2023 13:00,10,6,13:00,18.9,18.2,96,18,13,24.1,99.71,,,Mostly Cloudy,16
06-10-2023 14:00,10,6,14:00,19.3,17.7,90,17,11,24.1,99.7,,,NA,12.737
06-10-2023 15:00,10,6,15:00,20.3,17.2,82,17,18,24.1,99.69,26,,NA,13.087
06-10-2023 16:00,10,6,16:00,21,17,78,17,17,24.1,99.69,26,,Mostly Cloudy,13.543
06-10-2023 17:00,10,6,17:00,19.6,16.6,82,16,9,24.1,99.69,,,NA,12.918
06-10-2023 18:00,10,6,18:00,18.6,17.4,93,16,12,24.1,99.73,,,NA,11.108
06-10-2023 19:00,10,6,19:00,17.8,17.5,98,17,14,24.1,99.75,,,Mostly Cloudy,11.715
06-10-2023 20:00,10,6,20:00,17.5,17,97,18,9,24.1,99.75,,,NA,11.861
06-10-2023 21:00,10,6,21:00,17.1,16.7,97,19,8,24.1,99.75,,,NA,8.825
06-10-2023 22:00,10,6,22:00,16.6,16.5,100,16,6,24.1,99.76,,,Mostly Cloudy,8.758
06-10-2023 23:00,10,6,23:00,16.3,16.3,100,12,7,24.1,99.69,,,NA,9.057
07-10-2023 00:00,10,7,00:00,15.8,15.8,100,12,12,24.1,99.66,,,NA,8.963
07-10-2023 01:00,10,7,01:00,16.7,16.7,100,9,12,9.7,99.55,,,"Rain,Fog",8.739
07-10-2023 02:00,10,7,02:00,16.5,16.5,100,15,8,24.1,99.48,,,NA,8.889
07-10-2023 03:00,10,7,03:00,15.7,15.7,100,23,8,12.9,99.57,,,Rain,9.169
07-10-2023 04:00,10,7,04:00,14.7,14.7,100,11,10,12.9,99.52,,,Rain,8.868
07-10-2023 05:00,10,7,05:00,14.4,14.4,100,14,13,12.9,99.51,,,Rain,8.792
07-10-2023 06:00,10,7,06:00,13.7,13.7,100,9,8,16.1,99.49,,,Rain,8.629
07-10-2023 07:00,10,7,07:00,13.8,13.8,100,7,12,24.1,99.39,,,Rain,8.878
07-10-2023 08:00,10,7,08:00,13.9,13.9,100,11,7,19.3,99.4,,,NA,8.883
07-10-2023 09:00,10,7,09:00,14.4,14.4,100,20,8,19.3,99.41,,,NA,8.38
07-10-2023 10:00,10,7,10:00,14.6,14.6,100,14,8,19.3,99.4,,,Rain,9.024
07-10-2023 11:00,10,7,11:00,15,14.7,98,16,7,19.3,99.39,,,Rain,8.902
07-10-2023 12:00,10,7,12:00,15.9,14.6,92,21,10,24.1,99.29,,,Rain,8.82
07-10-2023 13:00,10,7,13:00,14,10,77,25,26,24.1,99.27,,,Rain,8.641
07-10-2023 14:00,10,7,14:00,13.2,9.9,80,26,22,24.1,99.25,,,Rain,8.978
07-10-2023 15:00,10,7,15:00,11.3,9.3,87,24,14,8.1,99.29,,,"Rain,Fog",8.752
07-10-2023 16:00,10,7,16:00,10.6,9.8,95,21,10,19.3,99.28,,,Rain,8.469
07-10-2023 17:00,10,7,17:00,9.8,9.1,95,15,8,16.1,99.24,,,Rain,8.862
07-10-2023 18:00,10,7,18:00,9.4,9.2,99,14,8,24.1,99.18,,,NA,8.872
07-10-2023 19:00,10,7,19:00,9.2,9.2,100,36,3,24.1,99.07,,,Cloudy,8.784
07-10-2023 20:00,10,7,20:00,9.2,9.2,100,11,5,24.1,99.03,,,NA,8.673
07-10-2023 21:00,10,7,21:00,9.1,9.1,100,15,6,24.1,98.95,,,NA,9.099
07-10-2023 22:00,10,7,22:00,9.5,9.3,99,13,3,24.1,98.82,,,Cloudy,8.911
07-10-2023 23:00,10,7,23:00,9.5,9.5,100,19,7,8.1,98.73,,,Fog,8.717
08-10-2023 00:00,10,8,00:00,9.5,9.5,100,22,7,9.7,98.62,,,Fog,8.726
08-10-2023 01:00,10,8,01:00,9.3,9.3,100,25,10,11.3,98.51,,,Mostly Cloudy,9.188
08-10-2023 02:00,10,8,02:00,8.9,8.9,100,28,14,11.3,98.43,,,NA,8.795
08-10-2023 03:00,10,8,03:00,8.2,8.2,100,24,14,12.9,98.34,,,NA,8.652
08-10-2023 04:00,10,8,04:00,7.4,7.4,100,24,12,16.1,98.26,,,Mostly Cloudy,8.756
08-10-2023 05:00,10,8,05:00,7.1,7.1,100,25,13,16.1,98.18,,,NA,8.695
08-10-2023 06:00,10,8,06:00,7,7,100,25,10,24.1,98.16,,,NA,8.676
08-10-2023 07:00,10,8,07:00,7.3,7.2,100,23,14,24.1,98.12,,,Cloudy,8.776
08-10-2023 08:00,10,8,08:00,8.1,7.9,99,24,13,24.1,98.1,,,NA,8.436
08-10-2023 09:00,10,8,09:00,9.5,8.8,95,23,18,24.1,98.05,,,NA,8.522
08-10-2023 10:00,10,8,10:00,10.6,8.2,85,22,23,24.1,97.99,,,Mostly Cloudy,8.475
08-10-2023 11:00,10,8,11:00,11.7,5.7,66,25,28,24.1,97.98,,,NA,8.431
08-10-2023 12:00,10,8,12:00,11.4,6.3,71,22,25,24.1,97.95,,,NA,8.404
08-10-2023 13:00,10,8,13:00,11,5,66,22,22,24.1,97.96,,,Mostly Cloudy,8.494
08-10-2023 14:00,10,8,14:00,12.1,4.4,59,23,25,24.1,97.94,,,NA,8.514
08-10-2023 15:00,10,8,15:00,10.4,4.7,68,23,30,24.1,97.96,,,NA,8.432
08-10-2023 16:00,10,8,16:00,8.6,6.3,85,23,16,24.1,98.01,,,Cloudy,8.231
08-10-2023 17:00,10,8,17:00,9.2,4.7,73,22,16,24.1,98.03,,,NA,8.681
08-10-2023 18:00,10,8,18:00,6.2,5.2,93,27,30,9.7,98.06,,,"Rain,Fog",8.528
08-10-2023 19:00,10,8,19:00,4.4,3,91,24,23,9.7,98.15,,,"Rain,Fog",8.607
08-10-2023 20:00,10,8,20:00,4.6,3.3,91,22,22,12.9,98.2,,,NA,8.654
08-10-2023 21:00,10,8,21:00,4.3,3.1,92,21,18,16.1,98.27,,,NA,8.306
08-10-2023 22:00,10,8,22:00,4.4,2.8,89,21,22,24.1,98.28,,,Cloudy,8.793
08-10-2023 23:00,10,8,23:00,4.6,3.1,91,21,22,12.9,98.31,,,Rain,8.705
09-10-2023 00:00,10,9,00:00,4.9,3.4,90,21,18,12.9,98.35,,,Rain,8.635
09-10-2023 01:00,10,9,01:00,5.3,2.9,85,20,21,24.1,98.35,,,Cloudy,8.696
09-10-2023 02:00,10,9,02:00,5.4,2.8,83,20,21,24.1,98.35,,,NA,8.352
09-10-2023 03:00,10,9,03:00,5.1,3.4,89,19,23,16.1,98.39,,,Rain,8.335
09-10-2023 04:00,10,9,04:00,4.9,4.5,97,19,16,11.3,98.42,,,Rain,8.444
09-10-2023 05:00,10,9,05:00,5.1,4.8,98,17,17,12.9,98.44,,,Rain,8.308
09-10-2023 06:00,10,9,06:00,5.4,5.3,99,20,12,8.1,98.49,,,"Rain,Fog",8.349
09-10-2023 07:00,10,9,07:00,5.8,5.6,98,19,11,24.1,98.52,,,Rain,8.412
09-10-2023 08:00,10,9,08:00,7.1,6.6,97,19,15,16.1,98.54,,,Rain,8.268
09-10-2023 09:00,10,9,09:00,7.5,6.3,92,20,21,24.1,98.59,,,Rain,8.71
09-10-2023 10:00,10,9,10:00,8,7,93,18,13,24.1,98.62,,,Rain,8.475
09-10-2023 11:00,10,9,11:00,8.7,7,89,18,16,24.1,98.66,,,Rain,8.577
09-10-2023 12:00,10,9,12:00,9.5,8.3,92,19,19,24.1,98.67,,,Rain,8.661
09-10-2023 13:00,10,9,13:00,9.2,8.3,94,21,15,24.1,98.69,,,Rain,8.506
09-10-2023 14:00,10,9,14:00,9.2,8.1,92,19,22,16.1,98.74,,,Rain,8.653
09-10-2023 15:00,10,9,15:00,8.7,7.9,95,19,21,19.3,98.78,,,Rain,8.504
09-10-2023 16:00,10,9,16:00,8.6,7.5,92,19,20,16.1,98.83,,,Rain,8.642
09-10-2023 17:00,10,9,17:00,8.3,7.3,93,18,13,24.1,98.89,,,Rain,8.696
09-10-2023 18:00,10,9,18:00,8,7.1,94,19,13,12.9,98.95,,,Rain,8.447
09-10-2023 19:00,10,9,19:00,7.7,7,95,18,10,24.1,98.98,,,Rain,8.721
09-10-2023 20:00,10,9,20:00,7.4,6.5,94,17,9,24.1,99,,,NA,8.361
09-10-2023 21:00,10,9,21:00,7.6,5.6,87,18,11,24.1,99.04,,,Drizzle,8.287
09-10-2023 22:00,10,9,22:00,7,5.6,90,16,8,24.1,99.05,,,Cloudy,8.237
09-10-2023 23:00,10,9,23:00,7,5,87,16,10,24.1,99.04,,,NA,8.674
10-10-2023 00:00,10,10,00:00,6.9,4.5,85,17,8,24.1,99.03,,,NA,8.452
10-10-2023 01:00,10,10,01:00,7.1,4.3,82,17,11,24.1,99.04,,,Cloudy,8.234
10-10-2023 02:00,10,10,02:00,7.3,3.9,79,20,13,24.1,99.03,,,NA,8.42
10-10-2023 03:00,10,10,03:00,6.9,4.1,82,16,8,24.1,99.04,,,NA,8.245
10-10-2023 04:00,10,10,04:00,6.8,5,88,16,12,12.9,99.06,,,Rain,8.179
10-10-2023 05:00,10,10,05:00,6.9,6.2,95,16,10,24.1,99.09,,,NA,8.434
10-10-2023 06:00,10,10,06:00,7,6.5,96,15,10,24.1,99.08,,,NA,8.37
10-10-2023 07:00,10,10,07:00,7.5,6.9,96,17,10,24.1,99.14,,,Cloudy,16.651
10-10-2023 08:00,10,10,08:00,7.7,6.5,92,17,14,16.1,99.19,,,Rain,13.786
10-10-2023 09:00,10,10,09:00,8,6.5,90,15,17,24.1,99.18,,,NA,14.368
10-10-2023 10:00,10,10,10:00,8.6,6,84,19,16,24.1,99.21,,,Rain,15.154
10-10-2023 11:00,10,10,11:00,9.1,5.8,80,17,18,24.1,99.21,,,Rain,14.938
10-10-2023 12:00,10,10,12:00,9.9,6.6,80,17,17,24.1,99.2,,,NA,13.901
10-10-2023 13:00,10,10,13:00,10.4,6,74,17,22,24.1,99.18,,,Cloudy,14.426
10-10-2023 14:00,10,10,14:00,11.2,5.9,70,18,22,24.1,99.19,,,NA,13.161
10-10-2023 15:00,10,10,15:00,11.2,5.9,69,19,15,24.1,99.19,,,NA,11.832
10-10-2023 16:00,10,10,16:00,11.2,5.2,67,19,20,24.1,99.22,,,Mostly Cloudy,12.08
10-10-2023 17:00,10,10,17:00,9.9,7.3,84,14,14,24.1,99.24,,,NA,12.976
10-10-2023 18:00,10,10,18:00,8.4,7,90,16,12,24.1,99.31,,,NA,11.496
10-10-2023 19:00,10,10,19:00,7.5,7,96,16,12,24.1,99.35,,,Mostly Cloudy,12.179
10-10-2023 20:00,10,10,20:00,6.5,6.5,100,15,13,24.1,99.37,,,NA,10.45
10-10-2023 21:00,10,10,21:00,6.2,6.2,100,14,13,24.1,99.39,,,NA,8.899
10-10-2023 22:00,10,10,22:00,6.7,6.7,100,16,11,24.1,99.39,,,Cloudy,8.614
10-10-2023 23:00,10,10,23:00,7.2,7.2,100,15,8,24.1,99.38,,,NA,8.784
11-10-2023 00:00,10,11,00:00,8,7.8,99,16,10,24.1,99.38,,,NA,8.715
11-10-2023 01:00,10,11,01:00,8.1,8,100,17,11,16.1,99.36,,,Rain,8.698
11-10-2023 02:00,10,11,02:00,7.9,7.9,100,16,8,16.1,99.34,,,Rain,8.608
11-10-2023 03:00,10,11,03:00,7.8,7.8,100,15,8,16.1,99.32,,,Rain,8.318
11-10-2023 04:00,10,11,04:00,7.7,7.7,100,15,8,12.9,99.32,,,Rain,8.56
11-10-2023 05:00,10,11,05:00,7.8,7.8,100,16,5,6.4,99.34,,,"Rain,Fog",8.358
11-10-2023 06:00,10,11,06:00,7.9,7.9,100,16,8,16.1,99.35,,,Rain,8.495
11-10-2023 07:00,10,11,07:00,8.1,8.1,100,19,11,12.9,99.39,,,Rain,15.564
11-10-2023 08:00,10,11,08:00,8.4,8.3,99,21,8,24.1,99.44,,,NA,14.363
11-10-2023 09:00,10,11,09:00,8.9,7.6,92,21,11,24.1,99.48,,,NA,15.487
11-10-2023 10:00,10,11,10:00,10,6.9,81,18,11,24.1,99.47,,,Mostly Cloudy,15.004
11-10-2023 11:00,10,11,11:00,10.9,7,76,20,17,24.1,99.52,,,NA,14.994
11-10-2023 12:00,10,11,12:00,11.6,6.4,71,21,12,24.1,99.46,,,NA,14.636
11-10-2023 13:00,10,11,13:00,12.9,7.2,68,21,12,24.1,99.44,,,Mostly Cloudy,14.568
11-10-2023 14:00,10,11,14:00,11.9,6.5,69,22,13,24.1,99.46,,,Rain,13.054
11-10-2023 15:00,10,11,15:00,12.5,6.8,68,23,10,24.1,99.45,,,NA,12.619
11-10-2023 16:00,10,11,16:00,12.9,5.7,62,23,9,24.1,99.47,,,Mostly Cloudy,13.275
11-10-2023 17:00,10,11,17:00,11.6,6.8,72,22,16,24.1,99.51,,,NA,12.639
11-10-2023 18:00,10,11,18:00,8.8,6.6,86,17,8,24.1,99.56,,,NA,11.012
11-10-2023 19:00,10,11,19:00,9,6.6,85,21,10,24.1,99.57,,,Mostly Cloudy,11.655
11-10-2023 20:00,10,11,20:00,8.7,6.5,86,21,8,24.1,99.58,,,NA,11.655
11-10-2023 21:00,10,11,21:00,8.6,7,90,18,9,24.1,99.63,,,Rain Showers,8.811
11-10-2023 22:00,10,11,22:00,8.7,8.1,95,18,11,24.1,99.64,,,Cloudy,8.552
11-10-2023 23:00,10,11,23:00,8.5,8,97,20,8,24.1,99.64,,,NA,8.932
12-10-2023 00:00,10,12,00:00,7.6,7.4,99,21,8,24.1,99.64,,,NA,8.676
12-10-2023 01:00,10,12,01:00,6.9,6.9,100,21,9,24.1,99.65,,,Mostly Cloudy,8.929
12-10-2023 02:00,10,12,02:00,7.3,7.3,100,21,7,24.1,99.63,,,NA,8.542
12-10-2023 03:00,10,12,03:00,7.4,7.2,98,22,8,24.1,99.64,,,NA,8.653
12-10-2023 04:00,10,12,04:00,7.6,7.5,99,23,8,24.1,99.68,,,Cloudy,8.439
12-10-2023 05:00,10,12,05:00,7.6,7.5,99,24,9,24.1,99.72,,,Rain Showers,8.537
12-10-2023 06:00,10,12,06:00,7.6,7.3,98,25,11,24.1,99.76,,,NA,8.49
12-10-2023 07:00,10,12,07:00,7.2,6.9,98,28,11,24.1,99.79,,,Mostly Cloudy,16.444
12-10-2023 08:00,10,12,08:00,8.1,6.9,92,28,14,24.1,99.87,,,NA,14.651
12-10-2023 09:00,10,12,09:00,8.9,6.3,83,29,14,24.1,99.88,,,NA,15.459
12-10-2023 10:00,10,12,10:00,9.4,4.2,70,33,16,24.1,99.91,,,Mostly Cloudy,14.605
12-10-2023 11:00,10,12,11:00,11.3,3.9,60,34,17,24.1,99.92,,,NA,15.07
12-10-2023 12:00,10,12,12:00,11,2.5,56,28,17,24.1,99.93,,,NA,13.893
12-10-2023 13:00,10,12,13:00,10.8,2.5,57,27,26,24.1,99.94,,,Mostly Cloudy,13.39
12-10-2023 14:00,10,12,14:00,12,3.2,55,29,19,24.1,99.97,,,NA,13.072
12-10-2023 15:00,10,12,15:00,11.2,3.2,58,29,23,24.1,99.96,,,NA,12.733
12-10-2023 16:00,10,12,16:00,10.2,2,57,31,21,24.1,100,,,Mainly Clear,11.698
12-10-2023 17:00,10,12,17:00,9.4,2.2,61,28,19,24.1,100.01,,,NA,11.982
12-10-2023 18:00,10,12,18:00,7.7,2.9,72,31,14,24.1,100.04,,,NA,11.333
12-10-2023 19:00,10,12,19:00,5.9,2.7,80,26,8,24.1,100.09,,,Mainly Clear,10.947
12-10-2023 20:00,10,12,20:00,4.6,2.7,87,26,9,24.1,100.12,,,NA,11.095
12-10-2023 21:00,10,12,21:00,5.3,3.4,87,28,12,24.1,100.13,,,NA,8.541
12-10-2023 22:00,10,12,22:00,6.4,4.1,85,31,14,24.1,100.13,,,Mainly Clear,8.521
12-10-2023 23:00,10,12,23:00,5,3.9,92,31,9,24.1,100.11,,,NA,8.492
13-10-2023 00:00,10,13,00:00,4.2,3.9,98,24,9,24.1,100.15,,,NA,8.508
13-10-2023 01:00,10,13,01:00,4.1,4,99,30,10,24.1,100.15,,,Mainly Clear,8.66
13-10-2023 02:00,10,13,02:00,5.1,5,100,29,12,24.1,100.15,,,NA,8.455
13-10-2023 03:00,10,13,03:00,4.3,4.3,100,28,13,24.1,100.18,,,NA,8.276
13-10-2023 04:00,10,13,04:00,5.7,5.7,100,29,16,24.1,100.22,,,Mainly Clear,8.502
13-10-2023 05:00,10,13,05:00,4.8,4.8,100,27,13,24.1,100.27,,,NA,8.35
13-10-2023 06:00,10,13,06:00,5.9,5.9,100,30,14,24.1,100.27,,,NA,8.354
13-10-2023 07:00,10,13,07:00,6.4,6.2,99,31,13,24.1,100.32,,,Clear,16.392
13-10-2023 08:00,10,13,08:00,8.6,7.2,91,32,19,24.1,100.35,,,NA,14.436
13-10-2023 09:00,10,13,09:00,9.7,7.8,88,31,20,24.1,100.37,,,NA,16.241
13-10-2023 10:00,10,13,10:00,11.9,7,72,34,22,24.1,100.36,,,Mainly Clear,15.442
13-10-2023 11:00,10,13,11:00,13.6,7.1,65,31,22,24.1,100.35,,,NA,15.255
13-10-2023 12:00,10,13,12:00,13.6,5.6,58,35,20,24.1,100.32,,,NA,15.237
13-10-2023 13:00,10,13,13:00,13.6,6.1,60,31,14,24.1,100.31,,,Mostly Cloudy,15.025
13-10-2023 14:00,10,13,14:00,14.6,6,56,29,13,24.1,100.27,,,NA,13.595
13-10-2023 15:00,10,13,15:00,13.6,7.4,66,29,12,24.1,100.24,,,NA,12.451
13-10-2023 16:00,10,13,16:00,12.9,6.9,67,30,17,24.1,100.25,,,Rain Showers,13.203
13-10-2023 17:00,10,13,17:00,12.5,6.3,66,30,9,24.1,100.26,,,NA,12.595
13-10-2023 18:00,10,13,18:00,11,6.8,75,28,5,24.1,100.25,,,NA,11.984
13-10-2023 19:00,10,13,19:00,11,7.7,80,29,9,24.1,100.26,,,Mostly Cloudy,11.089
13-10-2023 20:00,10,13,20:00,9.2,5.9,80,32,12,24.1,100.27,,,NA,11.467
13-10-2023 21:00,10,13,21:00,9.5,6.2,80,33,12,24.1,100.25,,,NA,8.654
13-10-2023 22:00,10,13,22:00,9,5.7,80,35,16,24.1,100.2,,,Clear,9.149
13-10-2023 23:00,10,13,23:00,8.4,6.2,86,33,12,24.1,100.18,,,NA,9.575
14-10-2023 00:00,10,14,00:00,7.3,6.8,97,26,12,24.1,100.17,,,NA,8.81
14-10-2023 01:00,10,14,01:00,7.5,6.1,91,32,12,24.1,100.13,,,Mostly Cloudy,8.82
14-10-2023 02:00,10,14,02:00,7.8,7,94,31,10,24.1,100.12,,,NA,8.406
14-10-2023 03:00,10,14,03:00,7.3,6,92,33,13,24.1,100.07,,,NA,8.487
14-10-2023 04:00,10,14,04:00,5.7,5.2,96,31,12,24.1,100.06,,,Mainly Clear,8.708
14-10-2023 05:00,10,14,05:00,7.8,6.9,94,32,13,24.1,100.05,,,NA,8.466
14-10-2023 06:00,10,14,06:00,8.2,6.6,89,33,14,24.1,100.04,,,NA,8.131
14-10-2023 07:00,10,14,07:00,8.4,6.8,90,33,15,24.1,100.01,,,Mostly Cloudy,8.759
14-10-2023 08:00,10,14,08:00,9,6.8,86,34,13,24.1,99.97,,,NA,8.772
14-10-2023 09:00,10,14,09:00,11.6,7,73,35,11,24.1,99.91,,,NA,8.566
14-10-2023 10:00,10,14,10:00,12.8,7,68,1,15,24.1,99.84,,,Mostly Cloudy,8.405
14-10-2023 11:00,10,14,11:00,13.3,6.5,63,34,16,24.1,99.78,,,NA,8.897
14-10-2023 12:00,10,14,12:00,13.6,6,60,1,15,24.1,99.69,,,NA,8.36
14-10-2023 13:00,10,14,13:00,13.1,5.6,60,35,12,24.1,99.59,,,Cloudy,8.637
14-10-2023 14:00,10,14,14:00,14,5,54,35,20,24.1,99.53,,,NA,8.245
14-10-2023 15:00,10,14,15:00,13.6,5.5,58,33,17,24.1,99.51,,,NA,8.555
14-10-2023 16:00,10,14,16:00,13.3,4.9,56,34,21,24.1,99.5,,,Mostly Cloudy,8.307
14-10-2023 17:00,10,14,17:00,11.9,5.2,63,35,11,24.1,99.49,,,NA,8.251
14-10-2023 18:00,10,14,18:00,9.3,4.9,74,31,14,24.1,99.46,,,NA,8.374
14-10-2023 19:00,10,14,19:00,9.8,5.3,73,34,16,24.1,99.42,,,Mainly Clear,8.695
14-10-2023 20:00,10,14,20:00,9.3,5.1,75,33,15,24.1,99.42,,,NA,8.293
14-10-2023 21:00,10,14,21:00,8.8,5.6,80,32,19,24.1,99.39,,,NA,8.592
14-10-2023 22:00,10,14,22:00,8.2,5.7,84,32,21,24.1,99.35,,,Mainly Clear,8.785
14-10-2023 23:00,10,14,23:00,7.9,5,81,31,20,24.1,99.28,,,NA,8.409
15-10-2023 00:00,10,15,00:00,6.8,4.7,86,32,16,24.1,99.23,,,NA,8.573
15-10-2023 01:00,10,15,01:00,5.9,4.2,89,31,10,24.1,99.21,,,Mainly Clear,8.639
15-10-2023 02:00,10,15,02:00,6,5.3,95,30,16,24.1,99.15,,,NA,8.841
15-10-2023 03:00,10,15,03:00,4.7,4.6,99,28,9,24.1,99.11,,,NA,8.566
15-10-2023 04:00,10,15,04:00,6,5.3,95,28,14,24.1,99.06,,,Mainly Clear,8.407
15-10-2023 05:00,10,15,05:00,5.6,5,96,27,14,24.1,99.01,,,NA,8.634
15-10-2023 06:00,10,15,06:00,7.3,6.7,96,30,17,24.1,98.99,,,NA,8.369
15-10-2023 07:00,10,15,07:00,7.8,6.9,94,30,19,24.1,98.97,,,Rain Showers,8.536
15-10-2023 08:00,10,15,08:00,8.6,7.3,91,31,18,24.1,98.94,,,NA,8.257
15-10-2023 09:00,10,15,09:00,9.1,5.6,79,34,24,24.1,98.92,,,NA,8.546
15-10-2023 10:00,10,15,10:00,9.6,5.2,74,33,19,24.1,98.89,,,Cloudy,8.463
15-10-2023 11:00,10,15,11:00,10.5,5.8,72,32,23,24.1,98.87,,,NA,8.714
15-10-2023 12:00,10,15,12:00,10.1,7.2,82,33,22,24.1,98.83,,,NA,8.194
15-10-2023 13:00,10,15,13:00,10.2,8.1,87,33,19,16.1,98.82,,,Rain Showers,8.683
15-10-2023 14:00,10,15,14:00,9.8,8.2,90,29,10,24.1,98.82,,,Rain Showers,8.167
15-10-2023 15:00,10,15,15:00,11.1,7.5,79,32,11,24.1,98.84,,,Rain Showers,8.557
15-10-2023 16:00,10,15,16:00,9.9,9.3,96,31,11,24.1,98.86,,,Rain Showers,8.311
15-10-2023 17:00,10,15,17:00,10.6,8.6,87,31,14,24.1,98.89,,,Rain Showers,7.95
15-10-2023 18:00,10,15,18:00,9.8,9.7,99,31,12,8.1,98.94,,,"Rain,Fog",8.336
15-10-2023 19:00,10,15,19:00,10.3,9.1,92,32,22,24.1,98.97,,,Cloudy,8.082
15-10-2023 20:00,10,15,20:00,10.4,9.1,92,33,22,24.1,99,,,NA,8.49
15-10-2023 21:00,10,15,21:00,10.2,9.1,93,32,18,24.1,99,,,NA,8.339
15-10-2023 22:00,10,15,22:00,10,9.1,94,32,14,24.1,99,,,Mostly Cloudy,8.315
15-10-2023 23:00,10,15,23:00,10.2,9.2,93,31,13,24.1,98.99,,,NA,8.357
16-10-2023 00:00,10,16,00:00,10.3,9.3,93,33,15,24.1,99.03,,,NA,8.399
16-10-2023 01:00,10,16,01:00,10.4,9.4,94,32,21,24.1,99.04,,,Mostly Cloudy,8.541
16-10-2023 02:00,10,16,02:00,10.4,9.6,95,32,14,24.1,99.07,,,NA,7.99
16-10-2023 03:00,10,16,03:00,10.3,9.5,95,31,11,24.1,99.07,,,NA,8.44
16-10-2023 04:00,10,16,04:00,10.2,9.4,95,32,12,24.1,99.08,,,Mostly Cloudy,8.005
16-10-2023 05:00,10,16,05:00,9.7,9.2,97,31,12,24.1,99.11,,,NA,8.719
16-10-2023 06:00,10,16,06:00,10.4,9.3,93,34,17,24.1,99.14,,,NA,8.238
16-10-2023 07:00,10,16,07:00,10.5,9.6,94,33,15,24.1,99.18,,,Mostly Cloudy,16.688
16-10-2023 08:00,10,16,08:00,11.6,8.6,82,35,20,24.1,99.23,,,NA,14.067
16-10-2023 09:00,10,16,09:00,12.3,8.2,76,34,21,24.1,99.27,,,NA,13.816
16-10-2023 10:00,10,16,10:00,11.7,8.2,79,33,21,24.1,99.32,,,Mostly Cloudy,16.16
16-10-2023 11:00,10,16,11:00,14,8.1,67,33,26,24.1,99.33,,,NA,14.265
16-10-2023 12:00,10,16,12:00,12.5,7.6,72,35,19,24.1,99.33,,,NA,14.643
16-10-2023 13:00,10,16,13:00,13.3,7.1,66,36,22,24.1,99.34,,,Mostly Cloudy,13.845
16-10-2023 14:00,10,16,14:00,13.8,7.1,63,35,23,24.1,99.37,,,NA,12.979
16-10-2023 15:00,10,16,15:00,14.4,6.8,60,34,32,24.1,99.37,,,NA,13.456
16-10-2023 16:00,10,16,16:00,12.5,6.5,66,34,19,24.1,99.41,,,Mostly Cloudy,13.38
16-10-2023 17:00,10,16,17:00,11.5,6.2,70,34,14,24.1,99.46,,,NA,11.831
16-10-2023 18:00,10,16,18:00,10.5,5.7,72,35,17,24.1,99.55,,,NA,11.97
16-10-2023 19:00,10,16,19:00,9.7,5.6,75,35,16,24.1,99.6,,,Clear,11.335
16-10-2023 20:00,10,16,20:00,9,5.5,79,35,14,24.1,99.64,,,NA,11.911
16-10-2023 21:00,10,16,21:00,6.8,4.6,85,32,11,24.1,99.7,,,NA,8.821
16-10-2023 22:00,10,16,22:00,5.5,4.1,91,31,13,24.1,99.71,,,Clear,8.796
16-10-2023 23:00,10,16,23:00,5.7,4.9,94,33,9,24.1,99.72,,,NA,8.713
17-10-2023 00:00,10,17,00:00,6.7,5.3,91,33,10,24.1,99.72,,,NA,8.765
17-10-2023 01:00,10,17,01:00,4.9,4.4,97,32,8,24.1,99.73,,,Clear,8.76
17-10-2023 02:00,10,17,02:00,4.4,3.9,97,32,13,24.1,99.75,,,NA,8.678
17-10-2023 03:00,10,17,03:00,4.3,4.2,100,34,8,24.1,99.76,,,NA,8.176
17-10-2023 04:00,10,17,04:00,4.8,4.8,100,28,5,24.1,99.8,,,Mainly Clear,7.694
17-10-2023 05:00,10,17,05:00,4.1,4,100,25,8,24.1,99.84,,,NA,7.608
17-10-2023 06:00,10,17,06:00,4.6,4.6,100,29,5,24.1,99.89,,,NA,12.324
17-10-2023 07:00,10,17,07:00,5.5,5.5,100,27,4,24.1,99.97,,,Mostly Cloudy,12.995
17-10-2023 08:00,10,17,08:00,8,7.8,99,29,8,24.1,100.04,,,NA,13.546
17-10-2023 09:00,10,17,09:00,8.9,6.8,87,31,13,24.1,100.07,,,NA,13.57
17-10-2023 10:00,10,17,10:00,9.6,5.9,78,32,12,24.1,100.1,,,Mostly Cloudy,14.175
17-10-2023 11:00,10,17,11:00,10.3,5.4,71,36,5,24.1,100.11,,,NA,15.448
17-10-2023 12:00,10,17,12:00,11.8,6.2,68,25,11,24.1,100.08,,,NA,15.213
17-10-2023 13:00,10,17,13:00,12.1,4.8,61,26,11,24.1,100.07,,,Mostly Cloudy,13.747
17-10-2023 14:00,10,17,14:00,12.7,4.4,57,21,9,24.1,100.07,,,NA,13.882
17-10-2023 15:00,10,17,15:00,13.7,6,60,15,14,24.1,100.07,,,NA,12.718
17-10-2023 16:00,10,17,16:00,13.1,5.4,59,13,9,24.1,100.09,,,Mainly Clear,13.429
17-10-2023 17:00,10,17,17:00,10.4,5,69,15,8,24.1,100.13,,,NA,11.367
17-10-2023 18:00,10,17,18:00,10.1,4.7,69,18,8,24.1,100.18,,,NA,11.027
17-10-2023 19:00,10,17,19:00,8.8,4.6,75,17,9,24.1,100.21,,,Clear,10.67
17-10-2023 20:00,10,17,20:00,7.8,4.6,80,17,9,24.1,100.28,,,NA,11.375
17-10-2023 21:00,10,17,21:00,6.9,4.5,85,19,8,24.1,100.31,,,NA,10.816
17-10-2023 22:00,10,17,22:00,6.2,4.3,88,18,8,24.1,100.33,,,Clear,10.993
17-10-2023 23:00,10,17,23:00,6.2,4.5,89,17,8,24.1,100.36,,,NA,10.717
18-10-2023 00:00,10,18,00:00,5.9,4.6,91,17,7,24.1,100.36,,,NA,10.979
18-10-2023 01:00,10,18,01:00,6.3,5,92,19,7,24.1,100.38,,,Mainly Clear,10.827
18-10-2023 02:00,10,18,02:00,6.2,5.5,95,20,8,24.1,100.4,,,NA,10.716
18-10-2023 03:00,10,18,03:00,6,5.5,97,19,8,24.1,100.4,,,NA,10.958
18-10-2023 04:00,10,18,04:00,6.1,5.9,98,19,6,24.1,100.43,,,Mostly Cloudy,11.005
18-10-2023 05:00,10,18,05:00,6,5.8,99,22,5,24.1,100.47,,,NA,10.934
18-10-2023 06:00,10,18,06:00,5.2,5.2,100,27,4,24.1,100.51,,,NA,16.786
18-10-2023 07:00,10,18,07:00,5.4,5.4,100,23,4,24.1,100.56,,,Mostly Cloudy,14.444
18-10-2023 08:00,10,18,08:00,6.8,6.1,95,21,3,24.1,100.58,,,NA,14.117
18-10-2023 09:00,10,18,09:00,8.1,6.2,88,25,9,24.1,100.64,,,NA,15.473
18-10-2023 10:00,10,18,10:00,9.3,6.1,80,25,9,24.1,100.66,,,Mostly Cloudy,13.86
18-10-2023 11:00,10,18,11:00,10.3,5.7,73,26,7,24.1,100.67,,,NA,12.865
18-10-2023 12:00,10,18,12:00,11.7,6,68,18,8,24.1,100.65,,,NA,14.035
18-10-2023 13:00,10,18,13:00,13.7,5.2,56,29,6,24.1,100.56,,,Mostly Cloudy,13.957
18-10-2023 14:00,10,18,14:00,13.9,5.5,56,20,9,24.1,100.53,,,NA,13.456
18-10-2023 15:00,10,18,15:00,14.1,5.1,54,20,11,24.1,100.5,,,NA,13.289
18-10-2023 16:00,10,18,16:00,13.6,5.8,59,18,7,24.1,100.48,,,Mostly Cloudy,12.041
18-10-2023 17:00,10,18,17:00,12.8,8.2,73,18,18,24.1,100.48,,,NA,12.31
18-10-2023 18:00,10,18,18:00,12,8.5,79,18,9,24.1,100.49,,,NA,11.641
18-10-2023 19:00,10,18,19:00,11.7,7.3,74,21,12,24.1,100.5,,,Cloudy,11.703
18-10-2023 20:00,10,18,20:00,10.9,7.1,78,19,10,24.1,100.53,,,NA,11.079
18-10-2023 21:00,10,18,21:00,10.6,6.6,76,20,10,24.1,100.54,,,NA,8.781
18-10-2023 22:00,10,18,22:00,10.5,6.9,78,22,10,24.1,100.49,,,Cloudy,8.423
18-10-2023 23:00,10,18,23:00,10.3,7.1,80,24,7,24.1,100.49,,,NA,9.132
19-10-2023 00:00,10,19,00:00,9.8,7.2,84,18,6,24.1,100.48,,,NA,8.969
19-10-2023 01:00,10,19,01:00,10.1,7.1,82,19,9,24.1,100.45,,,Cloudy,8.768
19-10-2023 02:00,10,19,02:00,10.2,7.1,81,18,13,24.1,100.44,,,NA,8.781
19-10-2023 03:00,10,19,03:00,10.2,7.6,84,19,10,24.1,100.41,,,NA,8.656
19-10-2023 04:00,10,19,04:00,10,7.6,85,19,9,24.1,100.4,,,Cloudy,8.796
19-10-2023 05:00,10,19,05:00,9.4,7.6,88,17,7,24.1,100.39,,,NA,8.694
19-10-2023 06:00,10,19,06:00,8.8,7.3,91,17,9,24.1,100.38,,,NA,13.419
19-10-2023 07:00,10,19,07:00,9,7.2,88,17,8,24.1,100.4,,,Mostly Cloudy,14.548
19-10-2023 08:00,10,19,08:00,10.2,6.7,79,19,17,24.1,100.39,,,NA,15.704
19-10-2023 09:00,10,19,09:00,11.7,6.8,72,20,19,24.1,100.36,,,NA,14.617
19-10-2023 10:00,10,19,10:00,13.9,7.4,65,21,18,24.1,100.32,,,Mostly Cloudy,15.212
19-10-2023 11:00,10,19,11:00,14.8,6.5,57,16,18,24.1,100.21,,,NA,15.835
19-10-2023 12:00,10,19,12:00,16.1,5.5,49,17,18,24.1,100.15,,,NA,14.713
19-10-2023 13:00,10,19,13:00,16.4,3.8,43,18,22,24.1,100.02,,,Mostly Cloudy,12.824
19-10-2023 14:00,10,19,14:00,16,3.3,42,17,20,24.1,99.96,,,NA,13.448
19-10-2023 15:00,10,19,15:00,15.6,3.9,45,18,18,24.1,99.96,,,NA,12.955
19-10-2023 16:00,10,19,16:00,14.4,5,53,20,11,24.1,99.9,,,Mostly Cloudy,12.513
19-10-2023 17:00,10,19,17:00,13.3,5.2,58,17,5,24.1,99.86,,,NA,11.966
19-10-2023 18:00,10,19,18:00,11.6,5.8,68,13,8,24.1,99.86,,,NA,11.624
19-10-2023 19:00,10,19,19:00,11.3,5.9,69,13,8,24.1,99.81,,,Mostly Cloudy,11.351
19-10-2023 20:00,10,19,20:00,10.8,5.6,70,13,9,24.1,99.73,,,NA,11.431
19-10-2023 21:00,10,19,21:00,11.4,5.9,69,13,12,24.1,99.68,,,NA,8.651
19-10-2023 22:00,10,19,22:00,11.4,6,70,14,11,24.1,99.6,,,Mostly Cloudy,8.503
19-10-2023 23:00,10,19,23:00,11.1,6.4,73,15,13,24.1,99.52,,,NA,8.731
20-10-2023 00:00,10,20,00:00,10.9,6.9,76,17,8,24.1,99.48,,,NA,8.671
20-10-2023 01:00,10,20,01:00,11.7,7.8,77,16,11,24.1,99.39,,,Mostly Cloudy,8.752
20-10-2023 02:00,10,20,02:00,11.9,8.2,78,16,13,24.1,99.34,,,NA,8.714
20-10-2023 03:00,10,20,03:00,11.5,8.4,81,15,5,24.1,99.28,,,NA,8.557
20-10-2023 04:00,10,20,04:00,11.5,8.9,84,15,9,24.1,99.23,,,Mostly Cloudy,8.536
20-10-2023 05:00,10,20,05:00,10.8,9.1,89,10,9,24.1,99.2,,,NA,8.451
20-10-2023 06:00,10,20,06:00,11.1,9.1,87,13,13,24.1,99.15,,,NA,14.155
20-10-2023 07:00,10,20,07:00,10.9,9.1,89,14,14,24.1,99.11,,,Mostly Cloudy,14.146
20-10-2023 08:00,10,20,08:00,12.9,9.5,79,16,17,24.1,99.11,,,NA,15.228
20-10-2023 09:00,10,20,09:00,14.1,9.6,74,16,19,24.1,99.03,,,NA,14.553
20-10-2023 10:00,10,20,10:00,15.4,9.7,68,16,24,24.1,99,,,Mostly Cloudy,14.287
20-10-2023 11:00,10,20,11:00,18,9.8,59,16,28,24.1,98.93,,,NA,14.995
20-10-2023 12:00,10,20,12:00,18.8,9.6,55,17,21,24.1,98.84,,,NA,14.472
20-10-2023 13:00,10,20,13:00,18,9.8,59,16,18,24.1,98.75,,,Mostly Cloudy,13.256
20-10-2023 14:00,10,20,14:00,18.2,9.8,57,16,13,24.1,98.69,,,NA,12.37
20-10-2023 15:00,10,20,15:00,17.5,9.5,59,16,19,24.1,98.69,,,NA,13.185
20-10-2023 16:00,10,20,16:00,16.6,9.8,64,16,7,24.1,98.64,,,Cloudy,11.666
20-10-2023 17:00,10,20,17:00,15.2,10.6,74,24,6,24.1,98.62,,,NA,11.867
20-10-2023 18:00,10,20,18:00,14.2,11.1,81,28,10,24.1,98.62,,,NA,11.769
20-10-2023 19:00,10,20,19:00,13.5,12.2,92,25,10,24.1,98.62,,,Cloudy,11.334
20-10-2023 20:00,10,20,20:00,12.5,12.4,99,24,5,24.1,98.58,,,Rain,12.252
20-10-2023 21:00,10,20,21:00,12.6,12.5,100,21,6,24.1,98.57,,,NA,8.875
20-10-2023 22:00,10,20,22:00,12.3,12.3,100,16,5,24.1,98.54,,,Rain,9.056
20-10-2023 23:00,10,20,23:00,11.6,11.6,100,14,5,24.1,98.47,,,Rain,9.065
21-10-2023 00:00,10,21,00:00,11.8,11.8,100,11,6,24.1,98.41,,,Rain,8.85
21-10-2023 01:00,10,21,01:00,11.7,11.7,100,9,4,24.1,98.35,,,Rain,8.858
21-10-2023 02:00,10,21,02:00,11.6,11.6,100,7,8,16.1,98.25,,,Rain,9.055
21-10-2023 03:00,10,21,03:00,11.6,11.6,100,9,7,4.8,98.21,,,"Rain,Fog",8.819
21-10-2023 04:00,10,21,04:00,11.7,11.7,100,8,5,8.1,98.16,,,"Rain,Fog",8.795
21-10-2023 05:00,10,21,05:00,11.8,11.8,100,9,4,16.1,98.13,,,Rain,9.082
21-10-2023 06:00,10,21,06:00,11.7,11.7,100,12,3,6.4,98.11,,,"Drizzle,Fog",8.789
21-10-2023 07:00,10,21,07:00,11.7,11.7,100,36,1,1.6,98.07,,,"Drizzle,Fog",8.669
21-10-2023 08:00,10,21,08:00,11.8,11.8,100,36,1,1.6,98.04,,,"Drizzle,Fog",8.59
21-10-2023 09:00,10,21,09:00,12.2,12.2,100,27,5,1.2,97.99,,,"Drizzle,Fog",8.777
21-10-2023 10:00,10,21,10:00,12.2,12.2,100,28,11,2.4,97.94,,,"Rain Showers,Fog",8.588
21-10-2023 11:00,10,21,11:00,12.6,12.6,100,32,10,4.8,97.88,,,"Rain,Fog",8.713
21-10-2023 12:00,10,21,12:00,12.7,12.7,100,29,16,6.4,97.83,,,"Drizzle,Fog",8.842
21-10-2023 13:00,10,21,13:00,13.1,13.1,100,29,17,9.7,97.8,,,"Rain Showers,Fog",8.693
21-10-2023 14:00,10,21,14:00,11,10.9,100,28,27,24.1,97.79,,,NA,8.739
21-10-2023 15:00,10,21,15:00,10,10,100,28,28,16.1,97.82,,,Drizzle,8.906
21-10-2023 16:00,10,21,16:00,9.4,9.4,100,28,27,19.3,97.88,,,Drizzle,8.855
21-10-2023 17:00,10,21,17:00,9.2,8.2,93,29,30,24.1,97.92,,,NA,8.406
21-10-2023 18:00,10,21,18:00,8.7,7.3,91,30,30,24.1,97.97,,,NA,8.954
21-10-2023 19:00,10,21,19:00,8.2,6.8,91,30,22,24.1,98.03,,,Cloudy,9.01
21-10-2023 20:00,10,21,20:00,7.8,5.6,86,30,31,24.1,98.05,,,NA,8.809
21-10-2023 21:00,10,21,21:00,7.7,5.7,87,29,23,24.1,98.1,,,NA,8.927
21-10-2023 22:00,10,21,22:00,7.2,5.7,90,29,32,24.1,98.13,,,Cloudy,8.763
21-10-2023 23:00,10,21,23:00,7.1,4.8,85,30,26,24.1,98.16,,,NA,8.577
22-10-2023 00:00,10,22,00:00,6.6,4.8,89,30,25,24.1,98.19,,,Drizzle,9.022
22-10-2023 01:00,10,22,01:00,6.2,3.3,82,30,31,24.1,98.22,,,Cloudy,8.865
22-10-2023 02:00,10,22,02:00,5.7,3.2,84,30,28,24.1,98.27,,,Drizzle,8.799
22-10-2023 03:00,10,22,03:00,5.4,2.7,83,30,36,24.1,98.32,,,Rain,8.676
22-10-2023 04:00,10,22,04:00,4.7,3.4,91,29,29,12.9,98.4,,,Rain,8.881
22-10-2023 05:00,10,22,05:00,4.4,3.6,95,29,24,12.9,98.47,,,NA,8.833
22-10-2023 06:00,10,22,06:00,4.2,3.5,95,29,20,16.1,98.52,,,Rain,8.698
22-10-2023 07:00,10,22,07:00,4.1,3.1,93,30,30,24.1,98.61,,,Rain,8.695
22-10-2023 08:00,10,22,08:00,4.2,3.2,93,30,26,8.1,98.68,,,"Rain,Fog",8.804
22-10-2023 09:00,10,22,09:00,4.3,3.2,93,30,29,8.1,98.74,,,"Rain,Fog",8.346
22-10-2023 10:00,10,22,10:00,4.5,3.5,94,30,31,8.1,98.79,,,"Rain,Fog",8.616
22-10-2023 11:00,10,22,11:00,4.7,3.6,92,30,30,8.1,98.86,,,"Rain,Fog",8.936
22-10-2023 12:00,10,22,12:00,4.7,3.7,93,30,29,8.1,98.91,,,"Rain,Fog",8.568
22-10-2023 13:00,10,22,13:00,4.4,3.5,94,30,30,6.4,98.96,,,"Rain,Fog",8.59
22-10-2023 14:00,10,22,14:00,4.5,3.9,96,30,27,8.1,99.02,,,"Rain,Fog",8.592
22-10-2023 15:00,10,22,15:00,4.7,4.2,96,30,24,6.4,99.14,,,"Rain,Fog",8.475
22-10-2023 16:00,10,22,16:00,4.8,4.1,95,31,26,8.1,99.27,,,"Rain,Fog",8.602
22-10-2023 17:00,10,22,17:00,4.8,3.9,94,32,35,16.1,99.4,,,Rain,8.416
22-10-2023 18:00,10,22,18:00,4.7,3.7,93,32,31,16.1,99.55,,,Rain,8.376
22-10-2023 19:00,10,22,19:00,4.5,3.5,93,32,32,16.1,99.68,,,Rain,8.452
22-10-2023 20:00,10,22,20:00,4.4,3.4,94,32,29,16.1,99.8,,,Rain,8.682
22-10-2023 21:00,10,22,21:00,4.5,3.3,92,32,24,24.1,99.9,,,NA,8.453
22-10-2023 22:00,10,22,22:00,4.7,3.1,89,32,25,24.1,99.97,,,Cloudy,8.46
22-10-2023 23:00,10,22,23:00,5,2.6,84,32,27,24.1,100.04,,,NA,8.639
23-10-2023 00:00,10,23,00:00,4.8,2.3,83,33,22,24.1,100.1,,,NA,8.69
23-10-2023 01:00,10,23,01:00,4.1,2.1,87,31,14,24.1,100.17,,,Mostly Cloudy,8.404
23-10-2023 02:00,10,23,02:00,4.2,2.1,86,31,19,24.1,100.23,,,NA,8.74
23-10-2023 03:00,10,23,03:00,2.8,1.9,93,30,15,24.1,100.29,,,NA,8.49
23-10-2023 04:00,10,23,04:00,1.8,1.3,96,29,8,24.1,100.38,,,Clear,8.586
23-10-2023 05:00,10,23,05:00,1.2,0.9,98,26,9,24.1,100.47,,,NA,8.262
23-10-2023 06:00,10,23,06:00,0.3,0,98,27,10,24.1,100.56,,,NA,8.423
23-10-2023 07:00,10,23,07:00,0.8,0.5,98,28,11,24.1,100.69,,,Clear,15.798
23-10-2023 08:00,10,23,08:00,2.8,1.7,92,28,17,24.1,100.78,,,NA,13.934
23-10-2023 09:00,10,23,09:00,4.5,2,84,30,18,24.1,100.83,,,NA,13.478
23-10-2023 10:00,10,23,10:00,6,2.2,77,27,16,24.1,100.88,,,Clear,12.985
23-10-2023 11:00,10,23,11:00,7.1,2.3,71,29,14,24.1,100.89,,,NA,12.727
23-10-2023 12:00,10,23,12:00,8.6,2.5,65,28,16,24.1,100.89,,,NA,12.468
23-10-2023 13:00,10,23,13:00,10.1,2,57,29,12,24.1,100.87,,,Mainly Clear,12.864
23-10-2023 14:00,10,23,14:00,10,1.5,55,30,14,24.1,100.9,,,NA,12.981
23-10-2023 15:00,10,23,15:00,10.2,1.5,55,31,9,24.1,100.89,,,NA,11.424
23-10-2023 16:00,10,23,16:00,9.3,0.1,53,24,12,24.1,100.91,,,Mainly Clear,11.246
23-10-2023 17:00,10,23,17:00,7.8,0.5,60,29,5,24.1,100.93,,,NA,10.028
23-10-2023 18:00,10,23,18:00,6.3,-0.1,63,31,4,24.1,100.96,,,NA,9.258
23-10-2023 19:00,10,23,19:00,1.7,-1.5,80,10,3,24.1,100.96,,,Mainly Clear,9.163
23-10-2023 20:00,10,23,20:00,1.9,0.2,88,13,6,24.1,100.97,,,NA,9.342
23-10-2023 21:00,10,23,21:00,2.5,-0.3,81,16,12,24.1,100.97,,,NA,9.309
23-10-2023 22:00,10,23,22:00,3.7,1.2,84,17,9,24.1,100.99,,,Mostly Cloudy,8.971
23-10-2023 23:00,10,23,23:00,3.3,2,91,17,9,24.1,101,,,NA,8.88
24-10-2023 00:00,10,24,00:00,3.7,2.6,93,18,8,24.1,101.01,,,NA,8.946
24-10-2023 01:00,10,24,01:00,3.9,3,94,17,9,24.1,101.02,,,Cloudy,9.087
24-10-2023 02:00,10,24,02:00,4.3,3.5,94,18,7,24.1,101.02,,,NA,9.121
24-10-2023 03:00,10,24,03:00,4.5,3.8,96,18,6,24.1,101.06,,,NA,8.848
24-10-2023 04:00,10,24,04:00,4.9,4.2,95,15,9,24.1,101.03,,,Cloudy,9.12
24-10-2023 05:00,10,24,05:00,5.1,4.6,96,23,4,24.1,101.08,,,NA,8.978
24-10-2023 06:00,10,24,06:00,5.3,5,98,12,8,24.1,101.03,,,Rain,8.972
24-10-2023 07:00,10,24,07:00,5.5,5.3,98,11,9,24.1,101.01,,,Mostly Cloudy,15.838
24-10-2023 08:00,10,24,08:00,6.3,5.5,94,14,9,24.1,101.02,,,NA,13.819
24-10-2023 09:00,10,24,09:00,7.5,5.6,88,12,8,24.1,100.99,,,NA,13.792
24-10-2023 10:00,10,24,10:00,8.5,4.8,77,16,8,24.1,100.99,,,Mostly Cloudy,13.014
24-10-2023 11:00,10,24,11:00,9.5,4.7,72,14,8,24.1,100.96,,,NA,12.941
24-10-2023 12:00,10,24,12:00,10.3,4.9,69,15,13,24.1,100.88,,,NA,13.605
24-10-2023 13:00,10,24,13:00,11.3,5.2,66,15,9,24.1,100.83,,,Cloudy,13.96
24-10-2023 14:00,10,24,14:00,11.3,6,70,15,11,24.1,100.81,,,NA,12.209
24-10-2023 15:00,10,24,15:00,11.7,5.9,67,15,10,24.1,100.75,,,NA,11.692
24-10-2023 16:00,10,24,16:00,11.5,6.4,71,12,12,24.1,100.69,,,Cloudy,10.992
24-10-2023 17:00,10,24,17:00,10.8,6.2,73,12,13,24.1,100.59,,,NA,10.069
24-10-2023 18:00,10,24,18:00,10,6.3,78,4,12,24.1,100.65,,,NA,10.884
24-10-2023 19:00,10,24,19:00,9.8,7.2,84,9,10,16.1,100.65,,,Rain Showers,7.091
24-10-2023 20:00,10,24,20:00,9.5,8,90,3,17,16.1,100.65,,,Rain Showers,7.298
24-10-2023 21:00,10,24,21:00,8.9,8.4,96,4,13,24.1,100.62,,,NA,7.506
24-10-2023 22:00,10,24,22:00,8.8,8.3,97,6,13,24.1,100.56,,,Cloudy,7.436
24-10-2023 23:00,10,24,23:00,8.4,8.2,98,8,13,24.1,100.52,,,NA,7.311
25-10-2023 00:00,10,25,00:00,7.9,7.9,100,9,8,24.1,100.49,,,NA,7.434
25-10-2023 01:00,10,25,01:00,8.6,8.5,99,5,10,24.1,100.52,,,Cloudy,7.571
25-10-2023 02:00,10,25,02:00,9.1,8.9,99,10,7,24.1,100.48,,,NA,7.383
25-10-2023 03:00,10,25,03:00,8.7,8.7,100,4,13,24.1,100.41,,,NA,7.635
25-10-2023 04:00,10,25,04:00,8.8,8.8,100,6,5,24.1,100.38,,,Cloudy,7.515
25-10-2023 05:00,10,25,05:00,10.9,10.2,95,19,9,24.1,100.35,,,NA,7.459
25-10-2023 06:00,10,25,06:00,12.4,11,91,22,11,24.1,100.36,,,NA,7.516
25-10-2023 07:00,10,25,07:00,11.9,11.3,96,20,9,24.1,100.39,,,Mostly Cloudy,14.176
25-10-2023 08:00,10,25,08:00,12.5,11.3,92,18,13,24.1,100.43,,,NA,13.236
25-10-2023 09:00,10,25,09:00,13.4,11.6,89,20,17,19.3,100.45,,,NA,12.543
25-10-2023 10:00,10,25,10:00,15.2,11.9,81,23,16,24.1,100.5,,,Cloudy,11.446
25-10-2023 11:00,10,25,11:00,15.4,13.3,87,23,13,16.1,100.5,,,Rain,11.256
25-10-2023 12:00,10,25,12:00,15.4,14.4,94,17,10,24.1,100.38,,,Rain,11.025
25-10-2023 13:00,10,25,13:00,16,13.8,87,16,14,24.1,100.32,,,Mostly Cloudy,12.096
25-10-2023 14:00,10,25,14:00,17.4,13.9,79,20,16,24.1,100.37,,,NA,11.588
25-10-2023 15:00,10,25,15:00,17.4,13.9,79,20,16,24.1,100.36,,,NA,12.045
25-10-2023 16:00,10,25,16:00,17.4,13.7,79,20,16,24.1,100.39,,,Cloudy,9.667
25-10-2023 17:00,10,25,17:00,17.1,13.6,79,20,11,24.1,100.39,,,NA,7.859
25-10-2023 18:00,10,25,18:00,16.8,13.6,81,21,8,24.1,100.5,,,NA,8.649
25-10-2023 19:00,10,25,19:00,16.6,13.4,81,20,13,24.1,100.5,,,Cloudy,7.49
25-10-2023 20:00,10,25,20:00,16.5,12.7,78,21,14,24.1,100.52,,,NA,7.853
25-10-2023 21:00,10,25,21:00,16.4,12.1,76,22,9,24.1,100.53,,,NA,7.607
25-10-2023 22:00,10,25,22:00,16.2,12,76,20,9,24.1,100.54,,,Cloudy,7.642
25-10-2023 23:00,10,25,23:00,15.9,11.9,77,22,10,24.1,100.56,,,NA,7.608
26-10-2023 00:00,10,26,00:00,16.5,12,75,22,12,24.1,100.59,,,NA,7.57
26-10-2023 01:00,10,26,01:00,16.5,11.9,74,22,14,24.1,100.6,,,Cloudy,7.643
26-10-2023 02:00,10,26,02:00,16.1,12,76,21,8,24.1,100.59,,,NA,7.522
26-10-2023 03:00,10,26,03:00,15.3,12.2,82,20,7,24.1,100.6,,,NA,7.622
26-10-2023 04:00,10,26,04:00,14.7,12.5,86,17,8,24.1,100.6,,,Cloudy,7.534
26-10-2023 05:00,10,26,05:00,15,13.2,89,18,10,24.1,100.62,,,NA,7.711
26-10-2023 06:00,10,26,06:00,15,14.1,94,20,10,24.1,100.65,,,NA,7.427
26-10-2023 07:00,10,26,07:00,15.2,14.2,93,23,10,24.1,100.68,,,Cloudy,13.276
26-10-2023 08:00,10,26,08:00,15.2,13.8,91,19,12,24.1,100.74,,,NA,12.394
26-10-2023 09:00,10,26,09:00,15.4,13.9,91,20,13,24.1,100.73,,,NA,12.574
26-10-2023 10:00,10,26,10:00,16.2,14.1,87,23,11,24.1,100.7,,,Cloudy,10.744
26-10-2023 11:00,10,26,11:00,16.2,14.2,87,23,9,24.1,100.72,,,NA,11.607
26-10-2023 12:00,10,26,12:00,16.5,14,85,19,10,24.1,100.66,,,NA,11.103
26-10-2023 13:00,10,26,13:00,16.4,13.9,85,19,9,24.1,100.62,,,Cloudy,10.992
26-10-2023 14:00,10,26,14:00,16.5,14.1,86,19,14,24.1,100.56,,,NA,10.304
26-10-2023 15:00,10,26,15:00,16.4,14.5,89,15,11,24.1,100.49,,,NA,10.612
26-10-2023 16:00,10,26,16:00,16,14.8,92,17,10,24.1,100.51,,,Cloudy,8.784
26-10-2023 17:00,10,26,17:00,15.2,15,99,17,13,16.1,100.47,,,NA,8.122
26-10-2023 18:00,10,26,18:00,14.7,14.7,100,17,9,8.1,100.47,,,"Rain,Fog",8.609
26-10-2023 19:00,10,26,19:00,14.8,14.8,100,19,13,9.7,100.47,,,"Rain,Fog",7.688
26-10-2023 20:00,10,26,20:00,15,15,100,18,13,9.7,100.43,,,Fog,7.532
26-10-2023 21:00,10,26,21:00,14.9,14.9,100,17,13,6.4,100.4,,,Fog,7.534
26-10-2023 22:00,10,26,22:00,15.1,15.1,100,20,12,6.4,100.35,,,Fog,7.712
26-10-2023 23:00,10,26,23:00,15,15,100,19,18,6.4,100.3,,,Fog,7.497
27-10-2023 00:00,10,27,00:00,14.5,14.5,100,18,11,4.8,100.25,,,Fog,7.573
27-10-2023 01:00,10,27,01:00,14.9,14.9,100,18,13,12.9,100.21,,,Mostly Cloudy,7.597
27-10-2023 02:00,10,27,02:00,15.3,14.8,97,19,13,24.1,100.19,,,NA,7.574
27-10-2023 03:00,10,27,03:00,15.7,14.5,92,19,16,24.1,100.11,,,NA,7.722
27-10-2023 04:00,10,27,04:00,15.8,14.5,92,20,12,24.1,100.08,,,Cloudy,7.646
27-10-2023 05:00,10,27,05:00,15.4,14.5,95,21,11,24.1,100.08,,,NA,7.593
27-10-2023 06:00,10,27,06:00,15.1,14.3,95,18,10,24.1,100.05,,,NA,7.779
27-10-2023 07:00,10,27,07:00,15,14.2,95,20,14,24.1,100.04,,,Cloudy,13.381
27-10-2023 08:00,10,27,08:00,15.2,14.8,98,21,15,24.1,100.08,,,NA,12.743
27-10-2023 09:00,10,27,09:00,16,15.3,96,22,16,24.1,100.06,,,NA,11.051
27-10-2023 10:00,10,27,10:00,17.1,15.3,89,22,16,24.1,100.02,,,Mostly Cloudy,10.845
27-10-2023 11:00,10,27,11:00,17.5,16.4,93,20,16,24.1,99.99,,,Rain,12.61
27-10-2023 12:00,10,27,12:00,16.9,16.7,99,20,17,24.1,99.94,,,Rain,11.393
27-10-2023 13:00,10,27,13:00,17.8,17.2,96,20,16,24.1,99.86,,,Rain,12.382
27-10-2023 14:00,10,27,14:00,18.9,17.5,91,21,12,24.1,99.81,,,NA,12.132
27-10-2023 15:00,10,27,15:00,20.2,16.4,78,21,18,24.1,99.77,25,,NA,12.107
27-10-2023 16:00,10,27,16:00,20.2,15.7,75,22,18,24.1,99.76,25,,Mostly Cloudy,11.135
27-10-2023 17:00,10,27,17:00,19.5,15.3,77,21,17,24.1,99.77,,,NA,8.897
27-10-2023 18:00,10,27,18:00,19.1,15.4,79,23,18,24.1,99.82,,,NA,8.242
27-10-2023 19:00,10,27,19:00,18.5,15.7,84,21,13,24.1,99.81,,,Cloudy,8.142
27-10-2023 20:00,10,27,20:00,18.3,16,86,21,14,24.1,99.79,,,NA,8.251
27-10-2023 21:00,10,27,21:00,17.9,16.1,89,20,12,24.1,99.78,,,NA,8.107
27-10-2023 22:00,10,27,22:00,17.3,16,92,18,8,24.1,99.73,,,Mostly Cloudy,7.849
27-10-2023 23:00,10,27,23:00,16.8,15.7,93,19,9,24.1,99.65,,,NA,7.863
28-10-2023 00:00,10,28,00:00,16.3,15.6,95,18,9,24.1,99.6,,,NA,8.008
28-10-2023 01:00,10,28,01:00,16.2,15.8,97,18,14,24.1,99.5,,,Mainly Clear,8.135
28-10-2023 02:00,10,28,02:00,17.6,16,90,22,18,24.1,99.47,,,NA,8.051
28-10-2023 03:00,10,28,03:00,18.1,15.9,87,21,20,24.1,99.44,,,NA,7.985
28-10-2023 04:00,10,28,04:00,17.9,15.9,88,22,24,24.1,99.46,,,Mostly Cloudy,7.948
28-10-2023 05:00,10,28,05:00,18,15.9,87,22,33,24.1,99.5,,,NA,8.072
28-10-2023 06:00,10,28,06:00,17.9,16.1,89,22,25,24.1,99.54,,,NA,8.02
28-10-2023 07:00,10,28,07:00,16.1,12.5,79,29,45,24.1,99.68,,,Mostly Cloudy,7.81
28-10-2023 08:00,10,28,08:00,13.8,8.9,72,30,32,24.1,99.86,,,NA,7.833
28-10-2023 09:00,10,28,09:00,13.6,7.9,68,29,38,24.1,99.97,,,NA,7.809
28-10-2023 10:00,10,28,10:00,14.4,8,65,28,28,24.1,100.09,,,Mostly Cloudy,7.964
28-10-2023 11:00,10,28,11:00,13,6.9,66,30,28,24.1,100.21,,,NA,7.773
28-10-2023 12:00,10,28,12:00,12,5.6,65,30,28,24.1,100.3,,,NA,7.768
28-10-2023 13:00,10,28,13:00,12.4,4.4,58,29,29,24.1,100.37,,,Mostly Cloudy,7.883
28-10-2023 14:00,10,28,14:00,12,4.4,59,29,22,24.1,100.45,,,NA,7.692
28-10-2023 15:00,10,28,15:00,11.6,3,55,29,32,24.1,100.49,,,NA,7.737
28-10-2023 16:00,10,28,16:00,10.6,1.9,55,29,32,24.1,100.57,,,Mainly Clear,7.84
28-10-2023 17:00,10,28,17:00,8.6,2.1,64,31,19,24.1,100.65,,,NA,7.629
28-10-2023 18:00,10,28,18:00,8.1,1.1,61,32,25,24.1,100.7,,,NA,7.597
28-10-2023 19:00,10,28,19:00,7.3,1.9,68,34,22,24.1,100.77,,,Mainly Clear,7.508
28-10-2023 20:00,10,28,20:00,6.3,2.1,74,33,19,24.1,100.89,,,NA,7.936
28-10-2023 21:00,10,28,21:00,6.1,0.6,68,34,20,24.1,100.88,,,NA,7.699
28-10-2023 22:00,10,28,22:00,5.7,-2,58,34,22,24.1,100.93,,,Cloudy,7.761
28-10-2023 23:00,10,28,23:00,4.9,-3.4,55,34,21,24.1,100.99,,,NA,7.849
29-10-2023 00:00,10,29,00:00,4.4,-1.9,63,33,16,24.1,100.99,,,NA,7.723
29-10-2023 01:00,10,29,01:00,4.1,-3,60,34,16,24.1,101.04,,,Mostly Cloudy,7.828
29-10-2023 02:00,10,29,02:00,3.6,-3.2,61,34,15,24.1,101.03,,,NA,7.694
29-10-2023 03:00,10,29,03:00,3.3,-3.5,61,35,11,24.1,101.04,,,NA,7.802
29-10-2023 04:00,10,29,04:00,3.4,-3.4,61,1,13,24.1,101.06,,,Cloudy,7.829
29-10-2023 05:00,10,29,05:00,3.3,-3.5,61,35,8,24.1,101.12,,,NA,7.765
29-10-2023 06:00,10,29,06:00,3,-3.8,61,36,12,24.1,101.1,,,NA,7.653
29-10-2023 07:00,10,29,07:00,2.6,-3.9,62,1,15,24.1,101.11,,,Cloudy,7.559
29-10-2023 08:00,10,29,08:00,2.5,-4,62,3,15,24.1,101.12,,,NA,7.612
29-10-2023 09:00,10,29,09:00,2.6,-3.9,62,4,15,24.1,101.12,,,NA,7.856
29-10-2023 10:00,10,29,10:00,3.2,-3.5,61,9,11,24.1,101.03,,,Mostly Cloudy,7.755
29-10-2023 11:00,10,29,11:00,3.2,-3.9,60,12,8,24.1,101.03,,,NA,7.654
29-10-2023 12:00,10,29,12:00,3.7,-3.1,61,11,3,24.1,100.96,,,NA,7.587
29-10-2023 13:00,10,29,13:00,4.1,-2.8,61,2,4,24.1,100.9,,,Cloudy,7.69
29-10-2023 14:00,10,29,14:00,4.5,-2.7,59,35,10,24.1,100.86,,,NA,7.776
29-10-2023 15:00,10,29,15:00,4.6,-2.2,61,3,9,24.1,100.82,,,NA,7.823
29-10-2023 16:00,10,29,16:00,3.9,-2.2,64,4,8,24.1,100.76,,,Mostly Cloudy,7.824
29-10-2023 17:00,10,29,17:00,3.6,-1.9,67,4,10,24.1,100.73,,,NA,7.536
29-10-2023 18:00,10,29,18:00,3.6,-1.7,69,5,8,24.1,100.72,,,NA,7.607
29-10-2023 19:00,10,29,19:00,3.5,-1.7,69,3,7,24.1,100.73,,,Cloudy,7.655
29-10-2023 20:00,10,29,20:00,3.5,-1.4,70,7,8,24.1,100.59,,,NA,8.058
29-10-2023 21:00,10,29,21:00,3.4,-0.8,74,5,12,24.1,100.51,,,NA,8.064
29-10-2023 22:00,10,29,22:00,3.4,-0.6,75,4,9,24.1,100.52,,,Cloudy,7.879
29-10-2023 23:00,10,29,23:00,3.2,-0.2,78,5,10,24.1,100.41,,,NA,8.184
30-10-2023 00:00,10,30,00:00,3.5,-0.5,75,2,15,24.1,100.36,,,NA,7.94
30-10-2023 01:00,10,30,01:00,3.5,0,78,2,16,12.9,100.31,,,Rain,7.974
30-10-2023 02:00,10,30,02:00,0.9,0.4,96,6,18,6.4,100.19,,,"Rain,Snow,Fog",7.938
30-10-2023 03:00,10,30,03:00,0.1,0,99,5,14,2.4,100.04,,,Snow,7.924
30-10-2023 04:00,10,30,04:00,0.1,-0.1,99,4,12,3.2,100.03,,,Snow,7.948
30-10-2023 05:00,10,30,05:00,-0.1,-0.2,99,5,11,1.6,99.94,,-4,Snow,7.938
30-10-2023 06:00,10,30,06:00,0,-0.2,99,3,14,2.4,99.87,,-4,Snow,7.908
30-10-2023 07:00,10,30,07:00,0,-0.1,99,4,12,4.8,99.84,,-4,Snow,7.879
30-10-2023 08:00,10,30,08:00,0.1,-0.1,99,4,9,16.1,99.85,,,Snow,8.644
30-10-2023 09:00,10,30,09:00,0.5,0,97,3,9,9.7,99.78,,,Snow,15.907
30-10-2023 10:00,10,30,10:00,0.9,0,94,1,5,16.1,99.78,,,Snow,11.879
30-10-2023 11:00,10,30,11:00,1.6,0.1,90,1,4,24.1,99.76,,,NA,14.037
30-10-2023 12:00,10,30,12:00,2,1.1,94,28,10,24.1,99.72,,,NA,13.337
30-10-2023 13:00,10,30,13:00,2.9,1.8,93,27,13,24.1,99.66,,,Cloudy,13.638
30-10-2023 14:00,10,30,14:00,3.5,1.8,89,29,14,24.1,99.65,,,NA,15.635
30-10-2023 15:00,10,30,15:00,4,1.4,83,27,15,24.1,99.69,,,NA,15.098
30-10-2023 16:00,10,30,16:00,3.9,1.7,85,26,14,24.1,99.76,,,Mostly Cloudy,14.294
30-10-2023 17:00,10,30,17:00,3.3,-0.4,77,28,17,24.1,99.86,,,NA,12.92
30-10-2023 18:00,10,30,18:00,1.9,-1.1,81,31,18,24.1,99.95,,,NA,11.573
30-10-2023 19:00,10,30,19:00,1.1,-2.4,78,32,17,24.1,100.02,,,Clear,10.988
30-10-2023 20:00,10,30,20:00,-0.1,-2.8,82,31,12,24.1,100.11,,-4,NA,11.327
30-10-2023 21:00,10,30,21:00,-0.5,-1.6,93,26,12,24.1,100.16,,-4,NA,9.26
30-10-2023 22:00,10,30,22:00,0.1,-2.3,84,28,11,24.1,100.23,,,Mainly Clear,9.175
30-10-2023 23:00,10,30,23:00,-1,-2.6,89,28,13,24.1,100.29,,-5,NA,10.719
31-10-2023 00:00,10,31,00:00,-1.5,-3.4,87,27,12,24.1,100.32,,-6,NA,8.793
31-10-2023 01:00,10,31,01:00,-1.5,-3.4,87,29,11,24.1,100.37,,-5,Clear,8.857
31-10-2023 02:00,10,31,02:00,-2.8,-5,85,27,12,24.1,100.42,,-7,NA,8.61
31-10-2023 03:00,10,31,03:00,-2.2,-5.3,80,30,12,24.1,100.46,,-6,NA,8.87
31-10-2023 04:00,10,31,04:00,-2.6,-6.1,77,30,15,24.1,100.5,,-8,Clear,8.805
31-10-2023 05:00,10,31,05:00,-3.6,-7,78,31,13,24.1,100.56,,-8,NA,8.708
31-10-2023 06:00,10,31,06:00,-3.4,-5.8,83,25,7,24.1,100.62,,-6,NA,8.703
31-10-2023 07:00,10,31,07:00,-4.3,-6.2,87,27,5,24.1,100.68,,-6,Clear,8.745
31-10-2023 08:00,10,31,08:00,-1.6,-5,77,31,9,24.1,100.73,,-5,NA,13.578
31-10-2023 09:00,10,31,09:00,-0.4,-5.4,69,34,9,24.1,100.74,,-4,NA,14.16
31-10-2023 10:00,10,31,10:00,0.8,-7.5,54,35,3,24.1,100.76,,,Clear,14.393
31-10-2023 11:00,10,31,11:00,1.9,-12.1,35,34,8,24.1,100.77,,,NA,16.421
31-10-2023 12:00,10,31,12:00,1.9,-11.9,35,24,8,24.1,100.69,,,NA,16.006
31-10-2023 13:00,10,31,13:00,2.1,-12.3,34,6,4,24.1,100.6,,,Mostly Cloudy,15.846
31-10-2023 14:00,10,31,14:00,3.6,-11.6,32,5,6,24.1,100.54,,,NA,14.857
31-10-2023 15:00,10,31,15:00,2.8,-11.9,33,17,4,24.1,100.51,,,NA,15.216
31-10-2023 16:00,10,31,16:00,1.8,-10.5,40,17,4,24.1,100.49,,,Mostly Cloudy,13.312
31-10-2023 17:00,10,31,17:00,1.4,-9.2,45,10,5,24.1,100.46,,,NA,12.709
31-10-2023 18:00,10,31,18:00,0.8,-8.7,49,8,7,24.1,100.46,,,NA,11.87
31-10-2023 19:00,10,31,19:00,0.7,-8.4,51,6,9,24.1,100.45,,,Cloudy,12.857
31-10-2023 20:00,10,31,20:00,0.6,-8.4,51,7,12,24.1,100.38,,,NA,12.789
31-10-2023 21:00,10,31,21:00,0.4,-7.8,54,5,11,24.1,100.38,,,NA,8.846
31-10-2023 22:00,10,31,22:00,0.7,-8.1,52,5,12,24.1,100.39,,,Cloudy,8.852
31-10-2023 23:00,10,31,23:00,0.7,-8.5,50,7,12,16.1,100.41,,,NA,8.813
01-11-2023 00:00,11,1,00:00,-0.2,-6,65,10,17,12.9,100.37,,-5,Snow Showers,8.894
01-11-2023 01:00,11,1,01:00,-1.2,-5,75,8,24,6.4,100.3,,-7,Snow,8.785
01-11-2023 02:00,11,1,02:00,-1.4,-4.7,78,6,16,24.1,100.31,,-6,NA,8.634
01-11-2023 03:00,11,1,03:00,-1.1,-5.6,72,5,12,24.1,100.3,,-5,NA,8.639
01-11-2023 04:00,11,1,04:00,-1.5,-5.5,74,3,16,24.1,100.35,,-6,Snow,8.628
01-11-2023 05:00,11,1,05:00,-1.8,-5,78,4,26,16.1,100.35,,-8,Snow,12.212
01-11-2023 06:00,11,1,06:00,-1.8,-4.3,83,3,24,16.1,100.42,,-8,NA,15.251
01-11-2023 07:00,11,1,07:00,-2,-4.8,81,4,24,24.1,100.48,,-8,Cloudy,16.316
01-11-2023 08:00,11,1,08:00,-1.8,-5.7,75,4,22,24.1,100.58,,-8,NA,15.379
01-11-2023 09:00,11,1,09:00,-0.8,-5.7,69,5,17,24.1,100.62,,-6,NA,15.243
01-11-2023 10:00,11,1,10:00,-0.6,-6.1,66,5,15,24.1,100.66,,-5,Mostly Cloudy,13.231
01-11-2023 11:00,11,1,11:00,0,-6.1,64,2,10,24.1,100.69,,-3,NA,14.37
01-11-2023 12:00,11,1,12:00,0.4,-6.4,60,36,7,24.1,100.67,,,NA,15.117
01-11-2023 13:00,11,1,13:00,0.6,-7.2,56,1,7,24.1,100.68,,,Mostly Cloudy,14.874
01-11-2023 14:00,11,1,14:00,0.6,-6.4,59,30,4,24.1,100.72,,,NA,12.959
01-11-2023 15:00,11,1,15:00,1,-6.7,56,29,7,24.1,100.76,,,NA,13.665
01-11-2023 16:00,11,1,16:00,1,-6.2,59,24,10,24.1,100.79,,,Mostly Cloudy,14.092
01-11-2023 17:00,11,1,17:00,0.8,-6.7,57,27,11,24.1,100.82,,,NA,12.837
01-11-2023 18:00,11,1,18:00,0.5,-5.5,64,26,11,24.1,100.88,,,NA,11.868
01-11-2023 19:00,11,1,19:00,0,-5,69,25,12,24.1,100.94,,-4,Mostly Cloudy,11.702
01-11-2023 20:00,11,1,20:00,0.1,-5.4,67,25,10,24.1,100.98,,,NA,12.273
01-11-2023 21:00,11,1,21:00,-0.4,-5.3,69,25,9,24.1,100.98,,-4,NA,8.868
01-11-2023 22:00,11,1,22:00,-1.2,-5.4,73,23,6,24.1,101.02,,-3,Mostly Cloudy,9.05
01-11-2023 23:00,11,1,23:00,-1.6,-6,72,21,7,24.1,101.04,,-4,NA,9.07
02-11-2023 00:00,11,2,00:00,-2.1,-5.7,76,20,5,24.1,101.07,,-4,NA,8.888
02-11-2023 01:00,11,2,01:00,-2.8,-6.2,77,23,9,24.1,101.09,,-6,Clear,8.876
02-11-2023 02:00,11,2,02:00,-3.4,-6.7,78,18,10,24.1,101.11,,-7,NA,8.596
02-11-2023 03:00,11,2,03:00,-2.9,-5.9,80,22,9,24.1,101.11,,-6,NA,8.707
02-11-2023 04:00,11,2,04:00,-2,-5.3,78,23,15,24.1,101.14,,-7,Mostly Cloudy,8.733
02-11-2023 05:00,11,2,05:00,-1.8,-5.2,77,21,9,24.1,101.18,,-5,NA,8.619
02-11-2023 06:00,11,2,06:00,-1.8,-4.8,80,16,9,24.1,101.15,,-5,NA,8.824
02-11-2023 07:00,11,2,07:00,-1.4,-4.5,79,15,8,24.1,101.16,,-4,Mostly Cloudy,17.614
02-11-2023 08:00,11,2,08:00,-0.2,-4.3,74,18,7,24.1,101.19,,-3,NA,15.778
02-11-2023 09:00,11,2,09:00,1.3,-4.5,65,19,9,24.1,101.2,,,NA,16.864
02-11-2023 10:00,11,2,10:00,3.5,-3.7,59,20,17,24.1,101.19,,,Mostly Cloudy,15.303
02-11-2023 11:00,11,2,11:00,5.4,-3.9,51,22,21,24.1,101.17,,,NA,13.941
02-11-2023 12:00,11,2,12:00,6.9,-3.6,47,23,13,24.1,101.13,,,NA,13.305
02-11-2023 13:00,11,2,13:00,7.4,-5.4,40,23,20,24.1,101.07,,,Mostly Cloudy,14.228
02-11-2023 14:00,11,2,14:00,7.5,-5.4,40,23,23,24.1,101.06,,,NA,13.256
02-11-2023 15:00,11,2,15:00,7.4,-5,41,23,17,24.1,101.06,,,NA,13.187
02-11-2023 16:00,11,2,16:00,6.8,-4.8,43,23,13,24.1,101.06,,,Cloudy,12.548
02-11-2023 17:00,11,2,17:00,6,-4.7,46,21,5,24.1,101.06,,,NA,12.571
02-11-2023 18:00,11,2,18:00,5.8,-2,57,21,9,24.1,101.12,,,NA,11.828
02-11-2023 19:00,11,2,19:00,6,-0.5,63,20,23,24.1,101.16,,,Cloudy,11.863
02-11-2023 20:00,11,2,20:00,5.5,0.2,69,20,17,24.1,101.18,,,NA,10.931
02-11-2023 21:00,11,2,21:00,4.5,1.2,79,20,18,24.1,101.19,,,NA,10.293
02-11-2023 22:00,11,2,22:00,4,1.4,83,19,17,24.1,101.18,,,Mostly Cloudy,9.001
02-11-2023 23:00,11,2,23:00,3.4,2,90,17,10,24.1,101.13,,,NA,9.159
03-11-2023 00:00,11,3,00:00,3.3,1.2,86,17,9,24.1,101.09,,,NA,9.01
03-11-2023 01:00,11,3,01:00,4.1,0.4,77,17,12,24.1,101.05,,,Mostly Cloudy,9.117
03-11-2023 02:00,11,3,02:00,4.5,-0.2,71,17,13,24.1,101.02,,,NA,8.93
03-11-2023 03:00,11,3,03:00,4.7,-0.7,68,17,14,24.1,100.96,,,NA,9.033
03-11-2023 04:00,11,3,04:00,5,-0.8,66,17,19,24.1,100.93,,,Cloudy,9.027
03-11-2023 05:00,11,3,05:00,5.2,-0.2,68,18,16,24.1,100.91,,,Rain,8.875
03-11-2023 06:00,11,3,06:00,5.2,0.4,71,16,15,24.1,100.82,,,NA,8.91
03-11-2023 07:00,11,3,07:00,5.6,0,67,17,25,24.1,100.77,,,Cloudy,17.773
03-11-2023 08:00,11,3,08:00,5.9,-0.8,62,18,17,24.1,100.77,,,NA,15.45
03-11-2023 09:00,11,3,09:00,6.6,-0.4,61,17,15,24.1,100.72,,,NA,16.799
03-11-2023 10:00,11,3,10:00,9.2,0.7,55,18,18,24.1,100.62,,,Mostly Cloudy,16.423
03-11-2023 11:00,11,3,11:00,10.4,1.4,53,20,23,24.1,100.56,,,NA,14.724
03-11-2023 12:00,11,3,12:00,11.1,1.1,50,21,20,24.1,100.48,,,NA,15.168
03-11-2023 13:00,11,3,13:00,11.1,1.1,50,20,23,24.1,100.39,,,Cloudy,14.311
03-11-2023 14:00,11,3,14:00,11.2,0.6,48,19,28,24.1,100.33,,,NA,13.237
03-11-2023 15:00,11,3,15:00,11,0.2,47,20,20,24.1,100.3,,,NA,12.972
03-11-2023 16:00,11,3,16:00,11.2,-1.1,42,20,26,24.1,100.25,,,Cloudy,13.377
03-11-2023 17:00,11,3,17:00,11.5,-0.3,44,20,23,24.1,100.23,,,NA,11.651
03-11-2023 18:00,11,3,18:00,11.2,0.8,48,20,15,24.1,100.2,,,NA,12.156
03-11-2023 19:00,11,3,19:00,11.4,2,52,19,20,24.1,100.16,,,Cloudy,11.637
03-11-2023 20:00,11,3,20:00,11.5,2.7,55,21,15,24.1,100.15,,,NA,12.046
03-11-2023 21:00,11,3,21:00,12.4,0.2,43,22,29,24.1,100.17,,,NA,9.237
03-11-2023 22:00,11,3,22:00,9,4.4,73,24,31,24.1,100.26,,,Cloudy,8.915
03-11-2023 23:00,11,3,23:00,8.2,4.9,80,24,29,24.1,100.27,,,Rain,8.827
04-11-2023 00:00,11,4,00:00,8.3,4.4,76,23,23,24.1,100.29,,,NA,8.919
04-11-2023 01:00,11,4,01:00,8.5,4.1,74,24,20,24.1,100.31,,,Cloudy,8.956
04-11-2023 02:00,11,4,02:00,8.7,4,72,24,19,24.1,100.39,,,NA,8.991
04-11-2023 03:00,11,4,03:00,7.8,4,77,33,20,24.1,100.47,,,NA,8.977
04-11-2023 04:00,11,4,04:00,6.6,3.6,81,34,14,24.1,100.54,,,Cloudy,7.85
04-11-2023 05:00,11,4,05:00,5.6,2.2,79,33,15,24.1,100.64,,,NA,8.037
04-11-2023 06:00,11,4,06:00,4.9,2.2,82,34,15,24.1,100.68,,,NA,8.016
04-11-2023 07:00,11,4,07:00,4.3,1.1,79,36,13,24.1,100.71,,,Mostly Cloudy,7.962
04-11-2023 08:00,11,4,08:00,3.8,0.2,77,34,15,24.1,100.79,,,NA,8.133
04-11-2023 09:00,11,4,09:00,5,-0.4,68,35,11,24.1,100.84,,,NA,8.122
04-11-2023 10:00,11,4,10:00,5.3,-0.8,65,31,3,24.1,100.82,,,Mainly Clear,8.002
04-11-2023 11:00,11,4,11:00,6.3,-0.8,60,31,5,24.1,100.8,,,NA,8.25
04-11-2023 12:00,11,4,12:00,7.7,-0.6,56,1,8,24.1,100.73,,,NA,8.028
04-11-2023 13:00,11,4,13:00,8.7,-0.1,54,30,10,24.1,100.67,,,Mainly Clear,8.066
04-11-2023 14:00,11,4,14:00,9.6,0.1,52,29,9,24.1,100.61,,,NA,7.949
04-11-2023 15:00,11,4,15:00,8.8,-0.5,52,32,10,24.1,100.59,,,NA,8.037
04-11-2023 16:00,11,4,16:00,7.6,-1.1,54,33,12,24.1,100.56,,,Mainly Clear,7.915
04-11-2023 17:00,11,4,17:00,5.2,-1.7,61,31,10,24.1,100.57,,,NA,7.861
04-11-2023 18:00,11,4,18:00,4.2,-0.6,71,2,4,24.1,100.58,,,NA,7.519
04-11-2023 19:00,11,4,19:00,5.3,-0.7,65,33,7,24.1,100.56,,,Mostly Cloudy,7.74
04-11-2023 20:00,11,4,20:00,4.5,-0.5,70,,0,24.1,100.57,,,NA,7.675
04-11-2023 21:00,11,4,21:00,5,-0.5,68,32,3,24.1,100.54,,,NA,7.513
04-11-2023 22:00,11,4,22:00,4.3,-1.4,66,2,3,24.1,100.5,,,Mainly Clear,7.619
04-11-2023 23:00,11,4,23:00,0.1,-2.6,82,36,1,24.1,100.46,,,NA,7.655
05-11-2023 00:00,11,5,00:00,1.4,-1.7,80,14,4,24.1,100.4,,,NA,7.915
05-11-2023 01:00,11,5,01:00,2,0.2,88,34,8,24.1,100.38,,,Cloudy,8.113
05-11-2023 02:00,11,5,02:00,2.8,0.1,82,1,9,24.1,100.36,,,NA,12.92
05-11-2023 03:00,11,5,03:00,3.2,-1.7,70,34,16,24.1,100.37,,,NA,7.558
05-11-2023 04:00,11,5,04:00,1.3,-2.2,78,34,7,24.1,100.34,,,Mainly Clear,7.552
05-11-2023 05:00,11,5,05:00,1.9,-1.8,76,33,10,24.1,100.4,,,NA,7.637
05-11-2023 06:00,11,5,06:00,2,-1.6,77,31,10,24.1,100.44,,,NA,7.352
05-11-2023 07:00,11,5,07:00,-0.1,-1.1,93,29,7,24.1,100.48,,-3,Mostly Cloudy,7.43
05-11-2023 08:00,11,5,08:00,2.1,-0.5,82,29,9,24.1,100.54,,,NA,7.58
05-11-2023 09:00,11,5,09:00,2.6,-0.6,79,26,9,24.1,100.58,,,NA,7.594
05-11-2023 10:00,11,5,10:00,3.1,-1.2,74,26,3,24.1,100.58,,,Mostly Cloudy,7.436
05-11-2023 11:00,11,5,11:00,5.4,-0.7,64,30,7,24.1,100.59,,,NA,7.611
05-11-2023 12:00,11,5,12:00,6.2,-2.9,52,30,9,24.1,100.55,,,NA,7.674
05-11-2023 13:00,11,5,13:00,6,-2.2,56,25,14,24.1,100.55,,,Mainly Clear,7.491
05-11-2023 14:00,11,5,14:00,6,-2.6,54,29,15,24.1,100.55,,,NA,7.72
05-11-2023 15:00,11,5,15:00,5.3,-2,59,31,18,24.1,100.6,,,NA,7.432
05-11-2023 16:00,11,5,16:00,4.2,-2.7,60,32,24,24.1,100.68,,,Mostly Cloudy,7.702
05-11-2023 17:00,11,5,17:00,2.5,-2.7,68,34,18,24.1,100.73,,,NA,7.606
05-11-2023 18:00,11,5,18:00,1.5,-3.6,69,32,16,24.1,100.81,,,NA,7.531
05-11-2023 19:00,11,5,19:00,0.8,-4.9,66,32,18,24.1,100.85,,,Mostly Cloudy,7.425
05-11-2023 20:00,11,5,20:00,-0.9,-5.8,69,32,14,24.1,100.87,,-5,NA,7.47
05-11-2023 21:00,11,5,21:00,-1,-6,69,36,10,24.1,100.91,,-5,NA,7.437
05-11-2023 22:00,11,5,22:00,-1.6,-6.4,70,3,12,24.1,100.92,,-6,Mainly Clear,7.394
05-11-2023 23:00,11,5,23:00,-2.9,-7.5,71,4,9,24.1,100.9,,-6,NA,7.758
06-11-2023 00:00,11,6,00:00,-2.7,-7.6,69,3,10,24.1,100.9,,-7,NA,7.499
06-11-2023 01:00,11,6,01:00,-3.5,-8.1,71,2,8,24.1,100.88,,-7,Mainly Clear,7.229
06-11-2023 02:00,11,6,02:00,-3.5,-8.1,71,4,9,24.1,100.88,,-7,NA,7.424
06-11-2023 03:00,11,6,03:00,-4.1,-8.3,73,3,10,24.1,100.9,,-8,NA,7.31
06-11-2023 04:00,11,6,04:00,-3.1,-6.6,77,5,8,24.1,100.88,,-6,Mostly Cloudy,7.338
06-11-2023 05:00,11,6,05:00,-2.7,-6.4,75,5,10,24.1,100.89,,-7,NA,7.452
06-11-2023 06:00,11,6,06:00,-2.6,-6.6,74,7,12,24.1,100.86,,-7,NA,7.444
06-11-2023 07:00,11,6,07:00,-2.4,-6.3,75,7,11,24.1,100.84,,-6,Mostly Cloudy,16.646
06-11-2023 08:00,11,6,08:00,-1.9,-5.8,75,8,11,24.1,100.79,,-6,NA,14.098
06-11-2023 09:00,11,6,09:00,-1.1,-5.3,73,10,12,24.1,100.71,,-5,NA,17.739
06-11-2023 10:00,11,6,10:00,0,-4.5,72,9,16,24.1,100.61,,-5,Cloudy,14.685
06-11-2023 11:00,11,6,11:00,0.2,-4.2,72,9,14,24.1,100.53,,,Snow,16.049
06-11-2023 12:00,11,6,12:00,0.7,-3.6,73,8,16,24.1,100.4,,,NA,13.511
06-11-2023 13:00,11,6,13:00,1.2,-3.5,71,9,18,24.1,100.23,,,Cloudy,14.798
06-11-2023 14:00,11,6,14:00,1.9,-3.3,69,10,20,24.1,100.09,,,Snow,13.375
06-11-2023 15:00,11,6,15:00,1.5,-1.9,78,9,19,24.1,99.93,,,Rain,14.14
06-11-2023 16:00,11,6,16:00,1.3,-1.1,84,10,19,16.1,99.84,,,Rain,13.346
06-11-2023 17:00,11,6,17:00,1.2,-0.5,89,10,26,24.1,99.61,,,Rain,11.896
06-11-2023 18:00,11,6,18:00,1.7,0.1,89,8,21,24.1,99.45,,,NA,11.755
06-11-2023 19:00,11,6,19:00,2.3,0.6,89,11,13,24.1,99.48,,,Cloudy,12.148
06-11-2023 20:00,11,6,20:00,2.3,1.2,92,9,16,16.1,99.29,,,Rain,10.952
06-11-2023 21:00,11,6,21:00,3.7,2.5,92,12,14,24.1,99.13,,,Rain,8.934
06-11-2023 22:00,11,6,22:00,5.6,3,83,15,18,24.1,98.95,,,Cloudy,9.221
06-11-2023 23:00,11,6,23:00,7.6,3.6,75,17,21,24.1,98.79,,,NA,8.854
07-11-2023 00:00,11,7,00:00,8.2,3.9,74,18,14,16.1,98.68,,,NA,9.013
07-11-2023 01:00,11,7,01:00,9.1,5.7,79,20,21,12.9,98.62,,,Rain,8.947
07-11-2023 02:00,11,7,02:00,10.3,5.8,73,20,25,24.1,98.57,,,NA,8.999
07-11-2023 03:00,11,7,03:00,10.5,6.5,76,22,25,12.9,98.56,,,Rain Showers,8.937
07-11-2023 04:00,11,7,04:00,9.4,7.7,89,20,14,12.9,98.52,,,Cloudy,8.036
07-11-2023 05:00,11,7,05:00,9.4,8.5,94,20,13,9.7,98.53,,,Moderate Rain Showers,8.022
07-11-2023 06:00,11,7,06:00,9.6,9.5,99,19,19,8.1,98.47,,,"Rain Showers,Fog",8.225
07-11-2023 07:00,11,7,07:00,9.9,9.7,99,21,18,9.7,98.48,,,"Rain Showers,Fog",17.097
07-11-2023 08:00,11,7,08:00,10.1,9.5,96,23,22,12.9,98.57,,,Rain,15.529
07-11-2023 09:00,11,7,09:00,9.3,8.4,94,28,25,9.7,98.7,,,"Rain,Fog",16.755
07-11-2023 10:00,11,7,10:00,8.3,6.6,89,29,31,24.1,98.83,,,Mostly Cloudy,14.903
07-11-2023 11:00,11,7,11:00,6.4,3.6,82,28,35,24.1,98.96,,,NA,14.161
07-11-2023 12:00,11,7,12:00,5.6,2.2,79,30,29,24.1,99.09,,,NA,13.71
07-11-2023 13:00,11,7,13:00,5.2,1.2,75,29,21,24.1,99.19,,,Cloudy,14.373
07-11-2023 14:00,11,7,14:00,4.8,-0.3,69,30,37,24.1,99.31,,,NA,12.997
07-11-2023 15:00,11,7,15:00,3.4,-0.8,74,29,39,24.1,99.47,,,NA,14.272
07-11-2023 16:00,11,7,16:00,2.3,-2.4,71,30,33,24.1,99.64,,,Cloudy,12.363
07-11-2023 17:00,11,7,17:00,0.6,-2.9,77,30,34,24.1,99.78,,,NA,12.016
07-11-2023 18:00,11,7,18:00,0.3,-4.3,71,30,30,24.1,99.95,,,NA,11.746
07-11-2023 19:00,11,7,19:00,0.1,-5.4,67,32,26,24.1,100.09,,,Cloudy,11.967
07-11-2023 20:00,11,7,20:00,-0.3,-5.6,67,30,28,24.1,100.18,,-7,NA,11.512
07-11-2023 21:00,11,7,21:00,-0.5,-6.6,64,31,27,24.1,100.24,,-7,NA,8.876
07-11-2023 22:00,11,7,22:00,-0.8,-7.6,60,32,39,24.1,100.3,,-8,Cloudy,8.909
07-11-2023 23:00,11,7,23:00,-1.1,-7.9,60,34,31,24.1,100.37,,-8,NA,8.758
08-11-2023 00:00,11,8,00:00,-1.2,-8.1,60,33,23,24.1,100.39,,-7,NA,9.033
08-11-2023 01:00,11,8,01:00,-1.7,-9.9,54,34,25,24.1,100.45,,-8,Mostly Cloudy,8.671
08-11-2023 02:00,11,8,02:00,-1.6,-9.5,55,32,22,24.1,100.51,,-8,NA,8.758
08-11-2023 03:00,11,8,03:00,-1.7,-9.2,57,30,22,24.1,100.57,,-8,NA,8.786
08-11-2023 04:00,11,8,04:00,-1.9,-9.3,57,31,23,24.1,100.61,,-8,Mostly Cloudy,8.727
08-11-2023 05:00,11,8,05:00,-1.9,-9,59,30,19,24.1,100.72,,-7,NA,8.639
08-11-2023 06:00,11,8,06:00,-2,-9.2,58,32,28,24.1,100.75,,-9,NA,8.829
08-11-2023 07:00,11,8,07:00,-3,-9.1,63,31,17,24.1,100.84,,-9,Mainly Clear,18.14
08-11-2023 08:00,11,8,08:00,-2,-8.4,62,30,20,24.1,100.89,,-8,NA,15.123
08-11-2023 09:00,11,8,09:00,-0.6,-7.9,58,33,23,24.1,100.9,,-6,NA,16.051
08-11-2023 10:00,11,8,10:00,-0.4,-8.2,56,32,26,24.1,100.93,,-7,Clear,14.245
08-11-2023 11:00,11,8,11:00,0.7,-7.3,55,33,12,24.1,100.95,,,NA,14.615
08-11-2023 12:00,11,8,12:00,1.2,-8,51,35,11,24.1,100.82,,,NA,14.333
08-11-2023 13:00,11,8,13:00,2.1,-7.2,50,7,5,24.1,100.74,,,Clear,14.828
08-11-2023 14:00,11,8,14:00,1.9,-7.2,51,30,8,24.1,100.75,,,NA,13.103
08-11-2023 15:00,11,8,15:00,1.9,-7.3,51,27,9,24.1,100.75,,,NA,12.807
08-11-2023 16:00,11,8,16:00,0.8,-6.4,59,23,6,24.1,100.71,,,Mostly Cloudy,13.624
08-11-2023 17:00,11,8,17:00,0.6,-6.8,58,25,6,24.1,100.7,,,NA,14.21
08-11-2023 18:00,11,8,18:00,-0.8,-6.2,67,28,6,24.1,100.69,,-3,NA,11.501
08-11-2023 19:00,11,8,19:00,-0.8,-6.3,67,36,3,24.1,100.65,,-2,Cloudy,12.039
08-11-2023 20:00,11,8,20:00,-0.9,-5.9,69,11,7,24.1,100.54,,-3,NA,10.283
08-11-2023 21:00,11,8,21:00,-0.2,-5.1,70,6,5,24.1,100.55,,-2,NA,9.143
08-11-2023 22:00,11,8,22:00,-0.1,-5.7,66,9,10,24.1,100.45,,-3,Cloudy,9.666
08-11-2023 23:00,11,8,23:00,0,-5.8,65,8,10,24.1,100.37,,-3,NA,8.219
09-11-2023 00:00,11,9,00:00,-0.2,-5.5,67,10,9,24.1,100.26,,-3,NA,7.775
09-11-2023 01:00,11,9,01:00,-0.2,-5.5,68,9,9,24.1,100.15,,-3,Cloudy,7.944
09-11-2023 02:00,11,9,02:00,-0.2,-5.1,69,10,14,24.1,100,,-4,NA,7.791
09-11-2023 03:00,11,9,03:00,-0.7,-4,79,9,16,4.8,99.9,,-5,Snow,7.641
09-11-2023 04:00,11,9,04:00,-1.7,-2.3,96,8,21,1.6,99.68,,-8,Snow,7.838
09-11-2023 05:00,11,9,05:00,-1.8,-2.5,95,7,26,8.1,99.63,,-8,"Snow,Blowing Snow",7.707
09-11-2023 06:00,11,9,06:00,-1.7,-2.5,95,7,31,12.9,99.52,,-9,"Freezing Rain,Snow",7.777
09-11-2023 07:00,11,9,07:00,-1.9,-2.5,95,8,23,12.9,99.46,,-8,Freezing Rain,14.116
09-11-2023 08:00,11,9,08:00,-1.5,-2,97,6,16,12.9,99.49,,-6,NA,14.585
09-11-2023 09:00,11,9,09:00,-1.2,-1.6,97,6,18,9.7,99.38,,-6,"Freezing Rain,Fog",16.623
09-11-2023 10:00,11,9,10:00,-1.4,-1.7,98,6,16,12.9,99.38,,-6,Cloudy,13.889
09-11-2023 11:00,11,9,11:00,-1.2,-1.5,98,4,13,4.8,99.47,,-5,"Freezing Drizzle,Fog",15.275
09-11-2023 12:00,11,9,12:00,-1.2,-1.4,98,4,11,4,99.44,,-5,"Freezing Drizzle,Fog",13.638
09-11-2023 13:00,11,9,13:00,-1.2,-1.4,98,4,10,4.8,99.45,,-5,Freezing Drizzle,13.901
09-11-2023 14:00,11,9,14:00,-1,-1.2,99,36,1,4,99.52,,-1,"Freezing Drizzle,Fog",14.611
09-11-2023 15:00,11,9,15:00,-0.7,-0.9,99,20,5,4,99.53,,-2,Fog,13.13
09-11-2023 16:00,11,9,16:00,-0.3,-0.4,99,22,7,0.8,99.6,,-3,Freezing Fog,11.715
09-11-2023 17:00,11,9,17:00,-0.1,-0.2,99,15,7,1.2,99.62,,-3,Fog,12.39
09-11-2023 18:00,11,9,18:00,0.2,0,99,18,6,9.7,99.66,,,"Rain,Fog",11.378
09-11-2023 19:00,11,9,19:00,1.2,1,99,21,14,16.1,99.68,,,Cloudy,11.485
09-11-2023 20:00,11,9,20:00,2.4,2.2,99,24,13,16.1,99.64,,,NA,11.26
09-11-2023 21:00,11,9,21:00,2.3,1.4,94,23,12,24.1,99.64,,,NA,8.631
09-11-2023 22:00,11,9,22:00,2.7,2.3,97,24,14,16.1,99.71,,,Rain Showers,8.543
09-11-2023 23:00,11,9,23:00,2.7,1.8,94,22,16,24.1,99.67,,,NA,8.609
10-11-2023 00:00,11,10,00:00,2.2,1.3,94,23,13,24.1,99.67,,,NA,8.635
10-11-2023 01:00,11,10,01:00,2,1.3,95,22,14,24.1,99.68,,,Clear,8.485
10-11-2023 02:00,11,10,02:00,2.5,1.6,94,23,20,24.1,99.69,,,NA,8.694
10-11-2023 03:00,11,10,03:00,2.9,1.3,89,23,25,24.1,99.72,,,NA,8.609
10-11-2023 04:00,11,10,04:00,3.3,1,85,24,17,24.1,99.73,,,Mostly Cloudy,8.489
10-11-2023 05:00,11,10,05:00,3.4,1,84,23,18,24.1,99.77,,,NA,8.46
10-11-2023 06:00,11,10,06:00,3.4,1,84,24,14,24.1,99.87,,,NA,8.507
10-11-2023 07:00,11,10,07:00,3.5,0.8,82,24,13,24.1,99.94,,,Mostly Cloudy,17.45
10-11-2023 08:00,11,10,08:00,3.8,0.8,81,23,14,24.1,100.01,,,NA,14.123
10-11-2023 09:00,11,10,09:00,4.4,0.8,78,23,16,24.1,99.97,,,NA,16.764
10-11-2023 10:00,11,10,10:00,5.2,0.8,73,24,18,24.1,99.99,,,Mostly Cloudy,14.066
10-11-2023 11:00,11,10,11:00,5.8,0.7,70,24,24,24.1,100.01,,,NA,14.711
10-11-2023 12:00,11,10,12:00,6.3,1,69,24,26,24.1,99.97,,,NA,14.065
10-11-2023 13:00,11,10,13:00,6.3,1.1,69,25,21,24.1,99.97,,,Cloudy,14.118
10-11-2023 14:00,11,10,14:00,6.8,1.1,67,25,20,24.1,100,,,NA,13.808
10-11-2023 15:00,11,10,15:00,6.7,0.7,66,25,17,24.1,100.04,,,NA,13.023
10-11-2023 16:00,11,10,16:00,4,2.7,91,27,15,24.1,100.14,,,Mostly Cloudy,12.695
10-11-2023 17:00,11,10,17:00,3.6,2.7,94,27,13,24.1,100.2,,,NA,11.495
10-11-2023 18:00,11,10,18:00,3.3,1,85,30,19,24.1,100.3,,,NA,11.477
10-11-2023 19:00,11,10,19:00,2.8,0.3,84,31,25,24.1,100.39,,,Cloudy,11.484
10-11-2023 20:00,11,10,20:00,1.4,-1.7,80,34,24,24.1,100.49,,,NA,11.091
10-11-2023 21:00,11,10,21:00,0.9,-3.2,74,32,23,24.1,100.6,,,NA,9.121
10-11-2023 22:00,11,10,22:00,-0.3,-4.2,75,31,16,24.1,100.7,,-5,Mostly Cloudy,9.098
10-11-2023 23:00,11,10,23:00,-1.4,-4.8,78,30,14,24.1,100.76,,-6,NA,9.282
11-11-2023 00:00,11,11,00:00,-2.2,-5.3,79,31,13,24.1,100.82,,-7,NA,9.198
11-11-2023 01:00,11,11,01:00,-2.2,-5.2,80,31,12,24.1,100.91,,-6,Mostly Cloudy,8.952
11-11-2023 02:00,11,11,02:00,-2.8,-5.7,81,30,14,24.1,100.98,,-8,NA,8.803
11-11-2023 03:00,11,11,03:00,-3.1,-6,80,29,12,24.1,101.04,,-8,NA,9.229
11-11-2023 04:00,11,11,04:00,-3.8,-6.4,82,31,13,24.1,101.09,,-9,Clear,9.178
11-11-2023 05:00,11,11,05:00,-4.2,-6,87,27,10,24.1,101.2,,-8,NA,9.195
11-11-2023 06:00,11,11,06:00,-3.6,-5.4,87,29,11,24.1,101.25,,-8,NA,9.124
11-11-2023 07:00,11,11,07:00,-3.6,-5.9,84,31,16,24.1,101.32,,-9,Clear,9.048
11-11-2023 08:00,11,11,08:00,-2.2,-4.9,82,31,14,24.1,101.41,,-7,NA,9.168
11-11-2023 09:00,11,11,09:00,-0.8,-5,73,32,21,24.1,101.51,,-6,NA,8.635
11-11-2023 10:00,11,11,10:00,0.2,-5,68,31,14,24.1,101.56,,,Mostly Cloudy,8.45
11-11-2023 11:00,11,11,11:00,0.4,-5.5,64,33,14,24.1,101.59,,,NA,8.259
11-11-2023 12:00,11,11,12:00,0.8,-6.1,60,33,16,24.1,101.6,,,NA,8.514
11-11-2023 13:00,11,11,13:00,1.1,-5.9,60,36,11,24.1,101.6,,,Mostly Cloudy,8.209
11-11-2023 14:00,11,11,14:00,1.1,-6.2,58,31,15,24.1,101.62,,,NA,8.301
11-11-2023 15:00,11,11,15:00,1.2,-6.3,58,29,17,24.1,101.64,,,NA,8.245
11-11-2023 16:00,11,11,16:00,0.8,-5.6,63,27,18,24.1,101.7,,,Cloudy,8.268
11-11-2023 17:00,11,11,17:00,0.4,-5.3,66,28,14,24.1,101.73,,,NA,8.457
11-11-2023 18:00,11,11,18:00,0.3,-5.5,65,31,8,24.1,101.79,,,NA,8.182
11-11-2023 19:00,11,11,19:00,0.2,-6.2,62,32,13,24.1,101.85,,,Cloudy,8.232
11-11-2023 20:00,11,11,20:00,0,-6.9,60,34,13,24.1,101.87,,-4,NA,8.161
11-11-2023 21:00,11,11,21:00,-0.1,-7.2,59,32,16,24.1,101.9,,-5,NA,8.242
11-11-2023 22:00,11,11,22:00,-0.1,-7.2,59,34,8,24.1,101.88,,-3,Cloudy,8.197
11-11-2023 23:00,11,11,23:00,-0.5,-7.5,59,33,14,24.1,101.9,,-5,NA,8.406
12-11-2023 00:00,11,12,00:00,-0.9,-7.2,63,32,9,24.1,101.95,,-4,NA,8.065
12-11-2023 01:00,11,12,01:00,-1.1,-7.8,60,36,7,24.1,102,,-4,Mostly Cloudy,8.072
12-11-2023 02:00,11,12,02:00,-1,-7.4,62,32,14,24.1,102.01,,-5,NA,8.118
12-11-2023 03:00,11,12,03:00,-1.7,-7.7,63,36,9,24.1,102.01,,-5,NA,8.431
12-11-2023 04:00,11,12,04:00,-2.2,-7.7,66,35,9,24.1,102,,-6,Mostly Cloudy,8.05
12-11-2023 05:00,11,12,05:00,-2.6,-7.1,71,33,12,24.1,102.02,,-7,NA,8.149
12-11-2023 06:00,11,12,06:00,-3.4,-6.4,80,31,9,24.1,102.07,,-7,NA,8.062
12-11-2023 07:00,11,12,07:00,-3.8,-6.4,82,32,9,24.1,102.1,,-8,Mostly Cloudy,8.488
12-11-2023 08:00,11,12,08:00,-2.4,-6.4,74,31,12,24.1,102.14,,-7,NA,8.245
12-11-2023 09:00,11,12,09:00,-1,-5.9,70,30,12,24.1,102.13,,-5,NA,8.49
12-11-2023 10:00,11,12,10:00,-1.2,-7.5,62,34,5,24.1,102.1,,-3,Mainly Clear,8.147
12-11-2023 11:00,11,12,11:00,0.1,-7.5,57,29,7,24.1,102.09,,,NA,8.192
12-11-2023 12:00,11,12,12:00,0.3,-7.5,56,33,10,24.1,102.03,,,NA,8.144
12-11-2023 13:00,11,12,13:00,1.3,-7,54,36,3,24.1,101.98,,,Mainly Clear,7.917
12-11-2023 14:00,11,12,14:00,1.8,-7.2,51,34,7,24.1,101.95,,,NA,8.599
12-11-2023 15:00,11,12,15:00,1.6,-7.5,51,33,4,24.1,101.91,,,NA,8.333
12-11-2023 16:00,11,12,16:00,1,-7.7,52,31,4,24.1,101.86,,,Mainly Clear,8.361
12-11-2023 17:00,11,12,17:00,-0.2,-8,56,36,3,24.1,101.84,,-1,NA,8.398
12-11-2023 18:00,11,12,18:00,-3,-8,68,15,3,24.1,101.84,,-4,NA,8.19
12-11-2023 19:00,11,12,19:00,-3,-7.8,70,18,4,24.1,101.82,,-5,Clear,8.42
12-11-2023 20:00,11,12,20:00,-3,-7.7,70,24,3,24.1,101.78,,-4,NA,8.121
12-11-2023 21:00,11,12,21:00,-2.6,-7.3,70,23,5,24.1,101.76,,-5,NA,8.194
12-11-2023 22:00,11,12,22:00,-5.8,-9.4,76,17,6,24.1,101.76,,-9,Clear,8.22
12-11-2023 23:00,11,12,23:00,-4.2,-8.2,74,18,3,24.1,101.7,,-5,NA,8.331
13-11-2023 00:00,11,13,00:00,-5.3,-7.9,82,19,6,24.1,101.68,,-8,NA,8.417
13-11-2023 01:00,11,13,01:00,-4.8,-7.3,82,16,8,24.1,101.66,,-8,Clear,8.042
13-11-2023 02:00,11,13,02:00,-5.8,-8.2,83,13,3,24.1,101.61,,-7,NA,8.169
13-11-2023 03:00,11,13,03:00,-6.5,-9.2,81,12,4,24.1,101.55,,-8,NA,8.02
13-11-2023 04:00,11,13,04:00,-6.5,-9.5,80,12,4,24.1,101.5,,-8,Clear,8.249
13-11-2023 05:00,11,13,05:00,-6.5,-8.9,83,36,2,24.1,101.46,,-7,NA,8.138
13-11-2023 06:00,11,13,06:00,-7.7,-9.1,90,8,5,24.1,101.37,,-10,NA,8.065
13-11-2023 07:00,11,13,07:00,-6.1,-7.2,92,9,5,24.1,101.28,,-9,Mostly Cloudy,16.94
13-11-2023 08:00,11,13,08:00,-4.2,-5.7,89,9,9,24.1,101.24,,-8,NA,14.905
13-11-2023 09:00,11,13,09:00,-3.1,-4.7,89,9,9,24.1,101.15,,-7,NA,16.001
13-11-2023 10:00,11,13,10:00,-2.2,-4.5,84,11,14,24.1,101.07,,-7,Cloudy,15.522
13-11-2023 11:00,11,13,11:00,-1.5,-4.3,81,11,12,24.1,100.98,,-6,NA,14.872
13-11-2023 12:00,11,13,12:00,-1.8,-3.1,91,12,17,1.2,100.82,,-7,Snow,15.063
13-11-2023 13:00,11,13,13:00,-1.4,-2.6,91,10,14,16.1,100.74,,-6,Snow,14.432
13-11-2023 14:00,11,13,14:00,-1.2,-2.6,90,9,18,16.1,100.62,,-6,NA,13.742
13-11-2023 15:00,11,13,15:00,-1,-2.6,89,11,16,16.1,100.55,,-6,NA,12.097
13-11-2023 16:00,11,13,16:00,-1.2,-2.2,93,11,8,12.9,100.54,,-4,Snow,11.853
13-11-2023 17:00,11,13,17:00,-1.3,-2,95,10,15,16.1,100.54,,-6,NA,12.317
13-11-2023 18:00,11,13,18:00,-1.2,-1.9,95,9,8,16.1,100.54,,-4,NA,11.23
13-11-2023 19:00,11,13,19:00,-1.2,-1.7,97,7,10,12.9,100.52,,-5,Cloudy,11.766
13-11-2023 20:00,11,13,20:00,-1.2,-1.6,97,7,10,12.9,100.48,,-5,NA,11.035
13-11-2023 21:00,11,13,21:00,-1.3,-1.7,97,6,4,6.4,100.49,,-3,Fog,9.042
13-11-2023 22:00,11,13,22:00,-0.8,-1.1,98,7,9,3.2,100.45,,-4,"Freezing Drizzle,Fog",9.542
13-11-2023 23:00,11,13,23:00,-0.9,-1.2,98,6,6,6.4,100.47,,-3,"Snow,Fog",8.856
14-11-2023 00:00,11,14,00:00,-0.9,-1.2,98,4,9,6.4,100.47,,-4,Fog,8.562
14-11-2023 01:00,11,14,01:00,-0.9,-1.1,98,2,7,6.4,100.54,,-3,"Snow,Fog",8.503
14-11-2023 02:00,11,14,02:00,-0.8,-1.1,98,33,10,3.2,100.64,,-4,"Snow,Fog",8.14
14-11-2023 03:00,11,14,03:00,-0.7,-0.9,99,30,10,2.4,100.71,,-4,Snow,8.467
14-11-2023 04:00,11,14,04:00,-0.5,-0.7,99,30,7,3.2,100.75,,-3,Fog,8.191
14-11-2023 05:00,11,14,05:00,-0.1,-0.2,99,29,6,9.7,100.83,,-2,Fog,8.45
14-11-2023 06:00,11,14,06:00,0.4,0.2,98,28,12,11.3,100.95,,,NA,8.695
14-11-2023 07:00,11,14,07:00,0.8,0.6,98,29,8,16.1,101.05,,,Cloudy,17.471
14-11-2023 08:00,11,14,08:00,1.3,0.8,96,30,11,24.1,101.17,,,NA,15.454
14-11-2023 09:00,11,14,09:00,1.9,1.1,95,28,11,24.1,101.25,,,NA,15.158
14-11-2023 10:00,11,14,10:00,2.8,1.6,92,30,15,24.1,101.31,,,Mostly Cloudy,15.535
14-11-2023 11:00,11,14,11:00,4.3,1.3,81,31,19,24.1,101.34,,,NA,15.32
14-11-2023 12:00,11,14,12:00,4,0.9,80,29,21,24.1,101.36,,,NA,13.266
14-11-2023 13:00,11,14,13:00,3.6,1.3,85,30,16,24.1,101.35,,,Rain,11.308
14-11-2023 14:00,11,14,14:00,4.5,0.4,75,29,17,24.1,101.34,,,NA,14.968
14-11-2023 15:00,11,14,15:00,4.2,0.1,75,28,14,24.1,101.34,,,NA,12.213
14-11-2023 16:00,11,14,16:00,3.9,-0.1,75,29,12,24.1,101.4,,,Mostly Cloudy,13.83
14-11-2023 17:00,11,14,17:00,3.5,-0.9,73,27,10,24.1,101.43,,,NA,13.863
14-11-2023 18:00,11,14,18:00,3.1,-1,74,30,10,24.1,101.45,,,NA,11.76
14-11-2023 19:00,11,14,19:00,3,-1.3,74,29,8,24.1,101.46,,,Cloudy,11.47
14-11-2023 20:00,11,14,20:00,2.3,-1.2,78,22,4,24.1,101.47,,,NA,10.532
14-11-2023 21:00,11,14,21:00,2,-1.3,79,25,3,24.1,101.47,,,NA,9.452
14-11-2023 22:00,11,14,22:00,1.1,-1.8,81,13,6,24.1,101.41,,,Mostly Cloudy,8.574
14-11-2023 23:00,11,14,23:00,0.7,-2.4,80,18,8,24.1,101.38,,,NA,8.504
15-11-2023 00:00,11,15,00:00,-0.6,-2,90,15,6,24.1,101.34,,-3,NA,8.506
15-11-2023 01:00,11,15,01:00,-0.5,-2.4,87,16,9,24.1,101.31,,-4,Mainly Clear,8.717
15-11-2023 02:00,11,15,02:00,-1.3,-2.6,91,17,9,24.1,101.27,,-5,NA,8.749
15-11-2023 03:00,11,15,03:00,-0.8,-2.1,90,17,10,24.1,101.23,,-4,NA,8.469
15-11-2023 04:00,11,15,04:00,-1,-1.9,93,15,11,24.1,101.16,,-5,Mainly Clear,8.613
15-11-2023 05:00,11,15,05:00,-1.1,-1.8,95,15,10,24.1,101.18,,-5,NA,8.754
15-11-2023 06:00,11,15,06:00,0.3,-0.8,93,18,12,24.1,101.17,,,NA,8.553
15-11-2023 07:00,11,15,07:00,-0.2,-1.2,93,16,13,24.1,101.08,,-4,Mainly Clear,16.86
15-11-2023 08:00,11,15,08:00,1,-0.5,90,16,16,19.3,101.01,,,NA,14.882
15-11-2023 09:00,11,15,09:00,2.7,0.2,84,18,17,19.3,101,,,NA,15.236
15-11-2023 10:00,11,15,10:00,3.7,0.5,79,19,14,19.3,100.96,,,Cloudy,14.904
15-11-2023 11:00,11,15,11:00,4.7,1.1,78,18,15,19.3,100.87,,,NA,14.783
15-11-2023 12:00,11,15,12:00,7.2,2.7,73,20,22,24.1,100.72,,,NA,15.619
15-11-2023 13:00,11,15,13:00,6.9,2.7,74,20,22,24.1,100.62,,,Mostly Cloudy,14.126
15-11-2023 14:00,11,15,14:00,7.5,2.9,73,18,17,24.1,100.46,,,NA,13.545
15-11-2023 15:00,11,15,15:00,8.3,3.1,70,18,17,24.1,100.34,,,NA,12.672
15-11-2023 16:00,11,15,16:00,9.2,2.8,64,20,17,24.1,100.34,,,Mostly Cloudy,13.122
15-11-2023 17:00,11,15,17:00,8.6,2.3,64,20,21,24.1,100.35,,,NA,11.694
15-11-2023 18:00,11,15,18:00,8.1,2.4,68,21,13,24.1,100.43,,,NA,11.261
15-11-2023 19:00,11,15,19:00,7.8,2.6,69,21,11,24.1,100.48,,,Mostly Cloudy,11.083
15-11-2023 20:00,11,15,20:00,7.5,1.7,67,22,17,24.1,100.46,,,NA,10.97
15-11-2023 21:00,11,15,21:00,6.7,1.6,70,21,12,24.1,100.44,,,NA,8.596
15-11-2023 22:00,11,15,22:00,6.2,1.5,71,22,14,24.1,100.46,,,Clear,8.797
15-11-2023 23:00,11,15,23:00,5.1,1,75,23,9,24.1,100.49,,,NA,8.457
16-11-2023 00:00,11,16,00:00,3.5,0.5,81,24,10,24.1,100.52,,,NA,8.496
16-11-2023 01:00,11,16,01:00,2.2,0.3,87,21,13,24.1,100.56,,,Clear,8.666
16-11-2023 02:00,11,16,02:00,2.6,0.6,86,20,9,24.1,100.59,,,NA,8.646
16-11-2023 03:00,11,16,03:00,1.5,0.2,91,22,10,24.1,100.67,,,NA,8.622
16-11-2023 04:00,11,16,04:00,0.4,-0.4,94,22,8,24.1,100.7,,,Clear,8.796
16-11-2023 05:00,11,16,05:00,-0.2,-0.6,97,21,9,24.1,100.71,,-3,NA,8.555
16-11-2023 06:00,11,16,06:00,-0.9,-1.2,97,25,11,24.1,100.75,,-5,NA,8.463
16-11-2023 07:00,11,16,07:00,-0.9,-1.1,98,22,8,24.1,100.77,,-4,Clear,17.876
16-11-2023 08:00,11,16,08:00,-0.2,-0.4,99,20,8,24.1,100.83,,-3,NA,14.767
16-11-2023 09:00,11,16,09:00,2.9,1.7,92,25,8,24.1,100.86,,,NA,15.038
16-11-2023 10:00,11,16,10:00,5.3,2.1,80,25,7,24.1,100.85,,,Mainly Clear,16.248
16-11-2023 11:00,11,16,11:00,7.1,1.1,65,25,5,24.1,100.82,,,NA,15.224
16-11-2023 12:00,11,16,12:00,8.3,1.5,62,36,2,24.1,100.76,,,NA,14.631
16-11-2023 13:00,11,16,13:00,10.4,0,48,20,12,24.1,100.71,,,Mostly Cloudy,13.244
16-11-2023 14:00,11,16,14:00,11.7,-3.2,35,21,10,24.1,100.63,,,NA,12.542
16-11-2023 15:00,11,16,15:00,11.2,-5.2,31,20,8,24.1,100.57,,,NA,12.134
16-11-2023 16:00,11,16,16:00,9.5,-4.1,38,15,9,24.1,100.53,,,Mostly Cloudy,13.229
16-11-2023 17:00,11,16,17:00,8.4,-4.9,38,17,8,24.1,100.51,,,NA,11.639
16-11-2023 18:00,11,16,18:00,6.8,-4.1,46,14,10,24.1,100.48,,,NA,11.076
16-11-2023 19:00,11,16,19:00,7.4,-1.3,54,16,11,24.1,100.4,,,Mostly Cloudy,11.44
16-11-2023 20:00,11,16,20:00,6.6,0.4,64,15,12,24.1,100.32,,,NA,11.48
16-11-2023 21:00,11,16,21:00,5.5,0.9,72,15,12,24.1,100.29,,,NA,8.784
16-11-2023 22:00,11,16,22:00,5,1.3,77,15,13,24.1,100.18,,,Mostly Cloudy,8.315
16-11-2023 23:00,11,16,23:00,4,1.1,81,17,10,24.1,100.08,,,NA,8.253
17-11-2023 00:00,11,17,00:00,5.1,1.5,77,18,7,24.1,99.98,,,NA,8.892
17-11-2023 01:00,11,17,01:00,4.8,1.8,80,16,10,24.1,99.88,,,Mostly Cloudy,8.612
17-11-2023 02:00,11,17,02:00,6.3,1.9,74,17,12,24.1,99.74,,,NA,8.839
17-11-2023 03:00,11,17,03:00,7,2.1,71,17,12,24.1,99.65,,,NA,8.611
17-11-2023 04:00,11,17,04:00,7.3,2.3,70,18,14,24.1,99.51,,,Mostly Cloudy,8.437
17-11-2023 05:00,11,17,05:00,10.5,2,55,20,19,24.1,99.44,,,NA,8.438
17-11-2023 06:00,11,17,06:00,10.5,1.7,54,19,20,24.1,99.38,,,NA,8.291
17-11-2023 07:00,11,17,07:00,11.1,1.7,52,19,21,24.1,99.31,,,Cloudy,17.358
17-11-2023 08:00,11,17,08:00,11.4,1.9,52,18,20,24.1,99.26,,,NA,14.464
17-11-2023 09:00,11,17,09:00,12.4,2.2,49,18,19,24.1,99.19,,,NA,14.25
17-11-2023 10:00,11,17,10:00,14.3,2.4,44,20,19,24.1,99.1,,,Cloudy,15.567
17-11-2023 11:00,11,17,11:00,14.9,3.6,46,21,32,24.1,99.03,,,NA,15.37
17-11-2023 12:00,11,17,12:00,14.3,5.7,56,20,35,24.1,98.93,,,NA,14.814
17-11-2023 13:00,11,17,13:00,13,6.7,66,21,29,24.1,98.92,,,Cloudy,13.376
17-11-2023 14:00,11,17,14:00,10.7,9.4,92,20,25,16.1,98.94,,,Rain,13.135
17-11-2023 15:00,11,17,15:00,10.4,9.9,97,20,20,16.1,98.97,,,NA,12.471
17-11-2023 16:00,11,17,16:00,8,7.3,95,32,31,12.9,99.18,,,Rain,12.849
17-11-2023 17:00,11,17,17:00,6.6,5.3,92,29,18,16.1,99.3,,,Rain,13.122
17-11-2023 18:00,11,17,18:00,5.3,4.5,95,31,22,24.1,99.45,,,Rain,12.028
17-11-2023 19:00,11,17,19:00,3.4,1.2,85,33,23,24.1,99.57,,,Cloudy,11.827
17-11-2023 20:00,11,17,20:00,2,-0.5,84,32,18,24.1,99.68,,,NA,10.529
17-11-2023 21:00,11,17,21:00,0.8,-0.9,88,32,16,24.1,99.74,,,NA,8.965
17-11-2023 22:00,11,17,22:00,0.2,-1.4,89,31,16,24.1,99.78,,,Clear,9.626
17-11-2023 23:00,11,17,23:00,-0.2,-2.2,87,31,9,24.1,99.78,,-3,NA,8.557
18-11-2023 00:00,11,18,00:00,-0.9,-1.9,93,27,10,24.1,99.84,,-4,NA,8.731
18-11-2023 01:00,11,18,01:00,-1,-2.2,91,28,6,24.1,99.82,,-3,Mostly Cloudy,8.644
18-11-2023 02:00,11,18,02:00,-0.5,-2.9,84,32,16,24.1,99.86,,-5,NA,8.538
18-11-2023 03:00,11,18,03:00,-0.6,-3.7,80,33,20,24.1,99.9,,-6,NA,8.449
18-11-2023 04:00,11,18,04:00,-1.1,-6.6,66,33,16,24.1,99.92,,-6,Cloudy,8.394
18-11-2023 05:00,11,18,05:00,-1.7,-6.9,68,32,21,24.1,100,,-8,NA,8.299
18-11-2023 06:00,11,18,06:00,-1.7,-6.7,68,1,14,24.1,99.97,,-6,NA,8.323
18-11-2023 07:00,11,18,07:00,-2.9,-7,74,28,7,24.1,100.04,,-6,Mainly Clear,8.718
18-11-2023 08:00,11,18,08:00,-2.9,-5.9,80,25,10,24.1,100.04,,-7,NA,8.391
18-11-2023 09:00,11,18,09:00,-1,-5.4,72,25,8,24.1,100.05,,-4,NA,8.423
18-11-2023 10:00,11,18,10:00,0.1,-6.2,63,27,13,24.1,100.03,,,Mainly Clear,8.353
18-11-2023 11:00,11,18,11:00,1,-6.4,58,26,13,24.1,99.98,,,NA,8.243
18-11-2023 12:00,11,18,12:00,1.7,-6.2,56,24,16,24.1,99.89,,,NA,8.397
18-11-2023 13:00,11,18,13:00,2.7,-5.8,53,20,10,24.1,99.78,,,Mainly Clear,8.294
18-11-2023 14:00,11,18,14:00,3.5,-5.9,50,23,16,24.1,99.71,,,NA,8.291
18-11-2023 15:00,11,18,15:00,3.8,-5.9,49,23,12,24.1,99.67,,,NA,8.162
18-11-2023 16:00,11,18,16:00,2.5,-5.8,54,22,9,24.1,99.61,,,Mostly Cloudy,8.164
18-11-2023 17:00,11,18,17:00,2.3,-5.5,57,19,4,24.1,99.59,,,NA,8.187
18-11-2023 18:00,11,18,18:00,1.8,-4.8,62,17,8,24.1,99.56,,,NA,8.08
18-11-2023 19:00,11,18,19:00,2.1,-3.9,64,19,10,24.1,99.5,,,Cloudy,8.213
18-11-2023 20:00,11,18,20:00,2.1,-3.5,66,19,10,24.1,99.42,,,NA,8.087
18-11-2023 21:00,11,18,21:00,2,-3,70,21,13,24.1,99.39,,,Snow Showers,8.026
18-11-2023 22:00,11,18,22:00,0.6,-2.7,78,20,8,24.1,99.28,,,Mostly Cloudy,8.132
18-11-2023 23:00,11,18,23:00,2,-2.2,74,23,17,24.1,99.22,,,NA,8.185
19-11-2023 00:00,11,19,00:00,2,-2.2,74,22,14,24.1,99.19,,,NA,8.118
19-11-2023 01:00,11,19,01:00,1.4,-2.1,77,22,10,24.1,99.16,,,Mostly Cloudy,8.048
19-11-2023 02:00,11,19,02:00,1.1,-2,80,23,12,24.1,99.17,,,NA,8.034
19-11-2023 03:00,11,19,03:00,1.3,-1.5,82,25,15,24.1,99.19,,,NA,8.042
19-11-2023 04:00,11,19,04:00,1,-1.6,82,27,17,24.1,99.22,,,Mainly Clear,8.05
19-11-2023 05:00,11,19,05:00,0.2,-2.6,82,23,9,24.1,99.3,,,NA,7.963
19-11-2023 06:00,11,19,06:00,-0.3,-2.4,85,26,17,24.1,99.33,,-5,NA,7.927
19-11-2023 07:00,11,19,07:00,-0.9,-3.2,84,25,15,24.1,99.41,,-6,Mainly Clear,8.286
19-11-2023 08:00,11,19,08:00,-0.1,-3,81,25,15,24.1,99.49,,-5,NA,7.898
19-11-2023 09:00,11,19,09:00,1,-3.1,74,27,17,24.1,99.57,,,NA,7.575
19-11-2023 10:00,11,19,10:00,1.9,-2.8,71,29,22,24.1,99.57,,,Mostly Cloudy,7.411
19-11-2023 11:00,11,19,11:00,3.5,-2.5,65,28,21,24.1,99.66,,,NA,7.618
19-11-2023 12:00,11,19,12:00,1,-1.6,83,28,24,24.1,99.68,,,NA,7.634
19-11-2023 13:00,11,19,13:00,2.7,-4.5,59,28,23,24.1,99.7,,,Mainly Clear,7.513
19-11-2023 14:00,11,19,14:00,1.3,-2.9,74,31,19,24.1,99.77,,,NA,7.572
19-11-2023 15:00,11,19,15:00,2.1,-5.5,57,31,30,24.1,99.85,,,NA,7.486
19-11-2023 16:00,11,19,16:00,1.4,-6.3,57,30,26,24.1,99.98,,,Cloudy,7.424
19-11-2023 17:00,11,19,17:00,0.3,-6.5,60,32,21,24.1,100.16,,,NA,7.49
19-11-2023 18:00,11,19,18:00,-0.5,-8.4,56,30,19,24.1,100.31,,-6,NA,7.414
19-11-2023 19:00,11,19,19:00,-0.7,-7.7,59,32,19,24.1,100.42,,-6,Mostly Cloudy,7.443
19-11-2023 20:00,11,19,20:00,-1.4,-6.2,70,32,20,12.9,100.53,,-7,Snow Showers,7.375
19-11-2023 21:00,11,19,21:00,-2.5,-6.7,73,33,21,24.1,100.63,,-9,NA,7.664
19-11-2023 22:00,11,19,22:00,-3.3,-10,60,33,26,24.1,100.75,,-10,Snow Showers,7.597
19-11-2023 23:00,11,19,23:00,-4.9,-12.3,56,31,16,24.1,100.82,,-11,NA,7.838
20-11-2023 00:00,11,20,00:00,-6.3,-12.8,61,29,11,24.1,100.9,,-11,NA,7.771
20-11-2023 01:00,11,20,01:00,-6.1,-11.2,68,30,14,24.1,100.96,,-12,Mainly Clear,7.464
20-11-2023 02:00,11,20,02:00,-6,-10.7,70,29,13,24.1,101.03,,-11,NA,7.65
20-11-2023 03:00,11,20,03:00,-6.2,-9.8,76,28,13,24.1,101.12,,-12,NA,7.344
20-11-2023 04:00,11,20,04:00,-4.9,-9.3,72,30,11,24.1,101.19,,-9,Cloudy,7.56
20-11-2023 05:00,11,20,05:00,-5.3,-9.2,74,27,11,24.1,101.3,,-10,NA,7.409
20-11-2023 06:00,11,20,06:00,-6.7,-9.3,82,28,11,24.1,101.38,,-12,NA,10.867
20-11-2023 07:00,11,20,07:00,-7.9,-10,85,28,8,24.1,101.51,,-12,Mainly Clear,12.836
20-11-2023 08:00,11,20,08:00,-6.1,-8.6,82,29,8,24.1,101.6,,-10,NA,11.648
20-11-2023 09:00,11,20,09:00,-3.7,-9.6,63,29,12,24.1,101.71,,-8,NA,13.679
20-11-2023 10:00,11,20,10:00,-2.6,-10.5,55,33,11,24.1,101.76,,-7,Mainly Clear,12.717
20-11-2023 11:00,11,20,11:00,-2.3,-10.6,53,28,13,24.1,101.78,,-7,NA,13.388
20-11-2023 12:00,11,20,12:00,-1.8,-10,54,26,11,24.1,101.79,,-6,NA,15.098
20-11-2023 13:00,11,20,13:00,-1.3,-9.9,52,30,10,24.1,101.81,,-5,Mainly Clear,14.658
20-11-2023 14:00,11,20,14:00,-1.1,-10,51,27,5,24.1,101.8,,-3,NA,15.151
20-11-2023 15:00,11,20,15:00,-1.1,-10.6,49,27,9,24.1,101.83,,-4,NA,13.266
20-11-2023 16:00,11,20,16:00,-1.9,-10.5,52,29,10,24.1,101.87,,-6,Mainly Clear,13.774
20-11-2023 17:00,11,20,17:00,-2.6,-10.7,54,26,6,24.1,101.94,,-5,NA,14.117
20-11-2023 18:00,11,20,18:00,-4.7,-11.3,60,29,7,24.1,101.97,,-8,NA,11.708
20-11-2023 19:00,11,20,19:00,-4.8,-10.7,64,26,8,24.1,102.01,,-8,Clear,10.851
20-11-2023 20:00,11,20,20:00,-6,-10.9,68,24,4,24.1,102.06,,-8,NA,10.223
20-11-2023 21:00,11,20,21:00,-6,-11.3,66,33,4,24.1,102.05,,-8,NA,9.852
20-11-2023 22:00,11,20,22:00,-6.3,-11.1,69,26,3,24.1,102.05,,-8,Mainly Clear,9.642
20-11-2023 23:00,11,20,23:00,-6.8,-11.2,71,36,1,24.1,102.01,,-7,NA,9.817
21-11-2023 00:00,11,21,00:00,-7.3,-11.4,73,6,10,24.1,102,,-12,NA,9.834
21-11-2023 01:00,11,21,01:00,-7.4,-11.3,74,6,9,24.1,102.02,,-12,Mainly Clear,9.637
21-11-2023 02:00,11,21,02:00,-7.7,-11.1,76,6,8,24.1,102.05,,-12,NA,9.686
21-11-2023 03:00,11,21,03:00,-8.1,-11.1,79,6,8,24.1,101.99,,-12,NA,9.607
21-11-2023 04:00,11,21,04:00,-9.4,-11.8,83,5,11,24.1,101.95,,-15,Mainly Clear,9.987
21-11-2023 05:00,11,21,05:00,-8.8,-10.8,85,6,10,24.1,101.88,,-14,NA,9.551
21-11-2023 06:00,11,21,06:00,-8.4,-10.5,85,7,16,24.1,101.8,,-15,NA,9.732
21-11-2023 07:00,11,21,07:00,-7.8,-10.2,83,7,19,24.1,101.77,,-15,Mainly Clear,10.047
21-11-2023 08:00,11,21,08:00,-6.7,-9.2,83,7,18,24.1,101.75,,-13,NA,15.711
21-11-2023 09:00,11,21,09:00,-5.4,-8,82,8,20,24.1,101.69,,-12,NA,14.613
21-11-2023 10:00,11,21,10:00,-3.5,-6.2,82,9,17,24.1,101.59,,-9,Mostly Cloudy,13.511
21-11-2023 11:00,11,21,11:00,-2.5,-6.5,74,9,24,24.1,101.51,,-9,NA,13.139
21-11-2023 12:00,11,21,12:00,-1.9,-6.3,72,8,21,24.1,101.36,,-8,NA,15.328
21-11-2023 13:00,11,21,13:00,-1.3,-6.4,68,8,23,24.1,101.24,,-7,Cloudy,13.118
21-11-2023 14:00,11,21,14:00,-1.3,-7.2,64,8,25,24.1,101.04,,-8,NA,15.174
21-11-2023 15:00,11,21,15:00,-1.2,-7.3,63,8,23,24.1,101,,-7,NA,13.414
21-11-2023 16:00,11,21,16:00,-0.9,-7.3,62,8,28,24.1,100.89,,-7,Cloudy,11.977
21-11-2023 17:00,11,21,17:00,-0.7,-7.1,62,9,23,16.1,100.81,,-7,Ice Pellets,12.048
21-11-2023 18:00,11,21,18:00,-1,-5.4,72,8,23,12.9,100.66,,-7,Freezing Rain,12.126
21-11-2023 19:00,11,21,19:00,-1.1,-4.2,80,9,15,12.9,100.65,,-6,Freezing Rain,11.443
21-11-2023 20:00,11,21,20:00,-1,-2.8,88,8,23,12.9,100.46,,-7,Freezing Rain,10.742
21-11-2023 21:00,11,21,21:00,-1.4,-2.3,94,8,19,4.8,100.34,,-7,Snow,10.469
21-11-2023 22:00,11,21,22:00,-1.3,-1.8,96,11,13,4.8,100.29,,-6,Snow,8.327
21-11-2023 23:00,11,21,23:00,-1.2,-1.5,98,9,19,4.8,100.13,,-7,Snow,8.239
22-11-2023 00:00,11,22,00:00,-0.8,-1.1,98,10,13,6.4,100.04,,-5,Freezing Drizzle,8.128
22-11-2023 01:00,11,22,01:00,-0.3,-0.5,99,10,17,8.1,99.95,,-5,Freezing Rain,8.124
22-11-2023 02:00,11,22,02:00,0,-0.2,99,10,12,8.1,99.84,,-4,"Rain,Fog",8.377
22-11-2023 03:00,11,22,03:00,0.2,0,99,10,13,8.1,99.74,,,"Rain,Fog",7.691
22-11-2023 04:00,11,22,04:00,0.3,0.2,99,11,14,6.4,99.64,,,"Rain,Fog",8.291
22-11-2023 05:00,11,22,05:00,0.4,0.3,99,9,11,4.8,99.64,,,"Drizzle,Fog",8.319
22-11-2023 06:00,11,22,06:00,0.3,0.1,99,5,11,3.2,99.65,,,"Drizzle,Fog",11.678
22-11-2023 07:00,11,22,07:00,0.3,0.2,99,5,11,4.8,99.6,,,"Rain,Fog",15.418
22-11-2023 08:00,11,22,08:00,0.2,0,99,5,12,3.2,99.59,,,"Rain,Fog",16.164
22-11-2023 09:00,11,22,09:00,0.6,0.4,99,8,8,2.4,99.53,,,"Rain,Fog",14.489
22-11-2023 10:00,11,22,10:00,0.7,0.6,99,8,8,1.6,99.45,,,Fog,14.378
22-11-2023 11:00,11,22,11:00,1,0.9,99,5,9,0.6,99.41,,,Fog,15.089
22-11-2023 12:00,11,22,12:00,1,0.8,99,2,7,0.6,99.38,,,"Drizzle,Fog",15.378
22-11-2023 13:00,11,22,13:00,1.3,1.2,99,1,9,4,99.33,,,"Drizzle,Fog",14.774
22-11-2023 14:00,11,22,14:00,1.5,1.4,99,35,8,6.4,99.29,,,"Drizzle,Fog",14.632
22-11-2023 15:00,11,22,15:00,1.5,1.4,99,33,8,1.6,99.29,,,Fog,14.073
22-11-2023 16:00,11,22,16:00,1.6,1.5,99,33,5,1.6,99.29,,,Fog,13.035
22-11-2023 17:00,11,22,17:00,1.5,1.4,99,32,7,12.9,99.29,,,NA,11.964
22-11-2023 18:00,11,22,18:00,1.6,1.4,99,29,8,0.6,99.32,,,Fog,11.037
22-11-2023 19:00,11,22,19:00,1.8,1.6,99,30,13,0.6,99.36,,,Fog,11.811
22-11-2023 20:00,11,22,20:00,1.7,1.6,99,30,20,0.6,99.4,,,Fog,12.652
22-11-2023 21:00,11,22,21:00,1.5,1.4,99,30,20,16.1,99.42,,,NA,8.951
22-11-2023 22:00,11,22,22:00,1.4,1.2,99,30,18,24.1,99.41,,,Cloudy,8.688
22-11-2023 23:00,11,22,23:00,1.1,0.7,97,27,13,24.1,99.41,,,NA,8.308
23-11-2023 00:00,11,23,00:00,1,-1.1,86,31,18,24.1,99.51,,,NA,8.562
23-11-2023 01:00,11,23,01:00,0.4,-0.5,94,27,12,24.1,99.48,,,Cloudy,8.159
23-11-2023 02:00,11,23,02:00,0.3,-0.9,92,27,14,24.1,99.54,,,NA,8.331
23-11-2023 03:00,11,23,03:00,-0.6,-1.3,95,26,10,24.1,99.54,,-4,NA,8.303
23-11-2023 04:00,11,23,04:00,-0.5,-0.9,97,24,10,24.1,99.52,,-4,Cloudy,8.188
23-11-2023 05:00,11,23,05:00,-0.4,-0.8,97,23,10,24.1,99.54,,-4,NA,8.229
23-11-2023 06:00,11,23,06:00,-0.3,-0.8,96,23,3,24.1,99.55,,-1,NA,14.57
23-11-2023 07:00,11,23,07:00,0,-1,93,23,6,24.1,99.62,,-2,Cloudy,14.714
23-11-2023 08:00,11,23,08:00,0,-0.6,95,17,9,24.1,99.59,,-3,NA,15.38
23-11-2023 09:00,11,23,09:00,0.5,-0.4,94,19,9,24.1,99.59,,,NA,14.603
23-11-2023 10:00,11,23,10:00,1.4,0.2,91,20,11,24.1,99.57,,,Cloudy,13.964
23-11-2023 11:00,11,23,11:00,1.8,0.4,91,19,10,24.1,99.51,,,NA,15.216
23-11-2023 12:00,11,23,12:00,2.4,0.8,89,19,7,24.1,99.46,,,NA,14.759
23-11-2023 13:00,11,23,13:00,3.6,1.1,84,22,14,24.1,99.39,,,Mostly Cloudy,14.694
23-11-2023 14:00,11,23,14:00,3.2,2.1,92,21,9,16.1,99.42,,,Rain Showers,14.091
23-11-2023 15:00,11,23,15:00,3.3,2.8,96,21,14,16.1,99.45,,,Rain Showers,13.179
23-11-2023 16:00,11,23,16:00,3.7,2.3,91,24,15,16.1,99.48,,,Cloudy,12.531
23-11-2023 17:00,11,23,17:00,3.8,2.5,91,24,13,16.1,99.54,,,NA,12.686
23-11-2023 18:00,11,23,18:00,3.8,2.2,89,26,18,24.1,99.63,,,NA,12.197
23-11-2023 19:00,11,23,19:00,3.2,1.4,88,26,16,24.1,99.69,,,Mostly Cloudy,11.603
23-11-2023 20:00,11,23,20:00,2.6,0,83,27,20,24.1,99.78,,,NA,11.665
23-11-2023 21:00,11,23,21:00,2.2,-0.4,83,28,19,24.1,99.89,,,NA,9.423
23-11-2023 22:00,11,23,22:00,1.2,-0.7,87,27,20,24.1,99.98,,,Mostly Cloudy,8.579
23-11-2023 23:00,11,23,23:00,0.6,-1.7,85,29,27,24.1,100.1,,,NA,8.594
24-11-2023 00:00,11,24,00:00,-0.6,-5,72,31,42,24.1,100.21,,-8,NA,8.468
24-11-2023 01:00,11,24,01:00,-2.9,-8.4,66,31,39,24.1,100.31,,-11,Mainly Clear,8.617
24-11-2023 02:00,11,24,02:00,-4,-8.4,71,31,29,24.1,100.43,,-12,NA,8.244
24-11-2023 03:00,11,24,03:00,-5.7,-10.7,68,34,18,24.1,100.55,,-12,NA,8.298
24-11-2023 04:00,11,24,04:00,-6.6,-12.5,63,34,20,24.1,100.63,,-14,Mostly Cloudy,8.239
24-11-2023 05:00,11,24,05:00,-7.3,-12.2,68,31,18,24.1,100.73,,-14,NA,8.235
24-11-2023 06:00,11,24,06:00,-8.1,-12.1,73,31,13,24.1,100.77,,-14,NA,16.108
24-11-2023 07:00,11,24,07:00,-7.8,-14.6,59,30,27,24.1,100.84,,-16,Clear,15.853
24-11-2023 08:00,11,24,08:00,-8,-14.8,59,28,20,24.1,100.91,,-15,NA,15
24-11-2023 09:00,11,24,09:00,-7.2,-14.2,58,30,21,24.1,100.98,,-15,NA,16.017
24-11-2023 10:00,11,24,10:00,-7.2,-14,59,32,23,24.1,101.04,,-15,Clear,14.078
24-11-2023 11:00,11,24,11:00,-7.1,-16.2,49,28,25,24.1,101,,-15,NA,14.216
24-11-2023 12:00,11,24,12:00,-5.5,-15.1,47,27,18,24.1,100.94,,-12,NA,13.998
24-11-2023 13:00,11,24,13:00,-5.4,-15.8,44,28,22,24.1,100.9,,-12,Mainly Clear,14.026
24-11-2023 14:00,11,24,14:00,-4.5,-16.1,40,25,24,24.1,100.86,,-12,NA,13.018
24-11-2023 15:00,11,24,15:00,-4.1,-16,39,28,20,24.1,100.85,,-10,NA,11.991
24-11-2023 16:00,11,24,16:00,-4.5,-16.1,40,27,18,24.1,100.86,,-11,Clear,12.719
24-11-2023 17:00,11,24,17:00,-6,-16.6,43,28,12,24.1,100.91,,-11,NA,11.837
24-11-2023 18:00,11,24,18:00,-6.2,-16.2,46,27,14,24.1,100.99,,-12,NA,11.938
24-11-2023 19:00,11,24,19:00,-7,-15.4,51,25,10,24.1,101.04,,-12,Clear,11.367
24-11-2023 20:00,11,24,20:00,-6.7,-15,52,28,14,24.1,101.11,,-12,NA,11.184
24-11-2023 21:00,11,24,21:00,-6.3,-15.5,49,30,19,24.1,101.18,,-13,NA,9.584
24-11-2023 22:00,11,24,22:00,-7.1,-15.7,51,30,17,24.1,101.21,,-14,Clear,9.609
24-11-2023 23:00,11,24,23:00,-8,-15.4,56,23,6,24.1,101.25,,-11,NA,10.384
25-11-2023 00:00,11,25,00:00,-9.7,-15.9,61,19,6,24.1,101.27,,-13,NA,9.594
25-11-2023 01:00,11,25,01:00,-9.7,-15,65,19,10,24.1,101.29,,-15,Clear,9.132
25-11-2023 02:00,11,25,02:00,-9.2,-15.2,62,19,10,24.1,101.3,,-14,NA,9.23
25-11-2023 03:00,11,25,03:00,-9.9,-14.2,71,21,9,24.1,101.3,,-15,NA,9.233
25-11-2023 04:00,11,25,04:00,-9.6,-12.7,78,22,11,24.1,101.25,,-15,Clear,9.078
25-11-2023 05:00,11,25,05:00,-9.7,-12.2,82,23,10,24.1,101.25,,-15,NA,9.45
25-11-2023 06:00,11,25,06:00,-9.7,-11.8,85,22,8,24.1,101.25,,-14,NA,9.467
25-11-2023 07:00,11,25,07:00,-9.8,-11.5,87,19,10,24.1,101.25,,-15,Mainly Clear,9.371
25-11-2023 08:00,11,25,08:00,-7.5,-9.6,85,19,8,24.1,101.23,,-12,NA,9.075
25-11-2023 09:00,11,25,09:00,-4,-6.7,81,23,12,24.1,101.22,,-9,NA,9.325
25-11-2023 10:00,11,25,10:00,-1.6,-5.5,75,22,17,24.1,101.23,,-7,Mostly Cloudy,9.271
25-11-2023 11:00,11,25,11:00,1.1,-4.3,67,21,23,24.1,101.16,,,NA,9.228
25-11-2023 12:00,11,25,12:00,2.8,-4.5,59,24,28,24.1,101.07,,,NA,9.405
25-11-2023 13:00,11,25,13:00,3.2,-4.7,56,23,25,24.1,101.02,,,Mostly Cloudy,9.151
25-11-2023 14:00,11,25,14:00,2.8,-4.4,59,22,30,24.1,100.93,,,NA,9.272
25-11-2023 15:00,11,25,15:00,2.5,-4.4,60,22,24,24.1,100.92,,,NA,9.324
25-11-2023 16:00,11,25,16:00,1.9,-4.3,64,22,20,24.1,100.91,,,Mostly Cloudy,9.398
25-11-2023 17:00,11,25,17:00,1.3,-4.5,66,21,18,24.1,100.88,,,NA,9.17
25-11-2023 18:00,11,25,18:00,0.9,-4.8,66,22,18,24.1,100.89,,,NA,9.249
25-11-2023 19:00,11,25,19:00,-0.1,-4.9,70,21,19,24.1,100.89,,-5,Mostly Cloudy,9.434
25-11-2023 20:00,11,25,20:00,-0.8,-4.8,75,21,16,24.1,100.91,,-6,NA,9.217
25-11-2023 21:00,11,25,21:00,-1.2,-4.4,79,20,14,24.1,100.92,,-6,NA,9.108
25-11-2023 22:00,11,25,22:00,-1.6,-4.3,82,21,12,24.1,100.91,,-6,Mostly Cloudy,9.414
25-11-2023 23:00,11,25,23:00,-1.5,-4.2,82,21,9,24.1,100.88,,-5,NA,9.285
26-11-2023 00:00,11,26,00:00,-1.5,-4.1,83,20,8,24.1,100.88,,-5,NA,9.153
26-11-2023 01:00,11,26,01:00,-1.7,-3.9,85,19,10,24.1,100.85,,-5,Mostly Cloudy,9.064
26-11-2023 02:00,11,26,02:00,-1.3,-3.7,84,21,11,24.1,100.84,,-5,NA,9.036
26-11-2023 03:00,11,26,03:00,-2.5,-4.1,89,18,8,24.1,100.83,,-6,NA,9.05
26-11-2023 04:00,11,26,04:00,-3.1,-4.1,93,16,9,24.1,100.78,,-7,Mainly Clear,9.193
26-11-2023 05:00,11,26,05:00,-2.2,-3.3,93,15,10,24.1,100.76,,-6,NA,9.052
26-11-2023 06:00,11,26,06:00,-2.1,-3.6,89,13,9,24.1,100.72,,-6,NA,8.936
26-11-2023 07:00,11,26,07:00,-1.7,-3.8,86,14,12,19.3,100.7,,-6,Mostly Cloudy,9.113
26-11-2023 08:00,11,26,08:00,-1.2,-3.5,85,12,9,24.1,100.68,,-4,NA,9.167
26-11-2023 09:00,11,26,09:00,-0.3,-3,82,11,7,24.1,100.65,,-3,NA,9.174
26-11-2023 10:00,11,26,10:00,2.2,-3.8,65,14,14,24.1,100.56,,,Mostly Cloudy,9.062
26-11-2023 11:00,11,26,11:00,3.2,-3.9,59,13,14,24.1,100.44,,,NA,8.912
26-11-2023 12:00,11,26,12:00,4.6,-4.3,53,13,15,24.1,100.31,,,NA,9.25
26-11-2023 13:00,11,26,13:00,4.4,-5.3,49,14,17,24.1,100.22,,,Cloudy,8.877
26-11-2023 14:00,11,26,14:00,4.1,-5.9,48,13,19,24.1,100.13,,,NA,9.571
26-11-2023 15:00,11,26,15:00,3.8,-6,49,12,15,24.1,100,,,NA,9.314
26-11-2023 16:00,11,26,16:00,3.1,-5.5,53,10,13,24.1,99.85,,,Mostly Cloudy,9.144
26-11-2023 17:00,11,26,17:00,2.3,-5.6,56,8,9,24.1,99.76,,,NA,8.9
26-11-2023 18:00,11,26,18:00,2.7,-5,57,9,17,24.1,99.65,,,NA,9.054
26-11-2023 19:00,11,26,19:00,1.8,-3.3,69,9,18,24.1,99.52,,,Cloudy,9.321
26-11-2023 20:00,11,26,20:00,1.6,-2.9,72,7,13,24.1,99.42,,,NA,9.16
26-11-2023 21:00,11,26,21:00,1.9,-3,70,11,15,12.9,99.32,,,"Rain,Snow",9.325
26-11-2023 22:00,11,26,22:00,1.4,-1.9,79,9,13,12.9,99.18,,,Cloudy,9.168
26-11-2023 23:00,11,26,23:00,1.3,-1.1,84,9,12,12.9,99.06,,,Rain,9.253
27-11-2023 00:00,11,27,00:00,1.1,0.4,95,8,12,12.9,98.95,,,Rain,9.155
27-11-2023 01:00,11,27,01:00,1.3,1.1,99,10,13,12.9,98.82,,,Rain,9.092
27-11-2023 02:00,11,27,02:00,2.6,2.5,99,13,9,12.9,98.75,,,Drizzle,9.283
27-11-2023 03:00,11,27,03:00,3.7,3.6,99,17,13,12.9,98.66,,,NA,9.069
27-11-2023 04:00,11,27,04:00,4.1,3.8,98,19,15,16.1,98.61,,,Cloudy,9.109
27-11-2023 05:00,11,27,05:00,4.2,3.8,97,20,16,16.1,98.57,,,NA,9.02
27-11-2023 06:00,11,27,06:00,4,3.6,97,21,15,12.9,98.55,,,NA,9.186
27-11-2023 07:00,11,27,07:00,3.5,2.1,91,24,19,24.1,98.62,,,Cloudy,12.735
27-11-2023 08:00,11,27,08:00,3,1.2,88,23,22,24.1,98.68,,,NA,15.002
27-11-2023 09:00,11,27,09:00,2.7,1.1,89,23,29,24.1,98.72,,,Rain,15.799
27-11-2023 10:00,11,27,10:00,2.8,0.4,84,24,26,24.1,98.76,,,Cloudy,14.737
27-11-2023 11:00,11,27,11:00,3.2,-0.3,78,24,31,24.1,98.73,,,NA,15.186
27-11-2023 12:00,11,27,12:00,3.8,-1.2,69,24,34,24.1,98.73,,,NA,15.93
27-11-2023 13:00,11,27,13:00,4.4,-2.4,62,24,35,24.1,98.7,,,Mostly Cloudy,14.22
27-11-2023 14:00,11,27,14:00,4.4,-2.9,59,24,32,24.1,98.73,,,NA,14.488
27-11-2023 15:00,11,27,15:00,1.3,-3.2,72,25,29,24.1,98.82,,,NA,14.392
27-11-2023 16:00,11,27,16:00,1.3,-3.5,70,24,19,24.1,98.9,,,Mostly Cloudy,13.813
27-11-2023 17:00,11,27,17:00,1.3,-3.9,68,24,17,24.1,98.95,,,NA,11.804
27-11-2023 18:00,11,27,18:00,1,-4.1,69,24,30,24.1,99.03,,,NA,11.86
27-11-2023 19:00,11,27,19:00,0.1,-4,74,25,16,24.1,99.05,,,Cloudy,11.591
27-11-2023 20:00,11,27,20:00,-0.2,-4.6,72,25,16,24.1,99.02,,-5,NA,10.67
27-11-2023 21:00,11,27,21:00,-0.6,-4.2,76,25,10,24.1,98.99,,-4,NA,11.426
27-11-2023 22:00,11,27,22:00,-0.8,-5.5,70,25,18,24.1,99.01,,-6,Mostly Cloudy,9.475
27-11-2023 23:00,11,27,23:00,-1.9,-4.4,83,28,18,12.9,99.03,,-7,Snow Showers,9.618
28-11-2023 00:00,11,28,00:00,-2.5,-6,77,27,17,12.9,99.03,,-8,Snow Showers,9.534
28-11-2023 01:00,11,28,01:00,-2.3,-6.8,72,26,20,24.1,99.02,,-8,Cloudy,9.217
28-11-2023 02:00,11,28,02:00,-3,-8.3,67,26,16,24.1,99.05,,-8,NA,9.24
28-11-2023 03:00,11,28,03:00,-4.4,-7.9,77,24,11,24.1,99.04,,-9,NA,9.211
28-11-2023 04:00,11,28,04:00,-4.4,-8.7,72,25,18,24.1,99.01,,-10,Mainly Clear,9.522
28-11-2023 05:00,11,28,05:00,-4.9,-9.7,69,25,20,24.1,99.02,,-11,NA,9.121
28-11-2023 06:00,11,28,06:00,-4.8,-9.7,69,26,18,24.1,99.04,,-11,NA,15.938
28-11-2023 07:00,11,28,07:00,-5.8,-9.3,76,25,17,24.1,99.06,,-12,Mainly Clear,15.985
28-11-2023 08:00,11,28,08:00,-5.4,-9.9,70,28,18,24.1,99.08,,-12,NA,15.94
28-11-2023 09:00,11,28,09:00,-4.6,-10.6,63,28,29,24.1,99.11,,-12,NA,14.808
28-11-2023 10:00,11,28,10:00,-4,-10.5,61,27,25,24.1,99.18,,-11,Mainly Clear,14.709
28-11-2023 11:00,11,28,11:00,-4.6,-11.8,57,27,33,24.1,99.21,,-13,Snow,14.685
28-11-2023 12:00,11,28,12:00,-5.1,-11,63,28,24,24.1,99.23,,-12,NA,13.127
28-11-2023 13:00,11,28,13:00,-4.1,-12.7,52,27,33,24.1,99.28,,-12,Mostly Cloudy,12.765
28-11-2023 14:00,11,28,14:00,-5.2,-12.4,57,28,30,24.1,99.32,,-13,NA,9.95
28-11-2023 15:00,11,28,15:00,-5.9,-12.8,59,28,30,24.1,99.39,,-14,NA,10.036
28-11-2023 16:00,11,28,16:00,-5.3,-12.4,58,28,20,24.1,99.49,,-12,Mostly Cloudy,9.827
28-11-2023 17:00,11,28,17:00,-5.3,-12.3,58,29,31,24.1,99.58,,-14,NA,8.609
28-11-2023 18:00,11,28,18:00,-6,-12.2,62,28,21,24.1,99.69,,-13,NA,8.61
28-11-2023 19:00,11,28,19:00,-6,-11.7,64,27,22,24.1,99.72,,-13,Mostly Cloudy,8.984
28-11-2023 20:00,11,28,20:00,-5.4,-11.6,62,28,26,24.1,99.79,,-13,NA,7.591
28-11-2023 21:00,11,28,21:00,-5.8,-11.9,62,28,24,24.1,99.83,,-13,NA,6.542
28-11-2023 22:00,11,28,22:00,-6.1,-12.5,61,29,26,24.1,99.88,,-14,Mainly Clear,6.921
28-11-2023 23:00,11,28,23:00,-6.7,-12.4,64,29,20,24.1,99.91,,-14,NA,6.233
29-11-2023 00:00,11,29,00:00,-8.1,-12.7,70,26,16,24.1,99.96,,-15,NA,6.225
29-11-2023 01:00,11,29,01:00,-8.8,-12.8,73,24,13,24.1,99.97,,-15,Mainly Clear,5.451
29-11-2023 02:00,11,29,02:00,-8.2,-12,75,24,13,24.1,99.99,,-14,NA,5.297
29-11-2023 03:00,11,29,03:00,-7.2,-11.6,71,25,17,24.1,99.97,,-14,NA,5.463
29-11-2023 04:00,11,29,04:00,-7.1,-11.7,70,23,9,24.1,99.93,,-11,Mostly Cloudy,5.372
29-11-2023 05:00,11,29,05:00,-6.8,-11.2,71,24,10,24.1,99.95,,-11,NA,5.403
29-11-2023 06:00,11,29,06:00,-6.6,-10.6,73,22,9,24.1,99.93,,-11,NA,5.507
29-11-2023 07:00,11,29,07:00,-6.7,-9.9,78,19,6,24.1,99.96,,-10,Mostly Cloudy,14.086
29-11-2023 08:00,11,29,08:00,-6,-9.6,76,21,7,24.1,99.94,,-9,NA,10.787
29-11-2023 09:00,11,29,09:00,-5.2,-9.6,71,19,10,12.9,99.93,,-10,Snow,11.605
29-11-2023 10:00,11,29,10:00,-4.2,-8.8,70,19,14,24.1,99.91,,-9,Cloudy,11.528
29-11-2023 11:00,11,29,11:00,-3.4,-8.3,69,19,15,24.1,99.84,,-9,NA,12.438
29-11-2023 12:00,11,29,12:00,-1.3,-8.4,58,21,22,24.1,99.73,,-7,NA,11.78
29-11-2023 13:00,11,29,13:00,0.6,-9.6,47,23,24,24.1,99.64,,,Mainly Clear,10.925
29-11-2023 14:00,11,29,14:00,0.5,-10.7,43,21,24,24.1,99.57,,,NA,10.027
29-11-2023 15:00,11,29,15:00,0.1,-9.5,48,21,23,24.1,99.55,,,NA,8.99
29-11-2023 16:00,11,29,16:00,-0.6,-6.3,66,21,24,24.1,99.55,,-7,Cloudy,10.036
29-11-2023 17:00,11,29,17:00,-0.9,-5.3,72,20,18,24.1,99.56,,-6,NA,8.373
29-11-2023 18:00,11,29,18:00,-0.8,-5.4,71,20,22,24.1,99.58,,-7,NA,8.255
29-11-2023 19:00,11,29,19:00,-1,-4.7,76,22,24,16.1,99.58,,-7,Snow Showers,8.771
29-11-2023 20:00,11,29,20:00,-1.1,-4.3,79,20,17,8.1,99.61,,-6,Snow Showers,7.569
29-11-2023 21:00,11,29,21:00,-1.1,-4.7,77,20,20,16.1,99.61,,-7,Snow,5.69
29-11-2023 22:00,11,29,22:00,-1,-4.8,75,20,18,16.1,99.61,,-6,Snow,5.174
29-11-2023 23:00,11,29,23:00,-0.8,-4.6,76,20,21,24.1,99.59,,-6,NA,5.632
30-11-2023 00:00,11,30,00:00,-0.7,-4.5,76,18,17,16.1,99.59,,-6,Snow,5.366
30-11-2023 01:00,11,30,01:00,-1.9,-3.3,90,19,13,4.8,99.63,,-6,Snow,5.222
30-11-2023 02:00,11,30,02:00,-1.6,-3.2,88,19,11,16.1,99.63,,-5,Snow,5.893
30-11-2023 03:00,11,30,03:00,-1.8,-4.2,84,20,9,24.1,99.65,,-5,NA,5.608
30-11-2023 04:00,11,30,04:00,-0.5,-3.4,81,21,15,24.1,99.66,,-5,Cloudy,5.629
30-11-2023 05:00,11,30,05:00,0,-3.1,80,22,10,16.1,99.71,,-3,NA,5.493
30-11-2023 06:00,11,30,06:00,0.4,-2.8,79,21,15,16.1,99.74,,,NA,5.453
30-11-2023 07:00,11,30,07:00,0.9,-2.4,79,21,23,24.1,99.76,,,Cloudy,14.737
30-11-2023 08:00,11,30,08:00,1.1,-2.2,79,21,22,24.1,99.74,,,NA,11.879
30-11-2023 09:00,11,30,09:00,2,-1.6,77,21,25,24.1,99.73,,,NA,12.887
30-11-2023 10:00,11,30,10:00,3.2,-1.7,71,22,27,24.1,99.76,,,Mainly Clear,10.885
30-11-2023 11:00,11,30,11:00,3.4,-1.4,71,22,31,24.1,99.68,,,NA,11.516
30-11-2023 12:00,11,30,12:00,4.4,-0.7,69,21,21,24.1,99.62,,,NA,11.347
30-11-2023 13:00,11,30,13:00,5.8,-1.2,60,21,33,24.1,99.56,,,Mostly Cloudy,10.881
30-11-2023 14:00,11,30,14:00,5.4,-0.9,64,21,22,24.1,99.51,,,NA,10.228
30-11-2023 15:00,11,30,15:00,5.3,-0.6,65,20,21,24.1,99.49,,,NA,10.06
30-11-2023 16:00,11,30,16:00,4.5,-0.7,69,19,17,24.1,99.49,,,Mostly Cloudy,10.736
30-11-2023 17:00,11,30,17:00,4.5,-0.9,68,19,20,24.1,99.43,,,NA,8.45
30-11-2023 18:00,11,30,18:00,4.3,-1.6,66,18,17,24.1,99.41,,,NA,7.975
30-11-2023 19:00,11,30,19:00,3.9,-2.3,64,18,13,24.1,99.4,,,Mostly Cloudy,9.354
30-11-2023 20:00,11,30,20:00,4.8,-1.9,62,20,16,24.1,99.39,,,NA,7.75
30-11-2023 21:00,11,30,21:00,3.7,-1.3,70,20,16,24.1,99.44,,,NA,5.752
30-11-2023 22:00,11,30,22:00,4.3,-0.5,71,23,9,24.1,99.47,,,Mostly Cloudy,5.553
30-11-2023 23:00,11,30,23:00,4.5,0.2,74,23,11,24.1,99.54,,,NA,5.601
01-12-2023 00:00,12,1,00:00,5.1,0.4,72,23,12,24.1,99.62,,,NA,5.75
01-12-2023 01:00,12,1,01:00,5.1,0.5,72,25,9,24.1,99.69,,,Cloudy,5.442
01-12-2023 02:00,12,1,02:00,5.5,1,73,24,10,24.1,99.76,,,NA,6.102
01-12-2023 03:00,12,1,03:00,5.8,1.2,72,26,10,24.1,99.81,,,NA,6.008
01-12-2023 04:00,12,1,04:00,5.4,1.2,74,22,5,24.1,99.84,,,Cloudy,5.863
01-12-2023 05:00,12,1,05:00,4.7,1.2,79,36,2,24.1,99.89,,,NA,5.752
01-12-2023 06:00,12,1,06:00,4,0.9,80,23,3,24.1,99.93,,,NA,5.884
01-12-2023 07:00,12,1,07:00,4.4,1.2,80,36,1,24.1,100.02,,,Mostly Cloudy,14.27
01-12-2023 08:00,12,1,08:00,3.9,1.1,82,24,7,24.1,100.11,,,NA,11.902
01-12-2023 09:00,12,1,09:00,5.7,2,77,24,10,24.1,100.18,,,NA,13.586
01-12-2023 10:00,12,1,10:00,7.1,0.9,65,27,18,24.1,100.22,,,Mostly Cloudy,11.25
01-12-2023 11:00,12,1,11:00,7,1,66,30,23,24.1,100.25,,,NA,11.014
01-12-2023 12:00,12,1,12:00,7.2,0.2,61,30,18,24.1,100.21,,,NA,12.012
01-12-2023 13:00,12,1,13:00,6,-1.3,60,30,18,24.1,100.2,,,Mostly Cloudy,10.527
01-12-2023 14:00,12,1,14:00,5.5,-1.8,59,31,16,24.1,100.18,,,NA,9.91
01-12-2023 15:00,12,1,15:00,4.8,-2.2,61,30,10,24.1,100.21,,,NA,9.697
01-12-2023 16:00,12,1,16:00,4.2,-2.4,62,23,5,24.1,100.24,,,Cloudy,10.619
01-12-2023 17:00,12,1,17:00,2.9,-0.7,77,18,5,24.1,100.27,,,Rain,9.252
01-12-2023 18:00,12,1,18:00,1.4,0.5,93,22,4,16.1,100.28,,,Rain,8.674
01-12-2023 19:00,12,1,19:00,0.9,0.6,97,36,1,16.1,100.27,,,Rain,8.543
01-12-2023 20:00,12,1,20:00,0.8,0.6,99,36,1,16.1,100.24,,,Rain,7.904
01-12-2023 21:00,12,1,21:00,1.3,1.1,98,5,7,16.1,100.22,,,Rain,6.626
01-12-2023 22:00,12,1,22:00,1.3,0.7,95,4,13,24.1,100.19,,,Cloudy,5.459
01-12-2023 23:00,12,1,23:00,1.2,0.5,95,3,15,24.1,100.14,,,NA,6.093
02-12-2023 00:00,12,2,00:00,0.9,0,94,2,16,12.9,100.16,,,Snow,5.899
02-12-2023 01:00,12,2,01:00,0.8,-0.2,93,36,13,24.1,100.16,,,Snow,5.66
02-12-2023 02:00,12,2,02:00,0.7,-0.4,92,1,17,16.1,100.16,,,Snow,5.665
02-12-2023 03:00,12,2,03:00,0.1,-0.2,98,36,12,4.8,100.19,,,"Snow,Fog",5.733
02-12-2023 04:00,12,2,04:00,0,-0.4,98,1,17,9.7,100.14,,-5,"Snow,Fog",5.645
02-12-2023 05:00,12,2,05:00,-0.1,-0.5,97,36,14,4.8,100.2,,-4,"Snow,Fog",5.623
02-12-2023 06:00,12,2,06:00,-0.2,-0.6,97,1,14,6.4,100.18,,-4,"Snow,Fog",5.824
02-12-2023 07:00,12,2,07:00,-0.4,-0.7,98,36,14,2.4,100.23,,-5,"Snow,Fog",5.852
02-12-2023 08:00,12,2,08:00,-0.5,-0.7,98,35,14,1.6,100.28,,-5,"Snow,Fog",5.882
02-12-2023 09:00,12,2,09:00,-0.6,-1.1,97,35,15,4.8,100.33,,-5,"Snow,Fog",5.602
02-12-2023 10:00,12,2,10:00,-0.8,-1.4,95,35,14,3.2,100.38,,-5,"Snow,Fog",5.482
02-12-2023 11:00,12,2,11:00,-0.4,-1.2,95,35,14,6.4,100.38,,-5,"Snow,Fog",5.732
02-12-2023 12:00,12,2,12:00,-0.2,-1.2,93,35,14,16.1,100.35,,-4,Snow,5.583
02-12-2023 13:00,12,2,13:00,0.4,-0.9,91,33,9,24.1,100.35,,,Cloudy,5.465
02-12-2023 14:00,12,2,14:00,0.7,-0.9,89,32,9,24.1,100.38,,,NA,5.469
02-12-2023 15:00,12,2,15:00,0.9,-0.3,92,29,8,24.1,100.4,,,NA,5.539
02-12-2023 16:00,12,2,16:00,0.8,-0.2,94,27,7,24.1,100.45,,,Mostly Cloudy,5.428
02-12-2023 17:00,12,2,17:00,0.6,-0.2,95,27,7,24.1,100.53,,,NA,5.545
02-12-2023 18:00,12,2,18:00,0.8,-0.5,91,32,9,24.1,100.55,,,NA,5.509
02-12-2023 19:00,12,2,19:00,0.6,-2.3,81,34,9,24.1,100.56,,,Cloudy,5.595
02-12-2023 20:00,12,2,20:00,0.4,-2.7,80,36,13,24.1,100.55,,,NA,5.812
02-12-2023 21:00,12,2,21:00,0.2,-3.4,77,36,15,24.1,100.54,,,NA,5.82
02-12-2023 22:00,12,2,22:00,0.2,-3.2,78,2,13,24.1,100.54,,,Cloudy,5.867
02-12-2023 23:00,12,2,23:00,0,-1.8,87,3,17,16.1,100.51,,-5,NA,5.795
03-12-2023 00:00,12,3,00:00,0,-2.7,82,2,17,16.1,100.5,,-5,NA,5.743
03-12-2023 01:00,12,3,01:00,-0.1,-2.2,86,3,16,24.1,100.48,,-5,Cloudy,5.808
03-12-2023 02:00,12,3,02:00,0,-0.9,93,6,17,16.1,100.46,,-5,NA,5.768
03-12-2023 03:00,12,3,03:00,-0.2,-1,94,6,14,12.9,100.45,,-4,NA,5.759
03-12-2023 04:00,12,3,04:00,-0.4,-1.5,92,5,24,12.9,100.34,,-6,Cloudy,5.766
03-12-2023 05:00,12,3,05:00,-0.5,-1.5,93,5,17,12.9,100.3,,-5,NA,5.694
03-12-2023 06:00,12,3,06:00,-0.6,-1.6,93,4,16,24.1,100.25,,-5,NA,5.641
03-12-2023 07:00,12,3,07:00,-0.9,-2.1,91,5,22,24.1,100.16,,-7,Cloudy,5.725
03-12-2023 08:00,12,3,08:00,-1.1,-2.5,90,6,26,24.1,100.06,,-7,NA,5.682
03-12-2023 09:00,12,3,09:00,-1.1,-2.5,90,6,29,24.1,100.06,,-8,NA,5.347
03-12-2023 10:00,12,3,10:00,-1.2,-2.2,93,5,31,24.1,99.97,,-8,Cloudy,5.371
03-12-2023 11:00,12,3,11:00,-1.1,-1.9,94,6,21,12.9,99.89,,-7,Freezing Rain,5.565
03-12-2023 12:00,12,3,12:00,-0.8,-1.4,96,6,26,16.1,99.73,,-7,Freezing Rain,5.336
03-12-2023 13:00,12,3,13:00,-0.6,-1.1,97,6,24,9.7,99.61,,-7,Freezing Rain,5.366
03-12-2023 14:00,12,3,14:00,-0.5,-0.9,97,6,22,9.7,99.48,,-6,Freezing Rain,5.342
03-12-2023 15:00,12,3,15:00,-0.4,-0.8,97,6,23,9.7,99.38,,-6,"Freezing Rain,Fog",5.479
03-12-2023 16:00,12,3,16:00,-0.3,-0.7,98,6,26,6.4,99.28,,-6,"Freezing Rain,Fog",5.358
03-12-2023 17:00,12,3,17:00,-0.3,-0.6,98,6,28,6.4,99.16,,-7,"Freezing Rain,Fog",5.414
03-12-2023 18:00,12,3,18:00,-0.2,-0.4,98,7,30,9.7,99.08,,-7,Freezing Rain,5.363
03-12-2023 19:00,12,3,19:00,-0.1,-0.4,98,7,25,8.1,99.02,,-6,"Freezing Rain,Fog",5.526
03-12-2023 20:00,12,3,20:00,-0.1,-0.3,98,6,20,6.4,98.98,,-5,"Freezing Rain,Fog",5.434
03-12-2023 21:00,12,3,21:00,-0.2,-0.4,99,6,19,6.4,98.89,,-5,"Freezing Rain,Fog",5.6
03-12-2023 22:00,12,3,22:00,-0.3,-0.5,99,6,22,3.2,98.82,,-6,"Snow,Fog",5.492
03-12-2023 23:00,12,3,23:00,-0.5,-0.7,99,6,21,6.4,98.77,,-6,"Snow,Fog",5.58
04-12-2023 00:00,12,4,00:00,-0.6,-0.9,98,7,22,3.2,98.73,,-6,Snow,5.59
04-12-2023 01:00,12,4,01:00,-0.8,-1.2,97,6,18,3.2,98.7,,-6,Snow,5.737
04-12-2023 02:00,12,4,02:00,-1.2,-1.4,98,2,13,2.4,98.76,,-5,Snow,5.451
04-12-2023 03:00,12,4,03:00,-1.4,-1.7,98,1,13,2.4,98.82,,-6,Snow,5.476
04-12-2023 04:00,12,4,04:00,-1.5,-1.8,98,2,14,1.6,98.84,,-6,Snow,5.571
04-12-2023 05:00,12,4,05:00,-1.7,-2,98,5,19,1.2,98.88,,-7,Snow,5.465
04-12-2023 06:00,12,4,06:00,-1.6,-2,97,8,12,2.4,98.95,,-6,Snow,5.67
04-12-2023 07:00,12,4,07:00,-1.4,-1.6,98,1,8,2.4,99.06,,-4,Snow,13.592
04-12-2023 08:00,12,4,08:00,-1.8,-2,98,27,12,3.2,99.12,,-6,Snow,11.538
04-12-2023 09:00,12,4,09:00,-1.8,-2.2,97,25,9,6.4,99.17,,-5,Snow,12.32
04-12-2023 10:00,12,4,10:00,-1.8,-2.4,95,25,10,9.7,99.27,,-5,Snow,10.951
04-12-2023 11:00,12,4,11:00,-1.6,-2.2,96,26,8,2.4,99.27,,-5,Snow,11.376
04-12-2023 12:00,12,4,12:00,-1.5,-2.1,96,27,7,8.1,99.29,,-4,Snow,10.13
04-12-2023 13:00,12,4,13:00,-1.3,-2.1,94,26,6,8.1,99.31,,-4,Snow,10.016
04-12-2023 14:00,12,4,14:00,-1.4,-1.9,97,24,4,3.2,99.34,,-3,Snow,11.151
04-12-2023 15:00,12,4,15:00,-1.7,-2.1,97,15,13,2.4,99.43,,-6,Snow,10.275
04-12-2023 16:00,12,4,16:00,-2.1,-2.7,96,13,9,4,99.55,,-6,Snow,8.836
04-12-2023 17:00,12,4,17:00,-2.3,-2.8,97,13,9,4,99.6,,-6,Snow,9.095
04-12-2023 18:00,12,4,18:00,-2.5,-3,96,36,2,8.1,99.69,,-3,Snow,8.48
04-12-2023 19:00,12,4,19:00,-2.5,-2.8,98,36,1,11.3,99.74,,-3,Snow,8.895
04-12-2023 20:00,12,4,20:00,-2.6,-2.9,98,15,4,3.2,99.81,,-4,Snow,7.854
04-12-2023 21:00,12,4,21:00,-3.1,-3.3,98,17,4,6.4,99.85,,-5,Snow,6.397
04-12-2023 22:00,12,4,22:00,-3.2,-3.4,98,18,4,6.4,99.92,,-5,Snow,6.54
04-12-2023 23:00,12,4,23:00,-3.6,-3.9,98,36,1,11.3,99.95,,-4,Snow,6.033
05-12-2023 00:00,12,5,00:00,-3.1,-3.4,98,20,4,11.3,100.01,,-5,Snow,5.644
05-12-2023 01:00,12,5,01:00,-3.3,-3.6,98,36,2,11.3,100.03,,-4,Snow,5.398
05-12-2023 02:00,12,5,02:00,-3,-3.3,98,16,3,6.4,100.09,,-4,Snow,6.021
05-12-2023 03:00,12,5,03:00,-3.1,-3.5,98,13,3,6.4,100.18,,-4,Snow,5.682
05-12-2023 04:00,12,5,04:00,-3.2,-3.5,97,10,6,11.3,100.2,,-6,Snow,5.949
05-12-2023 05:00,12,5,05:00,-3,-3.4,97,8,4,9.7,100.23,,-5,"Snow,Fog",5.92
05-12-2023 06:00,12,5,06:00,-2.9,-3.3,97,3,8,6.4,100.26,,-6,"Snow,Fog",5.614
05-12-2023 07:00,12,5,07:00,-3,-3.5,97,1,9,6.4,100.28,,-7,Snow,10.775
05-12-2023 08:00,12,5,08:00,-3.2,-3.5,98,5,10,2.4,100.32,,-7,Snow,12.03
05-12-2023 09:00,12,5,09:00,-3.2,-3.7,97,7,9,2.4,100.38,,-7,Snow,12.098
05-12-2023 10:00,12,5,10:00,-3.4,-4,95,6,10,2.4,100.41,,-7,Snow Grains,11.762
05-12-2023 11:00,12,5,11:00,-3.3,-4,94,7,8,2.4,100.41,,-7,Snow,12.472
05-12-2023 12:00,12,5,12:00,-3.4,-4,95,6,11,2.4,100.37,,-8,Snow,10
05-12-2023 13:00,12,5,13:00,-3.4,-4,96,5,13,2.4,100.4,,-8,Snow,11.375
05-12-2023 14:00,12,5,14:00,-3.5,-4,96,6,10,6.4,100.39,,-7,Snow,11.272
05-12-2023 15:00,12,5,15:00,-3.4,-4.1,95,7,10,3.2,100.39,,-7,Snow,10.082
05-12-2023 16:00,12,5,16:00,-3.6,-4.3,95,4,14,3.2,100.43,,-9,Snow,9.628
05-12-2023 17:00,12,5,17:00,-3.9,-4.6,95,5,14,12.9,100.44,,-9,Snow,8.679
05-12-2023 18:00,12,5,18:00,-4.4,-5,96,5,18,12.9,100.45,,-10,Snow,8.652
05-12-2023 19:00,12,5,19:00,-4.8,-6.1,91,9,14,16.1,100.49,,-10,Snow,9.326
05-12-2023 20:00,12,5,20:00,-5.2,-6.3,92,10,15,12.9,100.53,,-11,Snow,7.532
05-12-2023 21:00,12,5,21:00,-5.2,-6.2,93,7,9,8.1,100.52,,-9,Snow,5.664
05-12-2023 22:00,12,5,22:00,-5.4,-6.2,94,5,10,6.4,100.52,,-10,Snow,5.607
05-12-2023 23:00,12,5,23:00,-5.7,-6.7,93,4,15,9.7,100.51,,-11,Snow,5.731
06-12-2023 00:00,12,6,00:00,-5.8,-6.8,93,5,9,16.1,100.51,,-10,Snow,5.836
06-12-2023 01:00,12,6,01:00,-6.2,-7.2,93,4,10,16.1,100.5,,-11,Snow,5.786
06-12-2023 02:00,12,6,02:00,-6.3,-7.6,91,4,13,16.1,100.5,,-12,Snow,5.615
06-12-2023 03:00,12,6,03:00,-6.6,-7.7,92,1,11,16.1,100.51,,-12,Snow,5.908
06-12-2023 04:00,12,6,04:00,-7,-8.1,92,36,8,16.1,100.48,,-11,Snow,5.745
06-12-2023 05:00,12,6,05:00,-7.6,-8.7,92,33,12,9.7,100.48,,-13,Snow,5.601
06-12-2023 06:00,12,6,06:00,-8.6,-9.8,91,36,14,6.4,100.52,,-15,"Snow Grains,Fog",5.663
06-12-2023 07:00,12,6,07:00,-9.9,-12.1,84,34,13,16.1,100.57,,-16,Snow,13.33
06-12-2023 08:00,12,6,08:00,-12.1,-14.3,84,33,16,24.1,100.61,,-20,Snow,11.527
06-12-2023 09:00,12,6,09:00,-11.9,-14.4,82,33,12,24.1,100.65,,-18,NA,12.665
06-12-2023 10:00,12,6,10:00,-11.1,-14.1,78,32,18,24.1,100.67,,-19,Clear,11.68
06-12-2023 11:00,12,6,11:00,-10.7,-14.2,76,34,12,24.1,100.64,,-17,NA,12.455
06-12-2023 12:00,12,6,12:00,-10.8,-14.4,75,34,15,24.1,100.59,,-18,Snow,11.274
06-12-2023 13:00,12,6,13:00,-10.9,-15,72,34,12,24.1,100.58,,-17,Snow,11.932
06-12-2023 14:00,12,6,14:00,-10.9,-14.6,74,30,10,24.1,100.56,,-16,Snow,10.088
06-12-2023 15:00,12,6,15:00,-10.6,-13.8,78,31,15,12.9,100.57,,-17,Snow,9.414
06-12-2023 16:00,12,6,16:00,-10.8,-14.3,76,30,11,24.1,100.59,,-17,Snow,9.351
06-12-2023 17:00,12,6,17:00,-12,-15,79,31,13,24.1,100.59,,-19,NA,8.714
06-12-2023 18:00,12,6,18:00,-12.8,-14.8,85,27,9,24.1,100.62,,-18,NA,8.264
06-12-2023 19:00,12,6,19:00,-12.5,-14.5,85,27,12,24.1,100.63,,-19,Mostly Cloudy,8.565
06-12-2023 20:00,12,6,20:00,-13.4,-15.6,84,25,10,24.1,100.61,,-19,NA,8.311
06-12-2023 21:00,12,6,21:00,-14.1,-15.7,88,24,8,24.1,100.6,,-19,NA,5.533
06-12-2023 22:00,12,6,22:00,-14.6,-16.3,87,22,7,24.1,100.55,,-19,Mainly Clear,5.443
06-12-2023 23:00,12,6,23:00,-15.2,-17,86,24,10,24.1,100.56,,-21,NA,5.454
07-12-2023 00:00,12,7,00:00,-14.1,-16.1,85,22,9,24.1,100.5,,-20,NA,5.575
07-12-2023 01:00,12,7,01:00,-14.5,-16.2,87,19,5,24.1,100.41,,-18,Mostly Cloudy,5.784
07-12-2023 02:00,12,7,02:00,-14.2,-16,86,21,9,24.1,100.41,,-20,NA,5.647
07-12-2023 03:00,12,7,03:00,-13.4,-15.2,87,22,5,24.1,100.42,,-17,NA,5.632
07-12-2023 04:00,12,7,04:00,-13.2,-15.1,86,20,6,24.1,100.3,,-17,Mostly Cloudy,5.618
07-12-2023 05:00,12,7,05:00,-13,-14.8,86,14,6,24.1,100.27,,-17,NA,5.542
07-12-2023 06:00,12,7,06:00,-12.1,-13.9,87,20,8,24.1,100.25,,-17,NA,8.95
07-12-2023 07:00,12,7,07:00,-11.8,-13.6,87,11,5,24.1,100.21,,-15,Cloudy,10.47
07-12-2023 08:00,12,7,08:00,-11.7,-13.4,87,7,11,9.7,100.15,,-18,Snow,10.714
07-12-2023 09:00,12,7,09:00,-11.4,-13.1,87,7,10,16.1,100.11,,-17,Snow,11.878
07-12-2023 10:00,12,7,10:00,-10.6,-12.3,87,8,5,3.2,100.14,,-14,Snow,10.972
07-12-2023 11:00,12,7,11:00,-10.3,-12.1,86,9,16,3.2,100.06,,-17,Snow,12.186
07-12-2023 12:00,12,7,12:00,-9.9,-11.9,86,7,17,3.2,99.96,,-17,Snow,11.031
07-12-2023 13:00,12,7,13:00,-9.3,-11.4,85,8,10,3.2,99.93,,-14,Snow,11.743
07-12-2023 14:00,12,7,14:00,-8.9,-10.7,87,6,13,3.2,99.87,,-15,Snow,11.231
07-12-2023 15:00,12,7,15:00,-8.8,-10.4,88,6,9,2.4,99.94,,-13,Snow,11.584
07-12-2023 16:00,12,7,16:00,-8.8,-10.5,87,6,12,4.8,99.97,,-14,Snow,9.859
07-12-2023 17:00,12,7,17:00,-8.6,-10.1,89,5,12,9.7,100.05,,-14,Snow,8.896
07-12-2023 18:00,12,7,18:00,-8.6,-10.2,89,5,17,16.1,100.07,,-15,Snow,9.377
07-12-2023 19:00,12,7,19:00,-8.5,-10.1,88,6,9,16.1,100.14,,-13,Snow,8.74
07-12-2023 20:00,12,7,20:00,-8.4,-9.9,89,5,14,9.7,100.18,,-15,Snow,5.494
07-12-2023 21:00,12,7,21:00,-8.3,-10,88,4,12,16.1,100.25,,-14,Snow,4.34
07-12-2023 22:00,12,7,22:00,-8.4,-10.1,87,5,9,16.1,100.27,,-13,Snow,5.361
07-12-2023 23:00,12,7,23:00,-8.2,-9.9,88,5,8,16.1,100.3,,-12,Snow,4.547
08-12-2023 00:00,12,8,00:00,-7.9,-9.4,90,4,15,12.9,100.34,,-14,Snow,4.82
08-12-2023 01:00,12,8,01:00,-8,-9.1,92,5,12,12.9,100.41,,-13,Snow,4.612
08-12-2023 02:00,12,8,02:00,-7.8,-9.6,87,4,13,16.1,100.48,,-14,Snow,4.567
08-12-2023 03:00,12,8,03:00,-7.8,-9.4,88,5,12,6.4,100.52,,-13,Snow,4.654
08-12-2023 04:00,12,8,04:00,-7.6,-9.6,86,5,10,16.1,100.58,,-12,Snow,4.766
08-12-2023 05:00,12,8,05:00,-7.5,-9.2,88,6,8,16.1,100.6,,-12,NA,4.671
08-12-2023 06:00,12,8,06:00,-7.4,-9.1,88,5,9,16.1,100.65,,-12,NA,3.748
08-12-2023 07:00,12,8,07:00,-7.4,-9.1,88,6,10,16.1,100.66,,-12,Cloudy,13.13
08-12-2023 08:00,12,8,08:00,-7.4,-9.1,88,5,11,16.1,100.72,,-12,NA,10.848
08-12-2023 09:00,12,8,09:00,-7.1,-8.8,88,8,13,16.1,100.74,,-13,NA,11.597
08-12-2023 10:00,12,8,10:00,-6.5,-8.2,88,7,15,16.1,100.74,,-12,Cloudy,10.693
08-12-2023 11:00,12,8,11:00,-6,-7.9,86,8,14,16.1,100.76,,-12,NA,11.141
08-12-2023 12:00,12,8,12:00,-5.6,-7.6,85,8,17,12.9,100.66,,-12,NA,12.354
08-12-2023 13:00,12,8,13:00,-5,-6.6,89,8,19,16.1,100.6,,-11,Cloudy,11.141
08-12-2023 14:00,12,8,14:00,-5,-6.3,91,5,20,16.1,100.55,,-12,NA,9.671
08-12-2023 15:00,12,8,15:00,-4.9,-6.3,90,6,19,16.1,100.55,,-11,NA,9.115
08-12-2023 16:00,12,8,16:00,-5.2,-6.5,91,5,16,24.1,100.54,,-11,Mostly Cloudy,9.384
08-12-2023 17:00,12,8,17:00,-5.6,-6.9,91,6,17,24.1,100.51,,-12,NA,8.202
08-12-2023 18:00,12,8,18:00,-5.9,-7.2,91,6,17,24.1,100.52,,-12,NA,8.13
08-12-2023 19:00,12,8,19:00,-5.3,-6.4,92,6,16,16.1,100.52,,-11,Cloudy,9.086
08-12-2023 20:00,12,8,20:00,-5.1,-6.1,93,6,15,16.1,100.51,,-11,NA,7.201
08-12-2023 21:00,12,8,21:00,-4.7,-5.6,93,6,17,16.1,100.51,,-11,NA,6.001
08-12-2023 22:00,12,8,22:00,-4.3,-5.3,93,7,17,16.1,100.47,,-10,Cloudy,6.434
08-12-2023 23:00,12,8,23:00,-4.1,-5.1,93,8,18,16.1,100.48,,-10,NA,5.682
09-12-2023 00:00,12,9,00:00,-4.1,-5.1,93,7,20,16.1,100.46,,-10,NA,5.788
09-12-2023 01:00,12,9,01:00,-4,-5,93,7,18,16.1,100.45,,-10,Cloudy,5.63
09-12-2023 02:00,12,9,02:00,-3.9,-4.8,93,7,17,16.1,100.45,,-10,NA,5.74
09-12-2023 03:00,12,9,03:00,-3.8,-4.7,94,7,17,16.1,100.47,,-10,NA,5.628
09-12-2023 04:00,12,9,04:00,-3.7,-4.5,94,7,15,16.1,100.43,,-9,Cloudy,5.803
09-12-2023 05:00,12,9,05:00,-3.7,-4.5,94,8,14,12.9,100.43,,-9,NA,5.531
09-12-2023 06:00,12,9,06:00,-3.6,-4.3,95,7,14,9.7,100.44,,-9,Fog,5.653
09-12-2023 07:00,12,9,07:00,-3.6,-4.3,95,7,16,8.1,100.43,,-9,Fog,5.916
09-12-2023 08:00,12,9,08:00,-3.4,-4.1,95,6,15,6.4,100.43,,-9,Fog,5.683
09-12-2023 09:00,12,9,09:00,-3,-3.7,95,7,17,4.8,100.43,,-9,Fog,5.525
09-12-2023 10:00,12,9,10:00,-2.5,-3.2,95,7,14,4.8,100.48,,-7,Fog,5.578
09-12-2023 11:00,12,9,11:00,-1.9,-2.6,95,7,16,4.8,100.39,,-7,Fog,5.377
09-12-2023 12:00,12,9,12:00,-1.7,-2.1,97,6,12,4.8,100.29,,-6,Fog,5.367
09-12-2023 13:00,12,9,13:00,-1.3,-1.7,97,7,14,4.8,100.22,,-6,Fog,5.312
09-12-2023 14:00,12,9,14:00,-1,-1.4,98,6,15,4.8,100.12,,-6,"Freezing Rain,Fog",5.629
09-12-2023 15:00,12,9,15:00,-0.6,-0.9,97,8,17,4.8,100.06,,-6,Fog,5.528
09-12-2023 16:00,12,9,16:00,-0.3,-0.6,98,8,18,4.8,100.04,,-5,Fog,5.302
09-12-2023 17:00,12,9,17:00,-0.1,-0.4,98,7,13,4.8,100.05,,-4,Fog,5.542
09-12-2023 18:00,12,9,18:00,0,-0.2,98,7,12,4.8,100.04,,-4,Fog,5.514
09-12-2023 19:00,12,9,19:00,0.1,-0.1,99,6,10,6.4,100.05,,,Fog,5.725
09-12-2023 20:00,12,9,20:00,0.1,-0.1,99,6,14,4.8,100.02,,,Fog,5.843
09-12-2023 21:00,12,9,21:00,0.1,-0.1,99,6,10,4.8,99.94,,,Fog,5.93
09-12-2023 22:00,12,9,22:00,0.1,-0.1,99,5,8,3.2,99.89,,,Fog,5.903
09-12-2023 23:00,12,9,23:00,0.1,0,99,9,14,6.4,99.69,,,Fog,5.77
10-12-2023 00:00,12,10,00:00,0.3,0.2,99,7,10,9.7,99.57,,,Fog,5.903
10-12-2023 01:00,12,10,01:00,0.3,0.2,99,36,8,6.4,99.57,,,"Rain Showers,Fog",5.909
10-12-2023 02:00,12,10,02:00,0.2,0.1,99,6,14,3.2,99.48,,,"Rain Showers,Fog",5.706
10-12-2023 03:00,12,10,03:00,0.4,0.3,99,9,12,2.4,99.38,,,"Rain Showers,Fog",5.808
10-12-2023 04:00,12,10,04:00,1.4,1.3,99,8,7,3.2,99.29,,,Fog,5.827
10-12-2023 05:00,12,10,05:00,1.2,1.1,99,8,8,3.2,99.2,,,Fog,5.617
10-12-2023 06:00,12,10,06:00,1.5,1.4,99,6,7,6.4,99.19,,,Fog,5.818
10-12-2023 07:00,12,10,07:00,1.1,1,99,33,14,3.2,99.28,,,"Drizzle,Fog",6.166
10-12-2023 08:00,12,10,08:00,1.5,1.4,99,36,2,1.2,99.34,,,"Moderate Rain,Fog",5.99
10-12-2023 09:00,12,10,09:00,1.4,1.3,99,23,9,1.2,99.45,,,"Rain,Fog",5.651
10-12-2023 10:00,12,10,10:00,2.8,2.7,99,23,8,24.1,99.47,,,Rain,5.708
10-12-2023 11:00,12,10,11:00,3.4,3.3,99,20,10,4.8,99.55,,,"Rain,Fog",5.671
10-12-2023 12:00,12,10,12:00,3.5,3.5,99,20,5,0.2,99.5,,,"Drizzle,Fog",5.866
10-12-2023 13:00,12,10,13:00,4,3.9,99,23,13,8.1,99.55,,,Fog,5.887
10-12-2023 14:00,12,10,14:00,4,3.9,100,24,8,24.1,99.49,,,NA,5.764
10-12-2023 15:00,12,10,15:00,3.6,3.4,99,23,10,24.1,99.49,,,NA,5.82
10-12-2023 16:00,12,10,16:00,3.3,2.5,95,22,8,24.1,99.55,,,Mostly Cloudy,5.667
10-12-2023 17:00,12,10,17:00,2.9,1.6,91,25,10,24.1,99.57,,,NA,5.64
10-12-2023 18:00,12,10,18:00,2.6,1.5,92,24,5,24.1,99.6,,,NA,5.578
10-12-2023 19:00,12,10,19:00,2.5,1.8,95,19,4,24.1,99.6,,,Cloudy,5.803
10-12-2023 20:00,12,10,20:00,2.3,1.2,93,24,4,24.1,99.61,,,NA,6.029
10-12-2023 21:00,12,10,21:00,1.4,0.7,95,18,3,24.1,99.54,,,NA,6.143
10-12-2023 22:00,12,10,22:00,1.7,0.7,93,19,9,24.1,99.56,,,Cloudy,5.977
10-12-2023 23:00,12,10,23:00,1.4,0.6,95,18,4,24.1,99.44,,,NA,6.202
11-12-2023 00:00,12,11,00:00,0.9,0.5,97,25,5,24.1,99.4,,,NA,5.953
11-12-2023 01:00,12,11,01:00,0.5,0.2,98,23,5,24.1,99.38,,,Cloudy,5.985
11-12-2023 02:00,12,11,02:00,0.8,0.5,98,21,3,24.1,99.27,,,NA,5.912
11-12-2023 03:00,12,11,03:00,0.5,0.3,99,21,6,24.1,99.3,,,NA,5.982
11-12-2023 04:00,12,11,04:00,0.4,0.2,99,24,7,24.1,99.23,,,Cloudy,6.138
11-12-2023 05:00,12,11,05:00,0.5,0.2,98,26,8,16.1,99.19,,,Drizzle,5.974
11-12-2023 06:00,12,11,06:00,0.6,0.4,98,29,11,24.1,99.21,,,NA,6.248
11-12-2023 07:00,12,11,07:00,0.6,0.4,99,29,11,24.1,99.2,,,Cloudy,13.744
11-12-2023 08:00,12,11,08:00,0.5,0.4,99,30,10,6.4,99.22,,,"Rain,Fog",11.657
11-12-2023 09:00,12,11,09:00,0.5,0.4,99,31,13,12.9,99.21,,,"Rain,Snow",12.495
11-12-2023 10:00,12,11,10:00,0.3,0,98,30,20,2.4,99.29,,,Snow,11.859
11-12-2023 11:00,12,11,11:00,-0.1,-0.4,98,29,21,1.6,99.33,,-6,Snow,12.545
11-12-2023 12:00,12,11,12:00,-0.9,-1.7,95,30,33,1.2,99.35,,-8,Snow,11.179
11-12-2023 13:00,12,11,13:00,-1,-3.9,81,30,32,16.1,99.43,,-8,Snow,9.879
11-12-2023 14:00,12,11,14:00,-1.3,-4.5,79,30,28,24.1,99.54,,-8,Snow,10.576
11-12-2023 15:00,12,11,15:00,-1.8,-4.7,81,29,26,24.1,99.69,,-8,NA,10.442
11-12-2023 16:00,12,11,16:00,-2.2,-6.5,73,29,28,24.1,99.84,,-9,Mostly Cloudy,10.225
11-12-2023 17:00,12,11,17:00,-2.8,-6.8,74,29,24,24.1,99.97,,-9,NA,8.955
11-12-2023 18:00,12,11,18:00,-4.2,-8.7,71,29,37,24.1,100.11,,-13,NA,8.568
11-12-2023 19:00,12,11,19:00,-4.8,-10.4,65,29,30,24.1,100.24,,-13,Mainly Clear,9.328
11-12-2023 20:00,12,11,20:00,-5.1,-10.2,68,30,23,24.1,100.34,,-12,NA,7.421
11-12-2023 21:00,12,11,21:00,-4.7,-10.3,65,30,19,24.1,100.44,,-11,NA,5.705
11-12-2023 22:00,12,11,22:00,-5,-9.7,69,26,10,24.1,100.45,,-9,Cloudy,5.645
11-12-2023 23:00,12,11,23:00,-4.9,-9.9,68,26,15,24.1,100.5,,-10,NA,6.053
12-12-2023 00:00,12,12,00:00,-6.3,-10.1,75,25,9,24.1,100.53,,-11,NA,5.876
12-12-2023 01:00,12,12,01:00,-6.6,-9.6,79,20,9,24.1,100.57,,-11,Clear,5.843
12-12-2023 02:00,12,12,02:00,-7.2,-9.9,81,19,9,24.1,100.6,,-12,NA,5.705
12-12-2023 03:00,12,12,03:00,-6.7,-9.5,80,22,6,24.1,100.64,,-10,NA,5.926
12-12-2023 04:00,12,12,04:00,-5.7,-8.8,79,14,7,24.1,100.59,,-9,Cloudy,6.019
12-12-2023 05:00,12,12,05:00,-4.6,-7.9,78,16,9,24.1,100.52,,-8,NA,5.754
12-12-2023 06:00,12,12,06:00,-2.7,-5.8,80,21,16,24.1,100.54,,-8,NA,5.953
12-12-2023 07:00,12,12,07:00,-2,-5.2,79,21,18,24.1,100.56,,-7,Cloudy,14.313
12-12-2023 08:00,12,12,08:00,-1.4,-5.7,73,19,13,24.1,100.51,,-6,NA,12.048
12-12-2023 09:00,12,12,09:00,-0.6,-4.8,73,19,15,24.1,100.5,,-5,NA,13.128
12-12-2023 10:00,12,12,10:00,0,-4.1,74,19,21,24.1,100.43,,-5,Mostly Cloudy,11.51
12-12-2023 11:00,12,12,11:00,2.1,-2.7,71,21,29,24.1,100.3,,,NA,12.539
12-12-2023 12:00,12,12,12:00,2.4,-2.2,72,20,32,24.1,100.2,,,NA,11.374
12-12-2023 13:00,12,12,13:00,2.1,-2.1,74,20,28,24.1,100.22,,,Cloudy,11.273
12-12-2023 14:00,12,12,14:00,2.1,-2,74,21,30,9.7,100.2,,,Snow,11.136
12-12-2023 15:00,12,12,15:00,2.4,-1.7,74,21,25,16.1,100.24,,,NA,9.811
12-12-2023 16:00,12,12,16:00,2.6,-1.4,75,22,22,24.1,100.31,,,Snow,9.808
12-12-2023 17:00,12,12,17:00,1.2,-0.3,89,25,34,16.1,100.44,,,Snow,9.302
12-12-2023 18:00,12,12,18:00,1.2,-0.8,87,24,14,24.1,100.52,,,NA,8.774
12-12-2023 19:00,12,12,19:00,0.8,-1.2,86,23,14,24.1,100.58,,,Mainly Clear,9.127
12-12-2023 20:00,12,12,20:00,0.2,-1.7,87,23,17,24.1,100.67,,,NA,8.536
12-12-2023 21:00,12,12,21:00,0,-3.6,77,23,18,24.1,100.76,,-5,NA,5.798
12-12-2023 22:00,12,12,22:00,-0.3,-4.4,74,23,18,24.1,100.79,,-5,Clear,5.801
12-12-2023 23:00,12,12,23:00,-0.8,-4.7,75,24,18,24.1,100.86,,-6,NA,5.957
13-12-2023 00:00,12,13,00:00,-0.7,-4.8,74,23,21,24.1,100.87,,-6,NA,6.068
13-12-2023 01:00,12,13,01:00,-1.4,-6.5,68,26,22,24.1,100.92,,-7,Clear,5.972
13-12-2023 02:00,12,13,02:00,-2.4,-7.9,66,25,15,24.1,101.02,,-7,NA,5.948
13-12-2023 03:00,12,13,03:00,-1.4,-7.7,62,26,19,24.1,101.08,,-7,NA,5.881
13-12-2023 04:00,12,13,04:00,-1.2,-8.8,57,27,18,24.1,101.13,,-6,Cloudy,6.149
13-12-2023 05:00,12,13,05:00,-1.7,-8.6,60,26,14,24.1,101.16,,-6,NA,5.895
13-12-2023 06:00,12,13,06:00,-1.8,-8.9,58,28,21,24.1,101.24,,-8,NA,6.101
13-12-2023 07:00,12,13,07:00,-2.5,-9.9,57,26,17,24.1,101.26,,-8,Mainly Clear,14.327
13-12-2023 08:00,12,13,08:00,-3.1,-9.7,60,24,9,24.1,101.27,,-7,NA,12.249
13-12-2023 09:00,12,13,09:00,-2.5,-8.5,64,24,16,24.1,101.34,,-8,NA,12.204
13-12-2023 10:00,12,13,10:00,-1.4,-9.2,55,26,27,24.1,101.36,,-8,Clear,11.573
13-12-2023 11:00,12,13,11:00,-1.5,-9.8,53,28,35,24.1,101.4,,-9,NA,12.211
13-12-2023 12:00,12,13,12:00,-1.6,-8.4,60,30,25,24.1,101.38,,-8,NA,11.001
13-12-2023 13:00,12,13,13:00,-1.9,-9.8,55,30,28,24.1,101.37,,-9,Mainly Clear,10.787
13-12-2023 14:00,12,13,14:00,-1.6,-11.5,47,28,29,24.1,101.42,,-8,NA,11.65
13-12-2023 15:00,12,13,15:00,-1.7,-11.5,48,29,20,24.1,101.46,,-7,NA,9.801
13-12-2023 16:00,12,13,16:00,-2.3,-12.6,45,27,27,24.1,101.56,,-9,Mainly Clear,10.763
13-12-2023 17:00,12,13,17:00,-3.4,-12.7,49,28,16,24.1,101.65,,-9,NA,10.261
13-12-2023 18:00,12,13,18:00,-3.4,-12.3,51,29,21,24.1,101.75,,-10,NA,8.687
13-12-2023 19:00,12,13,19:00,-4.4,-12,56,32,17,24.1,101.87,,-10,Clear,8.405
13-12-2023 20:00,12,13,20:00,-5.7,-12.3,60,30,15,24.1,101.94,,-11,NA,8.338
13-12-2023 21:00,12,13,21:00,-6.2,-12.7,60,30,11,24.1,102.02,,-11,NA,5.964
13-12-2023 22:00,12,13,22:00,-7.2,-12.6,65,24,7,24.1,102.05,,-11,Mainly Clear,5.572
13-12-2023 23:00,12,13,23:00,-7.2,-12.7,65,24,9,24.1,102.11,,-12,NA,5.929
14-12-2023 00:00,12,14,00:00,-7.9,-12.7,69,24,9,24.1,102.13,,-12,NA,5.885
14-12-2023 01:00,12,14,01:00,-9.2,-13.4,72,25,8,24.1,102.12,,-14,Clear,5.906
14-12-2023 02:00,12,14,02:00,-10.3,-13.6,78,23,6,24.1,102.17,,-14,NA,5.814
14-12-2023 03:00,12,14,03:00,-9.7,-12.4,81,23,10,24.1,102.21,,-15,NA,5.806
14-12-2023 04:00,12,14,04:00,-9.8,-13.3,76,23,9,24.1,102.14,,-15,Mainly Clear,5.922
14-12-2023 05:00,12,14,05:00,-9.8,-13,78,21,8,24.1,102.14,,-14,NA,6.016
14-12-2023 06:00,12,14,06:00,-9.1,-12.9,74,20,9,24.1,102.07,,-14,NA,5.896
14-12-2023 07:00,12,14,07:00,-10,-13.2,78,22,11,24.1,102.08,,-16,Mainly Clear,14.12
14-12-2023 08:00,12,14,08:00,-9,-12.1,79,20,6,24.1,102.09,,-12,NA,12.588
14-12-2023 09:00,12,14,09:00,-7.5,-10.5,79,18,7,24.1,102.03,,-11,NA,11.902
14-12-2023 10:00,12,14,10:00,-4.9,-9.7,69,19,8,24.1,102,,-8,Mostly Cloudy,9.436
14-12-2023 11:00,12,14,11:00,-2.7,-9.1,62,20,13,24.1,101.88,,-7,NA,11.205
14-12-2023 12:00,12,14,12:00,-1.9,-8.1,63,19,13,24.1,101.7,,-6,NA,10.671
14-12-2023 13:00,12,14,13:00,-0.6,-6.2,66,20,19,24.1,101.55,,-6,Mostly Cloudy,11.49
14-12-2023 14:00,12,14,14:00,1,-5.4,63,20,22,24.1,101.41,,,NA,9.74
14-12-2023 15:00,12,14,15:00,1.2,-4.6,65,19,18,24.1,101.32,,,NA,10.54
14-12-2023 16:00,12,14,16:00,1,-4.5,67,20,16,24.1,101.2,,,Mainly Clear,9.421
14-12-2023 17:00,12,14,17:00,0.8,-4.1,70,20,21,24.1,101.12,,,NA,9.13
14-12-2023 18:00,12,14,18:00,0.6,-3.8,72,22,17,24.1,101.1,,,NA,8.666
14-12-2023 19:00,12,14,19:00,0.4,-3.2,77,21,16,24.1,101.03,,,Mainly Clear,8.763
14-12-2023 20:00,12,14,20:00,0.2,-3.5,77,21,14,24.1,100.98,,,NA,7.313
14-12-2023 21:00,12,14,21:00,0.8,-3.8,72,22,13,24.1,100.92,,,NA,6.636
14-12-2023 22:00,12,14,22:00,0.8,-3.7,72,21,18,24.1,100.83,,,Mainly Clear,5.562
14-12-2023 23:00,12,14,23:00,0.9,-3.6,72,21,17,24.1,100.78,,,NA,5.699
15-12-2023 00:00,12,15,00:00,1,-3.5,72,22,17,24.1,100.74,,,NA,5.887
15-12-2023 01:00,12,15,01:00,1.3,-3.1,73,21,16,24.1,100.7,,,Mainly Clear,6.051
15-12-2023 02:00,12,15,02:00,1.7,-2.4,74,22,20,24.1,100.69,,,NA,5.783
15-12-2023 03:00,12,15,03:00,1.5,-2.2,77,21,18,24.1,100.7,,,NA,5.875
15-12-2023 04:00,12,15,04:00,1.3,-1.9,79,21,14,24.1,100.68,,,Mainly Clear,5.799
15-12-2023 05:00,12,15,05:00,1.3,-1.5,81,21,17,24.1,100.71,,,NA,6.095
15-12-2023 06:00,12,15,06:00,1.3,-1.1,84,22,15,24.1,100.72,,,NA,5.995
15-12-2023 07:00,12,15,07:00,1.5,-0.6,86,21,18,24.1,100.77,,,Mainly Clear,14.231
15-12-2023 08:00,12,15,08:00,1.6,-0.3,87,22,19,24.1,100.86,,,NA,12.04
15-12-2023 09:00,12,15,09:00,2.4,0.1,84,21,14,24.1,100.89,,,NA,12.124
15-12-2023 10:00,12,15,10:00,4.2,0.8,79,21,17,24.1,100.91,,,Clear,11.508
15-12-2023 11:00,12,15,11:00,5.6,1.2,73,23,21,24.1,100.92,,,NA,11.387
15-12-2023 12:00,12,15,12:00,6.5,1.5,70,23,20,24.1,100.83,,,NA,9.967
15-12-2023 13:00,12,15,13:00,7.9,2,66,23,17,24.1,100.79,,,Mainly Clear,9.533
15-12-2023 14:00,12,15,14:00,8.5,2,63,23,23,24.1,100.77,,,NA,11.021
15-12-2023 15:00,12,15,15:00,8.5,2,64,22,16,24.1,100.77,,,NA,9.539
15-12-2023 16:00,12,15,16:00,7.6,1.6,66,23,12,24.1,100.78,,,Mainly Clear,9.241
15-12-2023 17:00,12,15,17:00,5.4,1,73,24,8,24.1,100.83,,,NA,8.96
15-12-2023 18:00,12,15,18:00,4.8,0.8,75,23,11,24.1,100.89,,,NA,8.618
15-12-2023 19:00,12,15,19:00,5.3,0.8,73,24,12,24.1,100.92,,,Mostly Cloudy,9.628
15-12-2023 20:00,12,15,20:00,5.5,0.8,72,25,10,24.1,101,,,NA,7.325
15-12-2023 21:00,12,15,21:00,4.6,0.6,75,24,10,24.1,101.07,,,NA,5.702
15-12-2023 22:00,12,15,22:00,4.4,0.5,75,25,11,24.1,101.11,,,Mostly Cloudy,5.761
15-12-2023 23:00,12,15,23:00,3.6,0.4,79,27,13,24.1,101.19,,,NA,5.367
16-12-2023 00:00,12,16,00:00,4.2,0.9,79,28,16,24.1,101.26,,,NA,5.127
16-12-2023 01:00,12,16,01:00,3.6,1.2,84,28,17,24.1,101.31,,,Mostly Cloudy,4.95
16-12-2023 02:00,12,16,02:00,2.9,1.1,88,29,12,24.1,101.41,,,NA,4.989
16-12-2023 03:00,12,16,03:00,2.1,0.9,92,29,14,24.1,101.56,,,NA,4.92
16-12-2023 04:00,12,16,04:00,0,-0.9,94,32,13,24.1,101.65,,-4,Mainly Clear,5.11
16-12-2023 05:00,12,16,05:00,1.1,-3.3,73,36,13,24.1,101.75,,,NA,4.986
16-12-2023 06:00,12,16,06:00,0.2,-4.5,71,36,10,24.1,101.86,,,NA,4.987
16-12-2023 07:00,12,16,07:00,-0.1,-4.5,72,36,8,24.1,101.94,,-3,Mainly Clear,5.162
16-12-2023 08:00,12,16,08:00,-1.2,-5.2,74,36,10,24.1,101.94,,-5,NA,4.676
16-12-2023 09:00,12,16,09:00,0.5,-4.4,70,35,10,24.1,101.98,,,NA,4.656
16-12-2023 10:00,12,16,10:00,1.9,-4.6,62,2,14,24.1,102.05,,,Mostly Cloudy,4.658
16-12-2023 11:00,12,16,11:00,2.3,-4.7,60,3,13,24.1,102.05,,,NA,4.46
16-12-2023 12:00,12,16,12:00,3,-5.5,54,6,16,24.1,102.03,,,NA,4.183
16-12-2023 13:00,12,16,13:00,3.2,-5.1,54,6,13,24.1,101.96,,,Mostly Cloudy,4.13
16-12-2023 14:00,12,16,14:00,3.4,-4.8,55,8,18,24.1,101.88,,,NA,4.318
16-12-2023 15:00,12,16,15:00,2.9,-4.5,58,9,18,24.1,101.84,,,NA,4.178
16-12-2023 16:00,12,16,16:00,1.5,-4.4,65,8,12,24.1,101.8,,,Mostly Cloudy,4.339
16-12-2023 17:00,12,16,17:00,-0.2,-4.5,73,9,10,24.1,101.79,,-4,NA,4.313
16-12-2023 18:00,12,16,18:00,0.5,-4.1,71,7,13,24.1,101.74,,,NA,4.241
16-12-2023 19:00,12,16,19:00,0.2,-4.5,71,8,14,24.1,101.72,,,Cloudy,4.732
16-12-2023 20:00,12,16,20:00,0,-4.9,70,8,18,24.1,101.63,,-5,NA,4.474
16-12-2023 21:00,12,16,21:00,-0.4,-5.3,70,8,22,24.1,101.59,,-6,NA,4.703
16-12-2023 22:00,12,16,22:00,-0.8,-5.2,72,8,16,24.1,101.54,,-6,Cloudy,4.774
16-12-2023 23:00,12,16,23:00,-1.3,-5.4,74,6,17,24.1,101.45,,-6,NA,4.786
17-12-2023 00:00,12,17,00:00,-1.4,-5.2,75,7,16,24.1,101.37,,-6,NA,4.841
17-12-2023 01:00,12,17,01:00,-1.4,-4.9,77,9,19,24.1,101.23,,-7,Cloudy,4.624
17-12-2023 02:00,12,17,02:00,-1.3,-4.8,77,8,18,24.1,101.14,,-7,NA,4.752
17-12-2023 03:00,12,17,03:00,-1.5,-4.6,79,7,15,24.1,101.12,,-6,NA,4.741
17-12-2023 04:00,12,17,04:00,-1.4,-4.5,79,7,18,24.1,101.02,,-7,Cloudy,4.899
17-12-2023 05:00,12,17,05:00,-1.6,-4.6,80,7,14,24.1,100.93,,-6,NA,4.735
17-12-2023 06:00,12,17,06:00,-1.5,-4.3,81,6,14,24.1,100.9,,-6,NA,4.741
17-12-2023 07:00,12,17,07:00,-1.2,-4,81,7,11,24.1,100.86,,-5,Cloudy,4.953
17-12-2023 08:00,12,17,08:00,-1.1,-3.9,81,7,13,24.1,100.84,,-5,NA,4.57
17-12-2023 09:00,12,17,09:00,-0.4,-3.3,81,9,11,24.1,100.84,,-4,NA,4.408
17-12-2023 10:00,12,17,10:00,1,-2.1,80,11,16,24.1,100.83,,,Cloudy,4.353
17-12-2023 11:00,12,17,11:00,2.3,-1,79,10,16,24.1,100.73,,,NA,4.458
17-12-2023 12:00,12,17,12:00,3.8,0.1,76,10,13,24.1,100.61,,,NA,4.435
17-12-2023 13:00,12,17,13:00,4.3,0.4,75,10,14,24.1,100.42,,,Cloudy,4.321
17-12-2023 14:00,12,17,14:00,3.5,-0.2,77,8,16,24.1,100.28,,,NA,4.441
17-12-2023 15:00,12,17,15:00,3.7,0.4,79,8,18,24.1,100.16,,,NA,4.558
17-12-2023 16:00,12,17,16:00,4,0.9,80,8,20,24.1,100.04,,,Cloudy,4.51
17-12-2023 17:00,12,17,17:00,4.5,1.6,82,8,18,24.1,99.92,,,NA,4.516
17-12-2023 18:00,12,17,18:00,4.9,2.6,85,10,13,24.1,99.83,,,NA,4.379
17-12-2023 19:00,12,17,19:00,4.3,4,97,3,10,9.7,99.74,,,"Rain Showers,Fog",4.862
17-12-2023 20:00,12,17,20:00,4.3,4.2,100,6,9,9.7,99.62,,,"Rain,Fog",4.791
17-12-2023 21:00,12,17,21:00,4.1,4.1,100,6,11,2.4,99.48,,,"Moderate Rain,Fog",4.892
17-12-2023 22:00,12,17,22:00,3.8,3.7,100,6,9,2.4,99.37,,,"Rain,Fog",5.007
17-12-2023 23:00,12,17,23:00,3.8,3.7,99,11,10,1.6,99.25,,,"Rain,Fog",4.895
18-12-2023 00:00,12,18,00:00,6.7,6.7,100,15,10,9.7,99.14,,,"Rain,Fog",4.963
18-12-2023 01:00,12,18,01:00,6.8,6.8,100,13,9,9.7,99.02,,,"Rain,Fog",4.802
18-12-2023 02:00,12,18,02:00,5,4.9,100,4,9,1.6,98.89,,,"Rain,Fog",5.186
18-12-2023 03:00,12,18,03:00,4.3,4.3,100,5,9,1.2,98.75,,,"Drizzle,Fog",4.913
18-12-2023 04:00,12,18,04:00,5.1,5.1,99,8,12,1.2,98.54,,,"Rain,Fog",5.024
18-12-2023 05:00,12,18,05:00,5.1,5,99,5,9,2.4,98.44,,,"Rain,Fog",5.291
18-12-2023 06:00,12,18,06:00,4.7,4.6,99,4,10,2.4,98.25,,,"Moderate Rain,Fog",5.13
18-12-2023 07:00,12,18,07:00,4.8,4.7,99,2,13,4.8,98.03,,,"Rain,Fog",13.257
18-12-2023 08:00,12,18,08:00,4.8,4.7,99,1,16,2.4,97.8,,,"Moderate Rain,Fog",10.809
18-12-2023 09:00,12,18,09:00,5.8,5.8,99,35,18,3.2,97.58,,,"Moderate Rain,Fog",11.102
18-12-2023 10:00,12,18,10:00,5.9,5.8,100,30,14,4.8,97.43,,,"Rain,Fog",11.771
18-12-2023 11:00,12,18,11:00,5.7,5.6,100,29,14,6.4,97.36,,,"Rain,Fog",12.214
18-12-2023 12:00,12,18,12:00,5.8,5.8,100,29,17,12.9,97.24,,,Rain,10.177
18-12-2023 13:00,12,18,13:00,5.8,5.8,100,29,20,24.1,97.22,,,Rain,10.003
18-12-2023 14:00,12,18,14:00,5.6,5.6,100,29,18,16.1,97.23,,,Rain,11.349
18-12-2023 15:00,12,18,15:00,5.7,5.7,100,27,19,16.1,97.25,,,Rain,9.837
18-12-2023 16:00,12,18,16:00,4.9,4.9,100,26,20,24.1,97.31,,,Rain,9.115
18-12-2023 17:00,12,18,17:00,4.7,4.6,99,26,20,24.1,97.47,,,Rain,9.043
18-12-2023 18:00,12,18,18:00,4.4,4.3,100,26,17,16.1,97.57,,,Rain,8.776
18-12-2023 19:00,12,18,19:00,4.5,4.4,99,28,19,11.3,97.71,,,Rain,9.027
18-12-2023 20:00,12,18,20:00,4.4,4.3,99,29,21,11.3,97.78,,,Rain,8.634
18-12-2023 21:00,12,18,21:00,4,4,100,27,14,12.9,97.89,,,Rain,6.728
18-12-2023 22:00,12,18,22:00,2.9,2.3,96,30,28,6.4,98.08,,,"Rain,Fog",6.674
18-12-2023 23:00,12,18,23:00,1.3,1.1,98,29,15,12.9,98.23,,,Rain,6.803
19-12-2023 00:00,12,19,00:00,0.3,0.1,99,31,14,3.2,98.36,,,Snow,7.324
19-12-2023 01:00,12,19,01:00,-0.1,-0.7,96,33,23,8.1,98.47,,-6,"Rain,Snow",6.816
19-12-2023 02:00,12,19,02:00,-0.9,-1.9,93,33,28,3.2,98.62,,-7,Snow,6.895
19-12-2023 03:00,12,19,03:00,-1.9,-3.9,86,33,34,3.2,98.75,,-9,Snow,6.897
19-12-2023 04:00,12,19,04:00,-2.7,-4.2,90,33,28,3.2,98.84,,-10,Snow,6.668
19-12-2023 05:00,12,19,05:00,-3,-4.9,87,31,25,3.2,98.99,,-10,Snow,6.954
19-12-2023 06:00,12,19,06:00,-3.6,-4.8,91,31,25,2.4,99.2,,-11,"Snow,Blowing Snow",6.881
19-12-2023 07:00,12,19,07:00,-4,-5.8,87,31,23,6.4,99.41,,-11,Snow,14.102
19-12-2023 08:00,12,19,08:00,-4.1,-7.6,77,31,29,16.1,99.6,,-12,Snow,12.067
19-12-2023 09:00,12,19,09:00,-4.2,-7.7,76,30,28,24.1,99.77,,-12,Snow,11.714
19-12-2023 10:00,12,19,10:00,-4.3,-8.8,71,32,30,24.1,99.95,,-12,Mostly Cloudy,11.56
19-12-2023 11:00,12,19,11:00,-3.9,-8.3,72,29,27,24.1,100.04,,-11,NA,10.24
19-12-2023 12:00,12,19,12:00,-4.8,-8.7,74,28,28,24.1,100.13,,-12,NA,9.575
19-12-2023 13:00,12,19,13:00,-4.7,-9.5,70,29,32,24.1,100.26,,-13,Cloudy,11.521
19-12-2023 14:00,12,19,14:00,-5.1,-9.1,73,27,22,24.1,100.37,,-12,NA,10.46
19-12-2023 15:00,12,19,15:00,-5.4,-9.8,71,29,15,24.1,100.5,,-11,NA,9.358
19-12-2023 16:00,12,19,16:00,-5.7,-9.7,74,27,17,24.1,100.67,,-12,Mostly Cloudy,10.349
19-12-2023 17:00,12,19,17:00,-7.1,-11,74,25,14,24.1,100.81,,-13,NA,8.992
19-12-2023 18:00,12,19,18:00,-8.9,-11.7,80,26,11,24.1,100.92,,-14,NA,8.189
19-12-2023 19:00,12,19,19:00,-8.2,-10.9,81,26,7,24.1,101.02,,-12,Clear,8.754
19-12-2023 20:00,12,19,20:00,-8.8,-11,84,19,6,24.1,101.05,,-12,NA,8.335
19-12-2023 21:00,12,19,21:00,-8.9,-10.5,88,17,9,24.1,101.11,,-14,NA,5.584
19-12-2023 22:00,12,19,22:00,-9.1,-10.5,90,17,8,24.1,101.17,,-13,Clear,5.403
19-12-2023 23:00,12,19,23:00,-8.8,-10.3,89,17,8,24.1,101.22,,-13,NA,5.748
20-12-2023 00:00,12,20,00:00,-8.7,-10.2,89,19,8,24.1,101.23,,-13,NA,5.646
20-12-2023 01:00,12,20,01:00,-7.6,-9.4,87,20,11,24.1,101.23,,-13,Mostly Cloudy,5.764
20-12-2023 02:00,12,20,02:00,-8.2,-9.9,88,18,9,24.1,101.28,,-13,NA,5.787
20-12-2023 03:00,12,20,03:00,-8.5,-10.3,87,16,8,24.1,101.28,,-13,NA,5.724
20-12-2023 04:00,12,20,04:00,-8.7,-10,90,17,4,24.1,101.28,,-11,Clear,5.928
20-12-2023 05:00,12,20,05:00,-8.9,-10,92,13,4,24.1,101.29,,-11,NA,6.049
20-12-2023 06:00,12,20,06:00,-7,-8.4,90,20,9,24.1,101.31,,-11,NA,5.803
20-12-2023 07:00,12,20,07:00,-5.9,-7.4,90,17,10,24.1,101.32,,-10,Mostly Cloudy,14.228
20-12-2023 08:00,12,20,08:00,-5.3,-6.7,90,21,7,24.1,101.38,,-9,NA,11.11
20-12-2023 09:00,12,20,09:00,-4.1,-5.5,91,21,5,24.1,101.44,,-6,NA,11.356
20-12-2023 10:00,12,20,10:00,-2.9,-4.9,86,25,7,24.1,101.47,,-6,Mostly Cloudy,10.859
20-12-2023 11:00,12,20,11:00,-2.3,-4.4,86,26,8,24.1,101.48,,-5,NA,10.361
20-12-2023 12:00,12,20,12:00,-1.8,-4.5,82,26,5,24.1,101.44,,-4,NA,9.602
20-12-2023 13:00,12,20,13:00,-1.2,-4.3,79,29,9,24.1,101.43,,-4,Cloudy,10.081
20-12-2023 14:00,12,20,14:00,-1.1,-3.9,81,30,11,24.1,101.47,,-5,NA,8.819
20-12-2023 15:00,12,20,15:00,-1.1,-4.2,79,29,13,24.1,101.53,,-5,NA,9.862
20-12-2023 16:00,12,20,16:00,-1.2,-4,81,31,14,24.1,101.61,,-6,Cloudy,9.4
20-12-2023 17:00,12,20,17:00,-1.7,-3.9,85,30,9,24.1,101.68,,-5,NA,8.994
20-12-2023 18:00,12,20,18:00,-1.1,-3.8,82,33,11,24.1,101.75,,-5,NA,8.818
20-12-2023 19:00,12,20,19:00,-1.3,-3.8,83,33,10,24.1,101.81,,-5,Cloudy,8.551
20-12-2023 20:00,12,20,20:00,-1.2,-4.3,80,1,17,24.1,101.86,,-6,NA,7.621
20-12-2023 21:00,12,20,21:00,-1.6,-5.5,75,1,25,24.1,101.92,,-8,NA,5.713
20-12-2023 22:00,12,20,22:00,-2.7,-6.4,75,1,19,24.1,101.98,,-8,Mostly Cloudy,5.422
20-12-2023 23:00,12,20,23:00,-3.5,-7.9,72,34,17,24.1,102.02,,-9,NA,5.782
21-12-2023 00:00,12,21,00:00,-5.1,-8.6,77,36,13,24.1,102.05,,-10,NA,5.855
21-12-2023 01:00,12,21,01:00,-5.7,-10,72,35,20,24.1,102.1,,-12,Clear,5.639
21-12-2023 02:00,12,21,02:00,-7.1,-12,68,1,19,24.1,102.18,,-14,NA,5.62
21-12-2023 03:00,12,21,03:00,-8.2,-13.1,68,1,17,24.1,102.25,,-15,NA,5.658
21-12-2023 04:00,12,21,04:00,-8.7,-13.5,69,2,21,24.1,102.29,,-16,Clear,5.725
21-12-2023 05:00,12,21,05:00,-9.3,-13.9,69,2,24,24.1,102.32,,-18,NA,5.784
21-12-2023 06:00,12,21,06:00,-9.9,-14.2,71,1,19,24.1,102.39,,-18,NA,5.729
21-12-2023 07:00,12,21,07:00,-10.5,-14.3,74,35,14,24.1,102.45,,-17,Clear,14.023
21-12-2023 08:00,12,21,08:00,-10.5,-14.3,74,34,16,24.1,102.48,,-18,NA,11.854
21-12-2023 09:00,12,21,09:00,-9.3,-13.9,70,36,16,24.1,102.53,,-16,NA,11.517
21-12-2023 10:00,12,21,10:00,-8.5,-13.5,68,2,21,24.1,102.55,,-16,Clear,11.904
21-12-2023 11:00,12,21,11:00,-7.3,-12.8,65,1,15,24.1,102.49,,-13,NA,9.422
21-12-2023 12:00,12,21,12:00,-6.6,-12.7,62,1,14,24.1,102.39,,-12,NA,9.52
21-12-2023 13:00,12,21,13:00,-6,-13.1,58,36,4,24.1,102.33,,-8,Clear,10.583
21-12-2023 14:00,12,21,14:00,-5.7,-13.6,54,32,4,24.1,102.27,,-8,NA,9.755
21-12-2023 15:00,12,21,15:00,-5.6,-13,56,33,9,24.1,102.25,,-10,NA,9.857
21-12-2023 16:00,12,21,16:00,-6.7,-12.8,62,31,12,24.1,102.24,,-12,Clear,8.653
21-12-2023 17:00,12,21,17:00,-7.4,-12.4,68,32,15,24.1,102.25,,-14,NA,8.467
21-12-2023 18:00,12,21,18:00,-7.7,-12.2,71,34,15,24.1,102.22,,-14,NA,8.608
21-12-2023 19:00,12,21,19:00,-9.2,-12.6,77,33,11,24.1,102.2,,-15,Clear,8.653
21-12-2023 20:00,12,21,20:00,-8.7,-12.7,73,1,13,24.1,102.17,,-15,NA,7.254
21-12-2023 21:00,12,21,21:00,-9,-13.1,73,36,9,24.1,102.15,,-14,NA,6.605
21-12-2023 22:00,12,21,22:00,-9.5,-13.1,75,1,12,24.1,102.13,,-15,Clear,5.461
21-12-2023 23:00,12,21,23:00,-10.6,-13.7,79,2,8,24.1,102.11,,-15,NA,5.786
22-12-2023 00:00,12,22,00:00,-11.6,-14.1,82,4,12,24.1,102.05,,-18,NA,5.608
22-12-2023 01:00,12,22,01:00,-11.2,-13.8,81,2,10,24.1,102.03,,-17,Clear,5.797
22-12-2023 02:00,12,22,02:00,-11.9,-14.3,82,4,11,24.1,102.01,,-18,NA,5.644
22-12-2023 03:00,12,22,03:00,-11.1,-13.6,82,2,12,24.1,102.01,,-17,NA,5.667
22-12-2023 04:00,12,22,04:00,-11.4,-13.7,83,2,11,24.1,101.99,,-17,Mainly Clear,5.697
22-12-2023 05:00,12,22,05:00,-11.5,-13.8,83,3,15,24.1,101.96,,-19,NA,5.941
22-12-2023 06:00,12,22,06:00,-12.7,-14.8,85,4,12,24.1,101.97,,-19,NA,5.763
22-12-2023 07:00,12,22,07:00,-13.1,-15.2,84,4,14,24.1,101.99,,-20,Mainly Clear,12.539
22-12-2023 08:00,12,22,08:00,-12.3,-14.4,84,6,12,24.1,101.97,,-19,NA,11.549
22-12-2023 09:00,12,22,09:00,-10.6,-13.4,80,5,13,24.1,102,,-17,NA,8.773
22-12-2023 10:00,12,22,10:00,-9,-12.4,76,9,13,24.1,101.99,,-15,Mainly Clear,9.117
22-12-2023 11:00,12,22,11:00,-7.8,-11.4,76,11,11,24.1,101.94,,-13,NA,11.203
22-12-2023 12:00,12,22,12:00,-7,-11.2,73,9,13,24.1,101.85,,-13,NA,8.928
22-12-2023 13:00,12,22,13:00,-6.5,-11.4,68,10,7,24.1,101.78,,-10,Mainly Clear,8.462
22-12-2023 14:00,12,22,14:00,-5.8,-10.9,67,10,4,24.1,101.77,,-8,NA,9.441
22-12-2023 15:00,12,22,15:00,-5.5,-10.7,67,12,5,24.1,101.76,,-8,NA,8.391
22-12-2023 16:00,12,22,16:00,-7,-11.1,73,10,6,24.1,101.73,,-10,Mostly Cloudy,8.455
22-12-2023 17:00,12,22,17:00,-7.6,-11,77,7,4,24.1,101.72,,-10,NA,6.234
22-12-2023 18:00,12,22,18:00,-8.5,-11.9,77,6,9,24.1,101.7,,-13,NA,4.359
22-12-2023 19:00,12,22,19:00,-8.5,-11.9,77,7,11,24.1,101.7,,-14,Mostly Cloudy,4.486
22-12-2023 20:00,12,22,20:00,-9,-12.6,75,6,7,24.1,101.71,,-13,NA,4.356
22-12-2023 21:00,12,22,21:00,-9.8,-12.7,79,6,8,24.1,101.69,,-14,NA,4.434
22-12-2023 22:00,12,22,22:00,-10,-12.6,82,5,15,24.1,101.68,,-17,Mainly Clear,4.713
22-12-2023 23:00,12,22,23:00,-9.5,-12.5,79,6,14,24.1,101.63,,-16,NA,4.593
23-12-2023 00:00,12,23,00:00,-10.5,-13.2,81,5,14,24.1,101.63,,-17,NA,4.779
23-12-2023 01:00,12,23,01:00,-10.7,-13.1,82,5,14,24.1,101.6,,-17,Mainly Clear,4.575
23-12-2023 02:00,12,23,02:00,-10.4,-12.8,82,5,11,24.1,101.58,,-16,NA,4.46
23-12-2023 03:00,12,23,03:00,-9.8,-12.3,82,5,13,24.1,101.57,,-16,NA,4.454
23-12-2023 04:00,12,23,04:00,-9.8,-12.1,83,4,10,24.1,101.54,,-15,Mostly Cloudy,4.674
23-12-2023 05:00,12,23,05:00,-9.4,-11.9,83,5,12,24.1,101.51,,-15,NA,3.868
23-12-2023 06:00,12,23,06:00,-8.9,-11.5,82,5,12,24.1,101.55,,-15,NA,3.779
23-12-2023 07:00,12,23,07:00,-8.8,-11.5,81,7,13,24.1,101.52,,-15,Cloudy,3.701
23-12-2023 08:00,12,23,08:00,-8.3,-11,81,7,14,24.1,101.51,,-14,NA,3.764
23-12-2023 09:00,12,23,09:00,-7.8,-10.6,80,6,12,24.1,101.52,,-13,NA,3.667
23-12-2023 10:00,12,23,10:00,-6.9,-9.8,80,5,15,24.1,101.56,,-13,Cloudy,3.67
23-12-2023 11:00,12,23,11:00,-5.7,-9.1,77,7,13,24.1,101.52,,-11,NA,3.64
23-12-2023 12:00,12,23,12:00,-4.9,-8.9,74,9,9,24.1,101.45,,-9,NA,3.841
23-12-2023 13:00,12,23,13:00,-4,-8.4,71,7,8,24.1,101.42,,-7,Cloudy,3.83
23-12-2023 14:00,12,23,14:00,-3.5,-8,71,7,10,24.1,101.38,,-7,NA,3.849
23-12-2023 15:00,12,23,15:00,-3.4,-7.6,73,7,9,24.1,101.39,,-7,NA,3.755
23-12-2023 16:00,12,23,16:00,-3.3,-7.2,74,9,8,24.1,101.4,,-7,Cloudy,3.772
23-12-2023 17:00,12,23,17:00,-3.3,-7,75,9,8,24.1,101.42,,-7,NA,3.676
23-12-2023 18:00,12,23,18:00,-3.2,-6.8,76,10,8,24.1,101.41,,-6,NA,3.7
23-12-2023 19:00,12,23,19:00,-3.1,-6.5,77,8,10,16.1,101.42,,-7,Cloudy,3.932
23-12-2023 20:00,12,23,20:00,-3.2,-6.1,80,5,13,12.9,101.44,,-8,Snow,3.772
23-12-2023 21:00,12,23,21:00,-3.2,-5.7,83,5,9,12.9,101.46,,-7,Snow,3.76
23-12-2023 22:00,12,23,22:00,-3.2,-5.3,86,5,13,12.9,101.45,,-8,Snow,3.632
23-12-2023 23:00,12,23,23:00,-3.3,-4.9,88,5,14,12.9,101.44,,-8,Snow,3.772
24-12-2023 00:00,12,24,00:00,-3.2,-4.7,89,6,10,12.9,101.4,,-7,Snow,3.788
24-12-2023 01:00,12,24,01:00,-3.1,-4.4,91,5,10,12.9,101.38,,-7,Snow,3.738
24-12-2023 02:00,12,24,02:00,-2.9,-4.5,89,6,10,12.9,101.4,,-7,NA,3.751
24-12-2023 03:00,12,24,03:00,-2.6,-4.5,87,5,11,12.9,101.39,,-7,NA,3.765
24-12-2023 04:00,12,24,04:00,-2.5,-4.4,86,5,10,9.7,101.39,,-6,Snow,3.718
24-12-2023 05:00,12,24,05:00,-2.3,-4.5,85,5,14,9.7,101.39,,-7,Snow,3.694
24-12-2023 06:00,12,24,06:00,-1.9,-4.8,81,6,9,12.9,101.4,,-5,Snow,3.685
24-12-2023 07:00,12,24,07:00,-1.8,-4.7,81,5,10,12.9,101.44,,-5,Snow,3.669
24-12-2023 08:00,12,24,08:00,-1.7,-4.3,83,5,10,19.3,101.48,,-5,NA,3.83
24-12-2023 09:00,12,24,09:00,-1.4,-4,83,5,9,24.1,101.55,,-5,NA,3.794
24-12-2023 10:00,12,24,10:00,-1,-3.6,83,7,8,8.1,101.58,,-4,Fog,3.772
24-12-2023 11:00,12,24,11:00,-0.3,-2.8,84,7,8,8.1,101.56,,-3,Fog,3.728
24-12-2023 12:00,12,24,12:00,-0.1,-2.5,84,5,10,8.1,101.51,,-3,Fog,3.79
24-12-2023 13:00,12,24,13:00,0.3,-2.2,84,5,8,8.1,101.47,,,Fog,3.723
24-12-2023 14:00,12,24,14:00,0.5,-1.7,85,5,7,8.1,101.47,,,Fog,3.975
24-12-2023 15:00,12,24,15:00,0.4,-1.7,86,6,7,8.1,101.49,,,Fog,3.777
24-12-2023 16:00,12,24,16:00,0.3,-1.6,87,5,9,8.1,101.52,,,Fog,3.757
24-12-2023 17:00,12,24,17:00,0.2,-1.6,88,5,5,8.1,101.55,,,Fog,3.469
24-12-2023 18:00,12,24,18:00,0.1,-1.8,87,5,8,16.1,101.55,,,NA,3.219
24-12-2023 19:00,12,24,19:00,0.1,-2.1,85,5,6,12.9,101.6,,,Cloudy,3.279
24-12-2023 20:00,12,24,20:00,0,-1.9,87,5,7,12.9,101.59,,-2,NA,3.201
24-12-2023 21:00,12,24,21:00,0,-1.1,92,6,9,9.7,101.61,,-3,Fog,3.208
24-12-2023 22:00,12,24,22:00,-0.1,-0.8,95,7,7,8.1,101.62,,-3,Fog,3.169
24-12-2023 23:00,12,24,23:00,0,-0.8,95,7,9,8.1,101.57,,-3,Fog,3.184
25-12-2023 00:00,12,25,00:00,0.1,-1.6,88,9,4,9.7,101.55,,,Fog,3.225
25-12-2023 01:00,12,25,01:00,0.1,-1.9,87,9,7,11.3,101.51,,,Cloudy,3.166
25-12-2023 02:00,12,25,02:00,0.1,-1.7,88,36,2,12.9,101.54,,,NA,3.152
25-12-2023 03:00,12,25,03:00,0,-1.5,89,4,7,12.9,101.55,,-2,NA,3.149
25-12-2023 04:00,12,25,04:00,0,-1.7,89,5,5,12.9,101.55,,-2,Cloudy,3.175
25-12-2023 05:00,12,25,05:00,-0.1,-1.5,90,5,6,12.9,101.53,,-2,NA,3.169
25-12-2023 06:00,12,25,06:00,-0.2,-1.4,92,4,8,16.1,101.55,,-3,NA,3.11
25-12-2023 07:00,12,25,07:00,0,-1.4,90,5,7,16.1,101.57,,-2,Cloudy,3.188
25-12-2023 08:00,12,25,08:00,0.1,-1.3,90,6,8,12.9,101.56,,,NA,3.15
25-12-2023 09:00,12,25,09:00,0.2,-1.1,91,6,7,16.1,101.57,,,NA,3.184
25-12-2023 10:00,12,25,10:00,0.6,-1.1,89,8,7,16.1,101.62,,,Cloudy,3.165
25-12-2023 11:00,12,25,11:00,1,-0.7,88,9,10,16.1,101.56,,,NA,3.182
25-12-2023 12:00,12,25,12:00,1.4,-0.4,88,36,3,16.1,101.52,,,NA,3.266
25-12-2023 13:00,12,25,13:00,1.6,-0.2,87,8,5,16.1,101.45,,,Cloudy,3.122
25-12-2023 14:00,12,25,14:00,2,0.3,89,7,5,16.1,101.41,,,NA,3.26
25-12-2023 15:00,12,25,15:00,1.8,0.3,90,4,11,24.1,101.39,,,NA,3.252
25-12-2023 16:00,12,25,16:00,1.6,0.5,92,8,10,16.1,101.33,,,Cloudy,3.12
25-12-2023 17:00,12,25,17:00,1.4,0.2,92,4,5,24.1,101.37,,,NA,3.215
25-12-2023 18:00,12,25,18:00,1.3,0.4,94,4,10,24.1,101.4,,,NA,3.142
25-12-2023 19:00,12,25,19:00,1.3,0.4,94,6,13,16.1,101.39,,,Cloudy,3.352
25-12-2023 20:00,12,25,20:00,1.3,0.5,95,2,5,16.1,101.39,,,NA,3.238
25-12-2023 21:00,12,25,21:00,1.3,0.5,94,4,10,16.1,101.35,,,NA,3.194
25-12-2023 22:00,12,25,22:00,1.4,0.6,94,5,11,12.9,101.29,,,Cloudy,3.157
25-12-2023 23:00,12,25,23:00,1.4,0.6,95,4,9,12.9,101.28,,,NA,3.248
26-12-2023 00:00,12,26,00:00,1.7,0.7,94,6,9,16.1,101.23,,,NA,3.326
26-12-2023 01:00,12,26,01:00,1.6,0.8,95,5,10,16.1,101.19,,,Cloudy,3.166
26-12-2023 02:00,12,26,02:00,1.6,0.9,95,5,8,16.1,101.18,,,NA,3.09
26-12-2023 03:00,12,26,03:00,1.6,0.9,95,4,9,24.1,101.18,,,NA,3.217
26-12-2023 04:00,12,26,04:00,1.8,1,95,4,9,24.1,101.14,,,Mostly Cloudy,3.162
26-12-2023 05:00,12,26,05:00,0.2,-0.2,97,4,10,16.1,101.12,,,NA,3.16
26-12-2023 06:00,12,26,06:00,-0.6,-0.9,98,5,11,16.1,101.08,,-4,NA,3.154
26-12-2023 07:00,12,26,07:00,0.2,0.1,99,4,11,12.9,101.12,,,Mostly Cloudy,3.149
26-12-2023 08:00,12,26,08:00,-1.1,-1.3,99,6,12,12.9,101.07,,-5,NA,3.165
26-12-2023 09:00,12,26,09:00,0.5,0.4,99,8,8,16.1,101.05,,,NA,3.21
26-12-2023 10:00,12,26,10:00,2.6,1.9,95,7,9,24.1,101.05,,,Mainly Clear,3.247
26-12-2023 11:00,12,26,11:00,3.8,2.3,90,6,3,24.1,100.97,,,NA,3.182
26-12-2023 12:00,12,26,12:00,4.7,2.5,86,4,3,24.1,100.89,,,NA,3.27
26-12-2023 13:00,12,26,13:00,6,3,81,6,7,24.1,100.78,,,Mostly Cloudy,3.164
26-12-2023 14:00,12,26,14:00,6.2,3.4,82,6,7,24.1,100.73,,,NA,3.287
26-12-2023 15:00,12,26,15:00,6.2,3.3,82,6,9,24.1,100.72,,,NA,3.288
26-12-2023 16:00,12,26,16:00,5,3.1,87,6,9,24.1,100.72,,,Mostly Cloudy,3.14
26-12-2023 17:00,12,26,17:00,4,2.4,89,5,10,24.1,100.71,,,NA,3.249
26-12-2023 18:00,12,26,18:00,4.5,3.1,91,7,11,24.1,100.7,,,NA,3.251
26-12-2023 19:00,12,26,19:00,4.6,3.2,91,6,8,24.1,100.72,,,Cloudy,3.248
26-12-2023 20:00,12,26,20:00,4.2,3.3,93,6,9,24.1,100.67,,,NA,3.181
26-12-2023 21:00,12,26,21:00,3.7,3.5,98,5,10,12.9,100.65,,,Rain Showers,3.247
26-12-2023 22:00,12,26,22:00,3.3,3.2,100,4,15,12.9,100.63,,,Cloudy,3.185
26-12-2023 23:00,12,26,23:00,3.3,3.2,100,4,16,8.1,100.65,,,"Rain Showers,Fog",3.309
27-12-2023 00:00,12,27,00:00,3.2,3.2,100,4,13,3.2,100.61,,,"Drizzle,Fog",3.186
27-12-2023 01:00,12,27,01:00,3.1,3.1,100,6,12,3.2,100.55,,,"Drizzle,Fog",3.264
27-12-2023 02:00,12,27,02:00,3.1,3,100,4,12,2.4,100.58,,,Fog,3.182
27-12-2023 03:00,12,27,03:00,3,3,100,7,10,1.2,100.61,,,"Drizzle,Fog",3.109
27-12-2023 04:00,12,27,04:00,2.9,2.9,100,5,15,1.2,100.56,,,"Drizzle,Fog",3.227
27-12-2023 05:00,12,27,05:00,2.8,2.8,100,7,13,1.2,100.55,,,"Drizzle,Fog",3.126
27-12-2023 06:00,12,27,06:00,2.8,2.7,99,6,14,1.6,100.53,,,"Drizzle,Fog",3.184
27-12-2023 07:00,12,27,07:00,2.8,2.7,99,6,19,3.2,100.55,,,"Drizzle,Fog",3.244
27-12-2023 08:00,12,27,08:00,2.8,2.7,100,6,15,3.2,100.54,,,"Drizzle,Fog",3.234
27-12-2023 09:00,12,27,09:00,2.9,2.8,100,7,14,2.4,100.53,,,"Drizzle,Fog",3.092
27-12-2023 10:00,12,27,10:00,3,2.9,100,5,16,2.4,100.53,,,"Drizzle,Fog",3.259
27-12-2023 11:00,12,27,11:00,3.4,3.4,100,6,17,4,100.47,,,"Rain,Fog",3.241
27-12-2023 12:00,12,27,12:00,3.7,3.7,100,6,15,6.4,100.37,,,"Rain,Fog",3.178
27-12-2023 13:00,12,27,13:00,3.9,3.9,100,6,18,9.7,100.24,,,Fog,3.184
27-12-2023 14:00,12,27,14:00,4,4,100,6,17,9.7,100.2,,,Fog,3.302
27-12-2023 15:00,12,27,15:00,3.9,3.9,100,7,12,6.4,100.21,,,Fog,3.271
27-12-2023 16:00,12,27,16:00,3.9,3.9,100,5,17,9.7,100.15,,,Fog,3.239
27-12-2023 17:00,12,27,17:00,3.9,3.8,100,6,20,12.9,100.15,,,Rain,3.196
27-12-2023 18:00,12,27,18:00,3.5,3.5,100,6,16,6.4,100.11,,,"Rain,Fog",3.169
27-12-2023 19:00,12,27,19:00,3.3,3.3,100,5,18,4.8,100.13,,,"Rain,Fog",3.341
27-12-2023 20:00,12,27,20:00,2.9,2.9,100,6,21,3.2,100.08,,,"Drizzle,Fog",3.257
27-12-2023 21:00,12,27,21:00,2.8,2.8,100,6,22,2.4,100.08,,,"Rain,Drizzle,Fog",3.216
27-12-2023 22:00,12,27,22:00,2.8,2.8,100,6,22,1.6,100.04,,,"Rain,Drizzle,Fog",3.096
27-12-2023 23:00,12,27,23:00,2.9,2.9,100,5,30,4.8,100.01,,,"Drizzle,Fog",3.348
28-12-2023 00:00,12,28,00:00,2.9,2.9,100,7,21,4.8,99.96,,,"Drizzle,Fog",3.299
28-12-2023 01:00,12,28,01:00,2.8,2.8,100,5,17,16.1,99.92,,,Cloudy,3.132
28-12-2023 02:00,12,28,02:00,2.7,2.7,100,6,16,2.4,99.89,,,"Rain,Drizzle,Fog",3.157
28-12-2023 03:00,12,28,03:00,2.8,2.8,100,7,21,16.1,99.86,,,NA,3.285
28-12-2023 04:00,12,28,04:00,2.8,2.8,100,6,18,16.1,99.83,,,Cloudy,3.235
28-12-2023 05:00,12,28,05:00,2.6,2.6,100,6,13,8.1,99.81,,,"Drizzle,Fog",3.175
28-12-2023 06:00,12,28,06:00,2.5,2.4,100,7,9,4.8,99.81,,,"Rain,Drizzle,Fog",3.192
28-12-2023 07:00,12,28,07:00,2.3,2.2,100,6,13,4.8,99.82,,,"Rain,Fog",3.264
28-12-2023 08:00,12,28,08:00,2.5,2.5,100,6,18,4,99.77,,,Fog,3.248
28-12-2023 09:00,12,28,09:00,2.8,2.8,100,6,20,4,99.75,,,"Rain,Fog",3.152
28-12-2023 10:00,12,28,10:00,3.2,3.1,100,7,23,9.7,99.81,,,"Rain,Fog",3.241
28-12-2023 11:00,12,28,11:00,3.2,3.2,100,6,16,9.7,99.78,,,"Rain,Fog",3.225
28-12-2023 12:00,12,28,12:00,3.1,3.1,100,6,20,9.7,99.7,,,"Rain,Fog",3.252
28-12-2023 13:00,12,28,13:00,3.4,3.3,100,5,19,9.7,99.59,,,"Rain,Fog",3.152
28-12-2023 14:00,12,28,14:00,4,4,100,5,18,12.9,99.53,,,Rain,3.327
28-12-2023 15:00,12,28,15:00,4,4,100,6,20,16.1,99.52,,,Rain,3.361
28-12-2023 16:00,12,28,16:00,3.8,3.8,100,7,13,16.1,99.54,,,Cloudy,3.303
28-12-2023 17:00,12,28,17:00,3.6,3.6,100,4,12,16.1,99.57,,,NA,3.154
28-12-2023 18:00,12,28,18:00,3.4,3.3,99,6,16,16.1,99.58,,,NA,3.24
28-12-2023 19:00,12,28,19:00,3.1,3.1,100,5,16,12.9,99.53,,,Cloudy,3.383
28-12-2023 20:00,12,28,20:00,3,3,100,6,10,1.6,99.51,,,"Drizzle,Fog",3.223
28-12-2023 21:00,12,28,21:00,3.1,3.1,100,6,16,4,99.46,,,"Drizzle,Fog",3.172
28-12-2023 22:00,12,28,22:00,3,3,100,7,18,16.1,99.4,,,Cloudy,3.162
28-12-2023 23:00,12,28,23:00,2.7,2.7,100,6,12,16.1,99.35,,,Drizzle,3.335
29-12-2023 00:00,12,29,00:00,2.6,2.6,100,7,10,12.9,99.29,,,NA,3.367
29-12-2023 01:00,12,29,01:00,2.4,2.4,100,6,5,9.7,99.21,,,"Rain,Fog",3.18
29-12-2023 02:00,12,29,02:00,2.2,2.2,100,3,8,9.7,99.18,,,"Rain,Fog",3.192
29-12-2023 03:00,12,29,03:00,2.4,2.3,100,36,7,12.9,99.17,,,Rain,3.345
29-12-2023 04:00,12,29,04:00,2.6,2.5,100,34,5,12.9,99.13,,,Rain,3.215
29-12-2023 05:00,12,29,05:00,2.4,2.4,100,36,3,12.9,99.08,,,Rain,3.238
29-12-2023 06:00,12,29,06:00,2.3,2.3,100,0,1,6.4,99.07,,,"Rain,Fog",3.139
29-12-2023 07:00,12,29,07:00,2.3,2.2,99,19,3,1.2,99.06,,,"Rain,Drizzle,Fog",3.255
29-12-2023 08:00,12,29,08:00,2.4,2.4,100,19,6,0.8,99.04,,,"Rain,Drizzle,Fog",3.263
29-12-2023 09:00,12,29,09:00,2.8,2.8,100,21,4,0.8,99.03,,,"Rain,Drizzle,Fog",3.296
29-12-2023 10:00,12,29,10:00,3.2,3.2,100,23,5,0.8,99.04,,,"Drizzle,Fog",3.35
29-12-2023 11:00,12,29,11:00,3.6,3.6,100,25,5,1.2,98.99,,,"Drizzle,Fog",3.212
29-12-2023 12:00,12,29,12:00,3.9,3.9,100,30,7,4,98.92,,,"Drizzle,Fog",3.308
29-12-2023 13:00,12,29,13:00,4.1,4.1,100,30,12,16.1,98.86,,,"Rain,Fog",3.236
29-12-2023 14:00,12,29,14:00,3.4,3.4,100,29,15,12.9,98.84,,,Rain,3.387
29-12-2023 15:00,12,29,15:00,3,3,100,32,19,16.1,98.89,,,Rain,3.309
29-12-2023 16:00,12,29,16:00,2.1,1.6,97,32,21,16.1,98.93,,,Rain,3.341
29-12-2023 17:00,12,29,17:00,1.5,1.3,99,32,14,24.1,98.97,,,Rain,3.258
29-12-2023 18:00,12,29,18:00,1.8,1.6,99,32,13,24.1,99,,,NA,3.268
29-12-2023 19:00,12,29,19:00,1.9,1.6,98,31,18,24.1,99.04,,,Mostly Cloudy,3.317
29-12-2023 20:00,12,29,20:00,1.4,0.5,94,32,15,24.1,99.05,,,NA,3.241
29-12-2023 21:00,12,29,21:00,0.6,-0.2,95,31,13,24.1,99.05,,,NA,3.191
29-12-2023 22:00,12,29,22:00,0.5,-0.5,93,32,17,24.1,99.03,,,Mostly Cloudy,3.219
29-12-2023 23:00,12,29,23:00,0.3,-0.8,92,32,15,24.1,99.04,,,NA,3.294
30-12-2023 00:00,12,30,00:00,-0.9,-1.6,95,31,14,24.1,99.03,,-5,NA,3.331
30-12-2023 01:00,12,30,01:00,-0.3,-1.6,91,32,16,24.1,99.04,,-5,Mostly Cloudy,3.241
30-12-2023 02:00,12,30,02:00,-0.2,-2.3,86,32,16,24.1,99.03,,-5,NA,3.113
30-12-2023 03:00,12,30,03:00,-0.5,-2.1,89,32,19,24.1,99.05,,-6,NA,3.206
30-12-2023 04:00,12,30,04:00,-0.8,-2.3,89,32,18,24.1,99.06,,-6,Mostly Cloudy,3.146
30-12-2023 05:00,12,30,05:00,-0.9,-2.5,89,33,15,24.1,99.06,,-6,NA,3.216
30-12-2023 06:00,12,30,06:00,-1.2,-4.2,80,32,23,24.1,99.1,,-7,NA,3.16
30-12-2023 07:00,12,30,07:00,-1.8,-4.8,80,33,25,24.1,99.12,,-8,Cloudy,3.216
30-12-2023 08:00,12,30,08:00,-2.1,-4.5,84,32,19,24.1,99.14,,-8,NA,3.059
30-12-2023 09:00,12,30,09:00,-2.6,-4.3,88,30,20,24.1,99.19,,-9,NA,3.281
30-12-2023 10:00,12,30,10:00,-2.9,-4.8,87,33,23,24.1,99.22,,-9,Cloudy,3.212
30-12-2023 11:00,12,30,11:00,-3.3,-5.5,85,31,21,24.1,99.2,,-10,NA,3.188
30-12-2023 12:00,12,30,12:00,-3.5,-6.2,82,31,20,24.1,99.19,,-10,NA,3.19
30-12-2023 13:00,12,30,13:00,-3.6,-6,83,33,18,24.1,99.15,,-9,Cloudy,3.259
30-12-2023 14:00,12,30,14:00,-3.9,-7,79,34,17,24.1,99.18,,-10,NA,3.299
30-12-2023 15:00,12,30,15:00,-4.2,-7.1,80,35,21,24.1,99.23,,-11,NA,3.3
30-12-2023 16:00,12,30,16:00,-4,-6.8,81,34,12,24.1,99.3,,-9,Cloudy,3.227
30-12-2023 17:00,12,30,17:00,-4.3,-7.6,78,32,19,24.1,99.38,,-10,NA,3.292
30-12-2023 18:00,12,30,18:00,-4.5,-7.9,77,32,18,24.1,99.48,,-11,NA,3.275
30-12-2023 19:00,12,30,19:00,-4.5,-8.7,73,33,18,24.1,99.54,,-11,Snow Showers,3.345
30-12-2023 20:00,12,30,20:00,-4.4,-8.7,72,32,14,24.1,99.59,,-10,NA,3.209
30-12-2023 21:00,12,30,21:00,-4.4,-8.7,72,33,13,24.1,99.64,,-9,NA,3.318
30-12-2023 22:00,12,30,22:00,-4.5,-8.8,72,31,18,24.1,99.67,,-11,Cloudy,3.3
30-12-2023 23:00,12,30,23:00,-4.8,-9.8,68,34,15,24.1,99.74,,-10,NA,3.208
31-12-2023 00:00,12,31,00:00,-4.7,-9.4,70,32,15,24.1,99.76,,-10,NA,3.251
31-12-2023 01:00,12,31,01:00,-4.9,-9.7,69,33,14,24.1,99.8,,-10,Cloudy,3.286
31-12-2023 02:00,12,31,02:00,-5,-9.6,71,33,11,24.1,99.86,,-10,NA,3.168
31-12-2023 03:00,12,31,03:00,-4.8,-9.1,72,32,10,24.1,99.93,,-9,NA,3.283
31-12-2023 04:00,12,31,04:00,-4.9,-9.4,71,29,16,24.1,99.97,,-11,Cloudy,3.302
31-12-2023 05:00,12,31,05:00,-5.2,-9.3,73,33,13,24.1,99.97,,-10,NA,3.211
31-12-2023 06:00,12,31,06:00,-5.6,-10.1,71,30,11,24.1,100.02,,-10,NA,3.255
31-12-2023 07:00,12,31,07:00,-5.9,-9.8,74,30,15,24.1,100.11,,-12,Mostly Cloudy,3.288
31-12-2023 08:00,12,31,08:00,-6.4,-10.1,75,26,13,24.1,100.15,,-12,NA,3.234
31-12-2023 09:00,12,31,09:00,-6.5,-10.8,72,30,14,24.1,100.2,,-12,NA,3.279
31-12-2023 10:00,12,31,10:00,-6,-10.6,70,33,21,24.1,100.23,,-13,Mostly Cloudy,3.265
31-12-2023 11:00,12,31,11:00,-5.8,-10.4,70,30,17,24.1,100.23,,-12,NA,3.21
31-12-2023 12:00,12,31,12:00,-5.6,-10.6,68,30,13,24.1,100.21,,-11,NA,3.285
31-12-2023 13:00,12,31,13:00,-5.3,-10.1,69,30,10,24.1,100.18,,-10,Cloudy,3.229
31-12-2023 14:00,12,31,14:00,-5.4,-10.3,69,30,13,24.1,100.19,,-11,NA,3.358
31-12-2023 15:00,12,31,15:00,-5.5,-10.3,69,33,12,24.1,100.21,,-10,NA,3.35
31-12-2023 16:00,12,31,16:00,-5.5,-10.3,69,33,8,24.1,100.28,,-9,Mostly Cloudy,3.226
31-12-2023 17:00,12,31,17:00,-5.6,-10.2,70,36,10,24.1,100.31,,-10,NA,3.24
31-12-2023 18:00,12,31,18:00,-6,-11.1,67,33,3,24.1,100.32,,-7,NA,3.298
31-12-2023 19:00,12,31,19:00,-6.7,-10.3,76,26,5,24.1,100.37,,-9,Mostly Cloudy,3.324
31-12-2023 20:00,12,31,20:00,-6.6,-10.2,76,30,7,24.1,100.35,,-10,NA,3.199
31-12-2023 21:00,12,31,21:00,-8,-10.9,80,28,8,24.1,100.37,,-12,NA,3.326
31-12-2023 22:00,12,31,22:00,-7.5,-10.1,82,29,7,24.1,100.38,,-11,Mostly Cloudy,3.183
31-12-2023 23:00,12,31,23:00,-6.7,-10.2,76,35,10,24.1,100.41,,-11,NA,3.329
